source;record_sequence_number_NGA;event_id;ev_depth_km;Mw;M;epi_lat;epi_lon;network_code;station_code;sensor_depth_m;proximity_code;GMX_first;ec8_code;vs30_m_sec;epi_dist;rotD50_pga;rotD50_T0_010;rotD50_T0_025;rotD50_T0_040;rotD50_T0_050;rotD50_T0_070;rotD50_T0_100;rotD50_T0_150;rotD50_T0_200;rotD50_T0_250;rotD50_T0_300;rotD50_T0_350;rotD50_T0_400;rotD50_T0_450;rotD50_T0_500;rotD50_T0_600;rotD50_T0_700;rotD50_T0_750;rotD50_T0_800;rotD50_T0_900;rotD50_T1_000;rotD50_T1_200;rotD50_T1_400;rotD50_T1_600;rotD50_T1_800;rotD50_T2_000;rotD50_T2_500;rotD50_T3_000;rotD50_T3_500;rotD50_T4_000;rotD50_T5_000;rotD50_T6_000;rotD50_T7_000;rotD50_T8_000;rotD50_T9_000;rotD50_T10_000
NGA-West2;295;69;7;;6.2;40.8464;15.3316;;-999;;;A;;476.62;37.15;2.33E-02;2.34E-02;2.34E-02;2.62E-02;2.92E-02;3.97E-02;7.93E-02;8.96E-02;8.40E-02;1.10E-01;9.64E-02;1.48E-01;1.88E-01;9.70E-02;8.43E-02;4.47E-02;3.31E-02;3.84E-02;3.78E-02;4.28E-02;4.56E-02;3.14E-02;5.02E-02;5.19E-02;2.92E-02;3.82E-02;3.25E-02;1.65E-02;1.18E-02;1.15E-02;5.07E-03;5.61E-03;4.72E-03;3.97E-03;2.66E-03;1.57E-03
NGA-West2;296;69;7;;6.2;40.8464;15.3316;;-999;;;A;;649.67;22.29;5.17E-02;5.21E-02;5.21E-02;5.51E-02;6.22E-02;8.36E-02;1.79E-01;1.66E-01;1.55E-01;1.23E-01;1.29E-01;1.36E-01;1.38E-01;1.10E-01;2.49E-01;1.50E-01;1.28E-01;1.02E-01;9.62E-02;1.03E-01;9.73E-02;9.68E-02;5.69E-02;3.77E-02;3.97E-02;2.43E-02;1.56E-02;1.16E-02;8.96E-03;3.20E-03;2.18E-03;1.24E-03;6.47E-04;4.65E-04;3.93E-04;3.07E-04
NGA-West2;297;69;7;;6.2;40.8464;15.3316;;-999;;;A;;496.46;18.89;6.63E-02;6.64E-02;6.64E-02;7.04E-02;7.19E-02;7.46E-02;8.15E-02;1.57E-01;2.22E-01;2.58E-01;2.58E-01;3.52E-01;4.29E-01;2.25E-01;2.80E-01;2.03E-01;1.66E-01;1.46E-01;2.16E-01;2.77E-01;2.85E-01;2.24E-01;1.95E-01;1.39E-01;1.71E-01;1.50E-01;9.16E-02;6.34E-02;8.24E-02;6.90E-02;4.68E-02;1.84E-02;1.28E-02;9.54E-03;5.63E-03;3.86E-03
NGA-West2;298;69;7;;6.2;40.8464;15.3316;;-999;;;A;;356.39;47.45;3.00E-02;3.06E-02;3.06E-02;5.24E-02;1.02E-01;6.87E-02;8.45E-02;1.11E-01;1.65E-01;1.79E-01;1.99E-01;1.35E-01;1.30E-01;1.34E-01;1.13E-01;6.47E-02;6.43E-02;7.42E-02;8.06E-02;6.65E-02;5.31E-02;4.65E-02;4.26E-02;3.96E-02;2.58E-02;1.67E-02;9.16E-03;6.58E-03;3.43E-03;3.37E-03;1.75E-03;9.37E-04;6.03E-04;4.02E-04;3.21E-04;2.55E-04
NGA-West2;299;69;7;;6.2;40.8464;15.3316;;-999;;;A;;561.04;50.24;3.95E-02;3.98E-02;3.98E-02;4.41E-02;5.68E-02;8.97E-02;1.39E-01;2.72E-01;3.61E-01;1.20E-01;2.10E-01;1.84E-01;1.96E-01;1.61E-01;1.66E-01;1.21E-01;9.71E-02;9.46E-02;9.08E-02;6.62E-02;8.69E-02;4.62E-02;5.90E-02;6.09E-02;4.71E-02;5.99E-02;2.52E-02;2.02E-02;1.64E-02;6.86E-03;3.71E-03;1.70E-03;1.30E-03;9.01E-04;5.40E-04;4.58E-04
NGA-West2;300;69;7;;6.2;40.8464;15.3316;;-999;;;A;;455.93;11.97;1.73E-01;1.73E-01;1.73E-01;1.87E-01;1.90E-01;2.17E-01;3.24E-01;5.72E-01;5.84E-01;7.43E-01;6.13E-01;4.86E-01;8.35E-01;7.31E-01;4.90E-01;8.16E-01;6.22E-01;4.79E-01;5.28E-01;5.91E-01;5.13E-01;7.09E-01;4.52E-01;4.02E-01;2.72E-01;2.07E-01;1.12E-01;9.53E-02;5.87E-02;4.43E-02;2.87E-02;1.57E-02;8.36E-03;7.65E-03;5.41E-03;3.64E-03
