Record Sequence Number;EQID;Earthquake Name;YEAR;MODY;HRMN;Station Name;Station Sequence Number;Station ID  No.;Earthquake Magnitude;Magnitude Type;Magnitude Uncertainty: Kagan Model;Magnitude Uncertainty: Statistical;Magnitude Sample Size;Magnitude Uncertainty: Study Class;Mo (dyne.cm);Strike (deg);Dip (deg);Rake Angle (deg);Mechanism Based on Rake Angle;P-plunge (deg);P-trend (deg);T-plunge (deg);T-trend (deg);Hypocenter Latitude (deg);Hypocenter Longitude (deg);Hypocenter Depth (km);"Coseismic Surface Rupture: 1=Yes; 0=No;    -999=Unknown";Coseismic Surface Rupture (Including Inferred);Basis for Inference of Surface Rupture;"Finite Rupture Model: 1=Yes;  0=No";Depth to Top Of Fault Rupture Model;Fault Rupture Length for Calculation of Ry (km);Fault Rupture Width (km);Fault Rupture Area (km^2);Avg Fault Disp (cm);Rise Time (s);Avg Slip Velocity (cm/s);Static Stress Drop (bars);Preferred Rupture Velocity (km/s);Average Vr/Vs;Percent of Moment Release in the Top 5 Km of Crust;"Existence of Shallow Asperity: 0=No; 1=Yes";Depth to Top of Shallowest Asperity (km);"Earthquake in Extensional Regime: 1=Yes; 0=No";Fault Name;Slip Rate (mm/Yr);EpiD (km);HypD (km);Joyner-Boore Dist. (km);Campbell R Dist. (km);RmsD (km);ClstD (km);Rx;FW/HW Indicator;Source to Site Azimuth (deg);X;Theta.D (deg);SSGA (Strike Slip);Y;Phi.D (deg);SSGA (Dip Slip);s;d;ctildepr;Unused Column;D;Rfn.Hyp;Rfp.Hyp;Unused Column;Unused Column;Unused Column;T;GMX's C1;GMX's C2;GMX's C3;Campbell's GEOCODE;Bray and Rodriguez-Marek SGS;Depth;Preferred NEHRP Based on Vs30;Vs30 (m/s) selected for analysis;Column Not Used;Measured/Inferred Class;Sigma of Vs30 (in natural log Units);NEHRP Classification from CGS's Site Condition Map;Geological Unit;Geology;Owner;Station Latitude;Station Longitude;STORIES;INSTLOC;Depth to Basement Rock;Site Visited;NGA Type;Age;Grain Size;Depositional History;Northern CA/Southern CA - H11 Z1 (m);Northern CA/Southern CA - H11 Z1.5 (m);Northern CA/Southern CA - H11 Z2.5 (m);Northern CA/Southern CA - S4 Z1 (m);Northern CA/Southern CA - S4 Z1.5 (m);Northern CA/Southern CA - S4 Z2.5 (m);Depth to Franciscan Rock (km);Basin;h (m);hnorm (m);Rsbe (m);Rcebe (m);Rebe (m);Rsbe1 (m);File Name (Horizontal 1);File Name (Horizontal 2);File Name (Vertical);H1 azimth (degrees);H2 azimith (degrees);Type of Recording;Instrument Model;PEA Processing Flag;Type of Filter;npass;nroll;HP-H1 (Hz);HP-H2 (Hz);LP-H1 (Hz);LP-H2 (Hz);Factor;Lowest Usable Freq - H1 (Hz);Lowest Usable Freq - H2 (H2);Lowest Usable Freq - Ave. Component (Hz);PGA (g);PGV (cm/sec);PGD (cm);T0.010S;T0.020S;T0.022S;T0.025S;T0.029S;T0.030S;T0.032S;T0.035S;T0.036S;T0.040S;T0.042S;T0.044S;T0.045S;T0.046S;T0.048S;T0.050S;T0.055S;T0.060S;T0.065S;T0.067S;T0.070S;T0.075S;T0.080S;T0.085S;T0.090S;T0.095S;T0.100S;T0.110S;T0.120S;T0.130S;T0.133S;T0.140S;T0.150S;T0.160S;T0.170S;T0.180S;T0.190S;T0.200S;T0.220S;T0.240S;T0.250S;T0.260S;T0.280S;T0.290S;T0.300S;T0.320S;T0.340S;T0.350S;T0.360S;T0.380S;T0.400S;T0.420S;T0.440S;T0.450S;T0.460S;T0.480S;T0.500S;T0.550S;T0.600S;T0.650S;T0.667S;T0.700S;T0.750S;T0.800S;T0.850S;T0.900S;T0.950S;T1.000S;T1.100S;T1.200S;T1.300S;T1.400S;T1.500S;T1.600S;T1.700S;T1.800S;T1.900S;T2.000S;T2.200S;T2.400S;T2.500S;T2.600S;T2.800S;T3.000S;T3.200S;T3.400S;T3.500S;T3.600S;T3.800S;T4.000S;T4.200S;T4.400S;T4.600S;T4.800S;T5.000S;T5.500S;T6.000S;T6.500S;T7.000S;T7.500S;T8.000S;T8.500S;T9.000S;T9.500S;T10.000S;T11.000S;T12.000S;T13.000S;T14.000S;T15.000S;T20.000S;Ave Strike (deg);TYPE(CRjb = 0);CRjb;"TYPE
25;0022;Northern Calif-04;1960;0606;0117;Ferndale City Hall;133;1023;5.70;Mw;0.3000;-999;-999;0.3;3.9811E+24;314.9;90;0;0;0;269.9;0;179.9;40.8170;-124.8830;10;-999;0;M<6;0;5.548;9.7;8.4;81;-999;-999;-999;-999;-999;-999;-999;-999;-999;0;-999;-999;58.78;59.63;56.94;-999;62.19;57.21;18.14;na;161.42;0.2;17.98;0.19;0.53;61.13;0.26;-999;-999;-999;-999;-999;-999;-999;-999;-999;-999;-999;B;Q;D;A;D;S;D;219.31;-999;0;0.1;D;Qal, thin;-999;USGS;40.576;-124.263;2;GROUND LEVEL;-999;-999;-999;Pleistocene;-999;Alluvial Valley;-999;-999;-999;-999;-999;-999;-999;-999;-999;-999;-999;-999;-999;-999;NCALIF.AG\B-FRN224.AT2;NCALIF.AG\B-FRN314.AT2;NCALIF.AG\B-FRN-UP.AT2;224;314;A;-999;PEA;A;1;2.5;0.130;0.130;13.000;13.000;1.25;0.163;0.163;0.163;6.71E-02;3.92E+00;8.09E-01;6.71E-02;6.73E-02;6.91E-02;6.88E-02;6.86E-02;6.80E-02;6.80E-02;7.14E-02;6.95E-02;6.75E-02;7.38E-02;7.62E-02;7.56E-02;7.65E-02;7.56E-02;7.29E-02;7.80E-02;7.85E-02;7.55E-02;7.79E-02;7.89E-02;9.08E-02;9.80E-02;1.06E-01;1.55E-01;1.53E-01;1.96E-01;1.60E-01;2.13E-01;1.20E-01;1.52E-01;1.77E-01;2.34E-01;1.86E-01;2.64E-01;2.25E-01;2.29E-01;2.94E-01;2.68E-01;2.72E-01;2.90E-01;1.89E-01;2.48E-01;2.68E-01;2.55E-01;2.67E-01;2.54E-01;2.22E-01;1.53E-01;1.88E-01;1.57E-01;2.13E-01;1.80E-01;1.93E-01;2.22E-01;2.32E-01;1.92E-01;1.32E-01;1.19E-01;1.37E-01;1.08E-01;9.95E-02;1.10E-01;1.14E-01;1.59E-01;9.34E-02;9.09E-02;4.98E-02;4.82E-02;5.96E-02;4.68E-02;5.12E-02;2.88E-02;3.60E-02;3.44E-02;3.48E-02;2.45E-02;2.59E-02;2.67E-02;2.00E-02;1.90E-02;1.55E-02;1.41E-02;1.46E-02;9.81E-03;1.05E-02;1.23E-02;9.77E-03;9.56E-03;6.44E-03;6.55E-03;8.51E-03;5.52E-03;6.02E-03;6.22E-03;4.30E-03;4.80E-03;3.13E-03;3.80E-03;2.04E-03;1.30E-03;1.21E-03;9.11E-04;8.44E-04;8.55E-04;4.92E-04;3.61E-04;2.94E-04;2.21E-04;1.67E-04;8.63E-05;315;C1;0;C1;0;C1;0;C1;0;C1;0;C1;0;-999;-999;-999;-999;0.5;50;-999;-999;-999;-999;0;-999;-999;0;-999;-58.73910984
26;0023;Hollister-01;1961;0409;0723;Hollister City Hall;135;1028;5.60;U;0.3000;-999;-999;0.3;2.8184E+24;269;90;0;0;0;224;0;134;36.6830;-121.3000;7.4;-999;0;M<6;0;0.649;7.7;8.9;68.5;-999;-999;-999;-999;-999;-999;-999;-999;-999;0;-999;-999;20.61;21.90;19.55;-999;21.73;19.56;18.74;na;73.5;0.39;65.4;0.16;0.76;68.45;0.28;-999;-999;-999;-999;-999;-999;-999;-999;-999;-999;-999;C;H;D;A;D;D;D;198.77;-999;0;0.1;D;Qoa;-999;USGS;36.85;-121.4;1;BASEMENT;1.70;-999;-999;Holocene;Aggregate;-999;389;742;2843;389;742;2843;-999;-999;-999;-999;-999;-999;-999;-999;HOLLISTR\B-HCH181.AT2;HOLLISTR\B-HCH271.AT2;HOLLISTR\B-HCH-UP.AT2;181;271;A;-999;PEA;A;1;2.5;0.100;0.100;12.000;12.000;1.25;0.125;0.125;0.125;8.50E-02;1.02E+01;3.09E+00;8.51E-02;8.57E-02;8.58E-02;8.58E-02;8.73E-02;8.76E-02;8.67E-02;8.63E-02;8.66E-02;8.75E-02;8.95E-02;8.91E-02;8.99E-02;9.27E-02;9.28E-02;9.26E-02;9.82E-02;9.96E-02;1.02E-01;9.47E-02;1.09E-01;1.03E-01;1.16E-01;1.24E-01;1.39E-01;1.15E-01;1.23E-01;1.62E-01;1.98E-01;2.03E-01;2.05E-01;2.61E-01;3.15E-01;3.03E-01;2.90E-01;2.94E-01;3.02E-01;2.68E-01;3.16E-01;4.07E-01;3.91E-01;4.43E-01;5.86E-01;5.29E-01;4.64E-01;5.44E-01;4.29E-01;3.99E-01;4.00E-01;4.59E-01;4.59E-01;5.60E-01;4.51E-01;3.81E-01;4.19E-01;5.01E-01;4.59E-01;7.18E-01;3.64E-01;4.96E-01;4.54E-01;3.81E-01;5.17E-01;3.66E-01;3.09E-01;2.46E-01;3.11E-01;3.02E-01;2.08E-01;2.32E-01;2.50E-01;1.36E-01;1.33E-01;8.44E-02;7.66E-02;1.09E-01;1.22E-01;8.31E-02;4.02E-02;7.70E-02;6.73E-02;6.53E-02;5.57E-02;3.90E-02;2.71E-02;2.55E-02;2.23E-02;1.97E-02;2.14E-02;2.49E-02;2.59E-02;2.46E-02;2.27E-02;1.95E-02;1.74E-02;1.47E-02;1.17E-02;9.91E-03;8.12E-03;6.40E-03;5.55E-03;4.94E-03;3.64E-03;3.01E-03;2.53E-03;1.91E-03;1.63E-03;1.35E-03;1.22E-03;1.04E-03;5.04E-04;269;C1;0;C1;0;C1;0;C1;0;C1;0;C1;0;-999;-999;-999;-999;0.5;50;-999;-999;-999;-999;0;-999;-999;0;-999;9.314661832
27;0024;Hollister-02;1961;0409;0725;Hollister City Hall;135;1028;5.50;U;0.3000;-999;-999;0.3;1.9953E+24;19.8;90;0;0;0;334.8;0;244.8;36.7000;-121.3000;7.4;-999;0;M<6;0;5.596;7.1;7.6;54;-999;-999;-999;-999;-999;-999;-999;-999;-999;0;-999;-999;18.92;20.32;17.2;-999;21.59;18.08;-14.04;na;-54.75;0.39;47.91;0.26;0.24;62.21;0.11;-999;-999;-999;-999;-999;-999;-999;-999;-999;-999;-999;C;H;D;A;D;D;D;198.77;-999;0;0.1;D;Qoa;-999;USGS;36.85;-121.4;1;BASEMENT;1.70;-999;-999;Holocene;Aggregate;-999;389;742;2843;389;742;2843;-999;-999;-999;-999;-999;-999;-999;-999;HOLLISTR\C-HCH181.AT2;HOLLISTR\C-HCH271.AT2;HOLLISTR\C-HCH-UP.AT2;181;271;A;-999;PEA;A;1;2.5;0.230;0.200;13.000;10.000;1.25;0.288;0.250;0.288;6.23E-02;7.48E+00;1.28E+00;6.24E-02;6.27E-02;6.28E-02;6.30E-02;6.31E-02;6.35E-02;6.32E-02;6.47E-02;6.34E-02;6.51E-02;6.48E-02;6.53E-02;6.57E-02;6.62E-02;6.62E-02;6.61E-02;6.64E-02;7.03E-02;7.03E-02;7.29E-02;7.39E-02;7.90E-02;8.43E-02;8.43E-02;8.20E-02;8.94E-02;8.54E-02;1.06E-01;1.01E-01;1.16E-01;1.20E-01;1.30E-01;1.86E-01;1.53E-01;1.87E-01;1.34E-01;1.64E-01;2.09E-01;1.90E-01;2.60E-01;2.31E-01;2.65E-01;3.80E-01;4.16E-01;3.93E-01;3.30E-01;3.78E-01;2.78E-01;2.94E-01;2.64E-01;4.04E-01;5.02E-01;4.64E-01;4.13E-01;3.85E-01;3.53E-01;3.40E-01;5.28E-01;3.57E-01;3.00E-01;3.01E-01;3.27E-01;3.77E-01;2.29E-01;2.18E-01;1.71E-01;2.08E-01;2.62E-01;1.51E-01;2.03E-01;1.97E-01;1.26E-01;7.39E-02;5.76E-02;6.26E-02;6.14E-02;4.96E-02;4.21E-02;3.01E-02;2.50E-02;1.93E-02;1.65E-02;1.45E-02;1.32E-02;1.15E-02;1.06E-02;1.02E-02;9.48E-03;7.86E-03;5.77E-03;4.52E-03;3.99E-03;3.66E-03;3.43E-03;2.51E-03;2.08E-03;1.92E-03;1.66E-03;1.24E-03;1.03E-03;8.76E-04;7.72E-04;7.00E-04;6.46E-04;5.94E-04;5.01E-04;4.24E-04;3.61E-04;3.10E-04;2.68E-04;1.45E-04;20;C1;0;C2 - 0023;1.87;C2 - 0023;1.87;C2 - 0023;1.87;C2 - 0023;1.87;C2 - 0023;1.87;-999;-999;-999;-999;0.5;50;-999;-999;-999;-999;0;-999;-999;0;-999;13.43648155
28;0025;Parkfield;1966;0628;0426;Cholame - Shandon Array #12;131;1016;6.19;Mw;0.3000;0.265;12;0.2;2.1627E+25;140;90;180;0;0.0;188.0;0.0;98.0;35.9550;-120.4983;10;1;1;-999;1;0;25.0;12.0;300.0;20.2;0.57;35.7;10.2;2.6;0.7;-999;-999;-999;0;San Andreas fault, Parkfield section;34.00;36.18;37.54;17.64;-999;24.53;17.64;15.1;na;59;1.00;33.4;0.83;0.83;56.5;0.46;24.94;-999.00;1.96;-999;26.87;-0.67;0.09;-999;-999;-999;16.29;I;Q;D;B;D;S;C;408.93;-999;1;0.3;C;-999;-999;CDMG;35.639;-120.404;0;GROUND LEVEL;2.60;-999;-999;Holocene;Coarse;-999;80;-999;3400;-999;-999;-999;-999;-999;-999;-999;-999;-999;-999;-999;PARKF\C12050.AT2;PARKF\C12320.AT2;PARKF\C12DWN.AT2;50;320;A;-999;PEA;A;1;2.5;0.100;0.100;20.000;20.000;1.25;0.125;0.125;0.125;5.87E-02;7.20E+00;3.91E+00;5.88E-02;5.99E-02;6.00E-02;6.10E-02;6.04E-02;6.17E-02;6.29E-02;6.93E-02;7.06E-02;7.23E-02;8.35E-02;9.52E-02;9.09E-02;9.82E-02;9.90E-02;1.35E-01;1.18E-01;2.07E-01;2.17E-01;2.38E-01;2.91E-01;2.86E-01;2.57E-01;3.53E-01;3.02E-01;2.29E-01;2.67E-01;3.46E-01;1.50E-01;2.68E-01;1.87E-01;3.16E-01;2.77E-01;2.81E-01;3.99E-01;4.11E-01;2.86E-01;2.77E-01;2.41E-01;2.42E-01;2.51E-01;3.16E-01;2.22E-01;2.10E-01;3.00E-01;2.53E-01;2.34E-01;1.95E-01;1.57E-01;2.06E-01;1.82E-01;1.66E-01;1.84E-01;1.62E-01;1.76E-01;1.78E-01;1.55E-01;1.03E-01;1.01E-01;1.02E-01;8.63E-02;8.81E-02;1.26E-01;1.55E-01;1.02E-01;1.13E-01;1.50E-01;1.25E-01;9.61E-02;1.27E-01;1.05E-01;1.49E-01;1.40E-01;1.53E-01;1.50E-01;9.21E-02;1.08E-01;1.14E-01;6.02E-02;8.37E-02;9.07E-02;6.76E-02;6.38E-02;6.55E-02;3.42E-02;3.99E-02;3.97E-02;3.61E-02;3.90E-02;3.45E-02;2.91E-02;2.36E-02;2.10E-02;1.97E-02;1.91E-02;1.88E-02;2.45E-02;2.33E-02;1.71E-02;1.23E-02;8.73E-03;6.43E-03;5.10E-03;4.08E-03;3.43E-03;2.75E-03;2.58E-03;2.07E-03;1.63E-03;1.35E-03;6.29E-04;141.05;C1;0;C1;0;C1;0;C1;0;C1;0;C1;0;32.909509;1.53E+00;0.3184;0.3054;0.5;50;-999;-999;-999;-999;0;-999;Y;0;-999;20.409509
29;0025;Parkfield;1966;0628;0426;Cholame - Shandon Array #2;125;1013;6.19;Mw;0.3000;0.265;12;0.2;2.1627E+25;140;90;180;0;0.0;188.0;0.0;98.0;35.9550;-120.4983;10;1;1;-999;1;0;25.0;12.0;300.0;20.2;0.57;35.7;10.2;2.6;0.7;-999;-999;-999;0;San Andreas fault, Parkfield section;34.00;31.04;32.61;6.27;-999;14.78;6.27;0.71;na;6;1.00;4.7;1.00;0.83;4.1;0.83;24.94;-999.00;3.70;-999;26.87;-0.95;0.01;-999;-999;-999;1.31;I;H;D;A;D;S;D;184.75;-999;0;0.1;D;-999;-999;CDMG;35.733;-120.29;0;GROUND LEVEL;3.00;-999;-999;Holocene;Fine;Non-marine;80;-999;4220;-999;-999;1060;-999;-999;-999;-999;-999;-999;-999;-999;PARKF\C02065.AT2;PARKF\C02XXX.AT2;PARKF\C02DWN.AT2;65;-999;A;-999;PEA;A;1;2.5;0.080;-999;10.000;0.000;1.25;0.100;-999;0.100;-9.99E+02;-9.99E+02;-9.99E+02;-9.99E+02;-9.99E+02;-9.99E+02;-9.99E+02;-9.99E+02;-9.99E+02;-9.99E+02;-9.99E+02;-9.99E+02;-9.99E+02;-9.99E+02;-9.99E+02;-9.99E+02;-9.99E+02;-9.99E+02;-9.99E+02;-9.99E+02;-9.99E+02;-9.99E+02;-9.99E+02;-9.99E+02;-9.99E+02;-9.99E+02;-9.99E+02;-9.99E+02;-9.99E+02;-9.99E+02;-9.99E+02;-9.99E+02;-9.99E+02;-9.99E+02;-9.99E+02;-9.99E+02;-9.99E+02;-9.99E+02;-9.99E+02;-9.99E+02;-9.99E+02;-9.99E+02;-9.99E+02;-9.99E+02;-9.99E+02;-9.99E+02;-9.99E+02;-9.99E+02;-9.99E+02;-9.99E+02;-9.99E+02;-9.99E+02;-9.99E+02;-9.99E+02;-9.99E+02;-9.99E+02;-9.99E+02;-9.99E+02;-9.99E+02;-9.99E+02;-9.99E+02;-9.99E+02;-9.99E+02;-9.99E+02;-9.99E+02;-9.99E+02;-9.99E+02;-9.99E+02;-9.99E+02;-9.99E+02;-9.99E+02;-9.99E+02;-9.99E+02;-9.99E+02;-9.99E+02;-9.99E+02;-9.99E+02;-9.99E+02;-9.99E+02;-9.99E+02;-9.99E+02;-9.99E+02;-9.99E+02;-9.99E+02;-9.99E+02;-9.99E+02;-9.99E+02;-9.99E+02;-9.99E+02;-9.99E+02;-9.99E+02;-9.99E+02;-9.99E+02;-9.99E+02;-9.99E+02;-9.99E+02;-9.99E+02;-9.99E+02;-9.99E+02;-9.99E+02;-9.99E+02;-9.99E+02;-9.99E+02;-9.99E+02;-9.99E+02;-9.99E+02;-9.99E+02;-9.99E+02;-9.99E+02;-9.99E+02;-9.99E+02;-9.99E+02;-9.99E+02;-9.99E+02;141.05;C1;0;C1;0;C1;0;C1;0;C1;0;C1;0;31.099558;3.06E+00;0.4497;0.4497;0.5;50;-999;-999;-999;-999;0;-999;-999;0;-999;18.599558
30;0025;Parkfield;1966;0628;0426;Cholame - Shandon Array #5;127;1014;6.19;Mw;0.3000;0.265;12;0.2;2.1627E+25;140;90;180;0;0.0;188.0;0.0;98.0;35.9550;-120.4983;10;1;1;-999;1;0;25.0;12.0;300.0;20.2;0.57;35.7;10.2;2.6;0.7;-999;-999;-999;0;San Andreas fault, Parkfield section;34.00;32.56;34.06;9.58;-999;17.72;9.58;5.8;na;37;1.00;16.5;0.96;0.83;30.1;0.72;24.94;-999.00;2.95;-999;26.87;-0.90;0.06;-999;-999;-999;6.63;I;P;B;A;C;S;D;289.56;-999;0;0.1;D;-999;-999;CDMG;35.697;-120.328;0;GROUND LEVEL;1.10;-999;-999;Holocene;Coarse;Alluvium;80;-999;4420;-999;-999;1080;-999;-999;-999;-999;-999;-999;-999;-999;PARKF\C05085.AT2;PARKF\C05355.AT2;PARKF\C05DWN.AT2;85;355;A;-999;PEA;A;1;2.5;0.130;0.100;17.400;20.000;1.25;0.163;0.125;0.163;3.79E-01;2.35E+01;5.42E+00;3.80E-01;3.80E-01;3.81E-01;3.85E-01;3.85E-01;3.85E-01;3.93E-01;4.06E-01;3.94E-01;3.99E-01;4.57E-01;4.05E-01;4.51E-01;4.32E-01;4.58E-01;4.89E-01;5.40E-01;4.58E-01;5.31E-01;5.92E-01;5.93E-01;6.69E-01;8.06E-01;9.23E-01;9.97E-01;7.56E-01;9.85E-01;1.19E+00;1.16E+00;8.56E-01;7.87E-01;8.79E-01;1.07E+00;1.02E+00;1.04E+00;1.45E+00;1.12E+00;1.11E+00;7.15E-01;1.21E+00;1.27E+00;1.28E+00;1.55E+00;1.90E+00;2.33E+00;1.38E+00;1.48E+00;1.77E+00;1.94E+00;1.68E+00;1.53E+00;1.40E+00;1.02E+00;1.01E+00;1.11E+00;1.28E+00;1.24E+00;7.76E-01;5.31E-01;4.27E-01;4.03E-01;3.75E-01;4.64E-01;3.28E-01;3.96E-01;2.62E-01;2.59E-01;3.46E-01;2.57E-01;3.24E-01;2.15E-01;1.28E-01;1.29E-01;1.26E-01;1.51E-01;1.74E-01;1.65E-01;1.46E-01;1.25E-01;1.35E-01;1.05E-01;8.86E-02;6.67E-02;5.38E-02;4.80E-02;4.23E-02;4.09E-02;3.90E-02;3.50E-02;2.88E-02;2.70E-02;2.51E-02;2.21E-02;2.08E-02;1.98E-02;2.73E-02;2.61E-02;2.02E-02;1.50E-02;1.16E-02;9.39E-03;7.91E-03;6.66E-03;5.50E-03;4.45E-03;2.90E-03;2.18E-03;1.79E-03;1.49E-03;1.24E-03;5.95E-04;141.05;C1;0;C1;0;C1;0;C1;0;C1;0;C1;0;32.206458;2.91E+00;0.4076;0.4076;0.5;50;-999;-999;-999;-999;0;-999;?;0;-999;19.706458
31;0025;Parkfield;1966;0628;0426;Cholame - Shandon Array #8;129;1015;6.19;Mw;0.3000;0.265;12;0.2;2.1627E+25;140;90;180;0;0.0;188.0;0.0;98.0;35.9550;-120.4983;10;1;1;-999;1;0;25.0;12.0;300.0;20.2;0.57;35.7;10.2;2.6;0.7;-999;-999;-999;0;San Andreas fault, Parkfield section;34.00;34.01;35.45;12.9;-999;20.53;12.9;9.74;na;49;1.00;24.3;0.91;0.83;44.2;0.6;24.94;-999.00;2.44;-999;26.87;-0.82;0.09;-999;-999;-999;10.75;A;H;D;A;C;S;D;256.82;-999;1;0.25;D;-999;-999;CDMG;35.671;-120.359;1;GROUND LEVEL;1.90;-999;-999;Holocene;Fine;Alluvium;80;-999;4120;-999;-999;-999;-999;-999;-999;-999;-999;-999;-999;-999;PARKF\C08050.AT2;PARKF\C08320.AT2;PARKF\C08DWN.AT2;50;320;A;-999;PEA;A;1;2.5;0.100;0.050;20.000;20.000;1.25;0.125;0.063;0.125;2.47E-01;1.16E+01;4.35E+00;2.48E-01;2.48E-01;2.51E-01;2.54E-01;2.63E-01;2.66E-01;2.66E-01;2.56E-01;2.85E-01;2.95E-01;2.63E-01;2.89E-01;3.18E-01;3.66E-01;3.21E-01;3.60E-01;4.09E-01;5.62E-01;5.39E-01;4.54E-01;5.74E-01;8.77E-01;7.89E-01;9.96E-01;9.27E-01;6.84E-01;5.92E-01;8.27E-01;7.74E-01;8.28E-01;6.32E-01;1.14E+00;1.35E+00;1.16E+00;1.31E+00;1.25E+00;1.34E+00;1.22E+00;1.02E+00;7.26E-01;6.59E-01;9.48E-01;7.62E-01;6.93E-01;7.30E-01;7.16E-01;7.83E-01;5.07E-01;4.54E-01;4.97E-01;6.82E-01;8.92E-01;6.64E-01;5.12E-01;4.65E-01;6.84E-01;6.36E-01;3.82E-01;3.03E-01;4.13E-01;2.97E-01;3.39E-01;3.61E-01;2.48E-01;2.55E-01;3.03E-01;2.89E-01;3.01E-01;2.48E-01;2.31E-01;1.61E-01;1.21E-01;1.01E-01;9.49E-02;1.21E-01;1.17E-01;7.16E-02;7.66E-02;6.22E-02;4.38E-02;4.62E-02;4.63E-02;4.89E-02;4.68E-02;4.07E-02;3.94E-02;3.91E-02;3.88E-02;3.39E-02;3.53E-02;3.28E-02;2.79E-02;2.16E-02;1.83E-02;1.60E-02;2.12E-02;2.43E-02;2.07E-02;1.53E-02;1.10E-02;8.20E-03;6.75E-03;5.52E-03;4.68E-03;3.84E-03;3.13E-03;2.66E-03;2.07E-03;1.55E-03;1.19E-03;5.83E-04;141.05;C1;0;C1;0;C1;0;C1;0;C1;0;C1;0;32.727245;2.62E+00;0.3648;0.3648;0.5;50;-999;-999;-999;-999;0;-999;?;0;-999;20.227245
32;0025;Parkfield;1966;0628;0426;San Luis Obispo;147;1083;6.19;Mw;0.3000;0.265;12;0.2;2.1627E+25;140;90;180;0;0.0;188.0;0.0;98.0;35.9550;-120.4983;10;1;1;-999;1;0;25.0;12.0;300.0;20.2;0.57;35.7;10.2;2.6;0.7;-999;-999;-999;0;San Andreas fault, Parkfield section;34.00;75.99;76.65;63.34;-999;68.72;63.34;56.51;na;63;1.00;54.9;0.57;0.83;80.0;0.15;24.94;-999.00;1.33;-999;26.87;-0.05;-0.13;-999;-999;-999;59.52;C;Q;B;D;C;S;C;493.5;-999;2a_3a_4b_4c;0.3;B;KJf;-999;USGS;35.285;-120.661;-999;-999;-999;-999;-999;-999;-999;-999;40;-999;280;-999;-999;-999;-999;-999;-999;-999;-999;-999;-999;-999;PARKF\SLO234.AT2;PARKF\SLO324.AT2;PARKF\SLO-UP.AT2;234;324;A;-999;PEA;A;1;2.5;0.500;0.500;15.000;12.000;1.25;0.625;0.625;0.625;1.28E-02;7.91E-01;1.07E-01;1.28E-02;1.29E-02;1.29E-02;1.29E-02;1.32E-02;1.32E-02;1.32E-02;1.33E-02;1.31E-02;1.31E-02;1.42E-02;1.44E-02;1.49E-02;1.46E-02;1.45E-02;1.57E-02;1.60E-02;1.65E-02;2.21E-02;2.10E-02;2.82E-02;2.94E-02;2.75E-02;3.48E-02;3.37E-02;4.43E-02;4.93E-02;6.41E-02;5.25E-02;6.63E-02;6.61E-02;8.01E-02;6.78E-02;6.57E-02;5.61E-02;7.01E-02;8.91E-02;7.05E-02;4.33E-02;5.23E-02;6.19E-02;5.71E-02;5.49E-02;5.19E-02;4.30E-02;3.80E-02;4.41E-02;4.37E-02;4.47E-02;5.21E-02;5.31E-02;4.88E-02;4.50E-02;3.98E-02;3.74E-02;4.41E-02;5.73E-02;4.82E-02;2.87E-02;2.34E-02;2.38E-02;2.90E-02;2.71E-02;3.48E-02;2.24E-02;2.45E-02;1.87E-02;1.50E-02;1.50E-02;1.26E-02;1.09E-02;1.35E-02;1.15E-02;1.54E-02;9.77E-03;5.57E-03;6.30E-03;3.37E-03;4.45E-03;3.61E-03;2.94E-03;2.07E-03;1.83E-03;1.35E-03;9.82E-04;7.14E-04;6.20E-04;5.43E-04;4.85E-04;4.10E-04;3.39E-04;2.88E-04;2.43E-04;2.23E-04;2.07E-04;1.84E-04;1.54E-04;1.20E-04;1.08E-04;9.51E-05;7.82E-05;6.75E-05;5.86E-05;5.28E-05;4.66E-05;4.22E-05;3.67E-05;3.12E-05;2.63E-05;2.29E-05;1.21E-05;141.05;C1;0;C1;0;C1;0;C1;0;C1;0;C1;0;48.198128;2.05E-01;0.1949;0.1734;0.5;50;-999;-999;-999;-999;0;-999;-999;0;-999;35.698128
