Record Sequence Number;EQID;Earthquake Name;YEAR;MODY;HRMN;Station Name;Station Sequence Number;Station ID  No.;Earthquake Magnitude;Magnitude Type;Magnitude Uncertainty: Kagan Model;Magnitude Uncertainty: Statistical;Magnitude Sample Size;Magnitude Uncertainty: Study Class;Mo (dyne.cm);Strike (deg);Dip (deg);Rake Angle (deg);Mechanism Based on Rake Angle;P-plunge (deg);P-trend (deg);T-plunge (deg);T-trend (deg);Hypocenter Latitude (deg);Hypocenter Longitude (deg);Hypocenter Depth (km);"Coseismic Surface Rupture: 1=Yes; 0=No;    -999=Unknown";Coseismic Surface Rupture (Including Inferred);Basis for Inference of Surface Rupture;"Finite Rupture Model: 1=Yes;  0=No";Depth to Top Of Fault Rupture Model;Fault Rupture Length for Calculation of Ry (km);Fault Rupture Width (km);Fault Rupture Area (km^2);Avg Fault Disp (cm);Rise Time (s);Avg Slip Velocity (cm/s);Static Stress Drop (bars);Preferred Rupture Velocity (km/s);Average Vr/Vs;Percent of Moment Release in the Top 5 Km of Crust;"Existence of Shallow Asperity: 0=No; 1=Yes";Depth to Top of Shallowest Asperity (km);"Earthquake in Extensional Regime: 1=Yes; 0=No";Fault Name;Slip Rate (mm/Yr);EpiD (km);HypD (km);Joyner-Boore Dist. (km);Campbell R Dist. (km);RmsD (km);ClstD (km);Rx;FW/HW Indicator;Source to Site Azimuth (deg);X;Theta.D (deg);SSGA (Strike Slip);Y;Phi.D (deg);SSGA (Dip Slip);s;d;ctildepr;Unused Column;D;Rfn.Hyp;Rfp.Hyp;Unused Column;Unused Column;Unused Column;T;GMX's C1;GMX's C2;GMX's C3;Campbell's GEOCODE;Bray and Rodriguez-Marek SGS;Depth;Preferred NEHRP Based on Vs30;Vs30 (m/s) selected for analysis;Column Not Used;Measured/Inferred Class;Sigma of Vs30 (in natural log Units);NEHRP Classification from CGS's Site Condition Map;Geological Unit;Geology;Owner;Station Latitude;Station Longitude;STORIES;INSTLOC;Depth to Basement Rock;Site Visited;NGA Type;Age;Grain Size;Depositional History;Northern CA/Southern CA - H11 Z1 (m);Northern CA/Southern CA - H11 Z1.5 (m);Northern CA/Southern CA - H11 Z2.5 (m);Northern CA/Southern CA - S4 Z1 (m);Northern CA/Southern CA - S4 Z1.5 (m);Northern CA/Southern CA - S4 Z2.5 (m);Depth to Franciscan Rock (km);Basin;h (m);hnorm (m);Rsbe (m);Rcebe (m);Rebe (m);Rsbe1 (m);File Name (Horizontal 1);File Name (Horizontal 2);File Name (Vertical);H1 azimth (degrees);H2 azimith (degrees);Type of Recording;Instrument Model;PEA Processing Flag;Type of Filter;npass;nroll;HP-H1 (Hz);HP-H2 (Hz);LP-H1 (Hz);LP-H2 (Hz);Factor;Lowest Usable Freq - H1 (Hz);Lowest Usable Freq - H2 (H2);Lowest Usable Freq - Ave. Component (Hz);PGA (g);PGV (cm/sec);PGD (cm);T0.010S;T0.020S;T0.022S;T0.025S;T0.029S;T0.030S;T0.032S;T0.035S;T0.036S;T0.040S;T0.042S;T0.044S;T0.045S;T0.046S;T0.048S;T0.050S;T0.055S;T0.060S;T0.065S;T0.067S;T0.070S;T0.075S;T0.080S;T0.085S;T0.090S;T0.095S;T0.100S;T0.110S;T0.120S;T0.130S;T0.133S;T0.140S;T0.150S;T0.160S;T0.170S;T0.180S;T0.190S;T0.200S;T0.220S;T0.240S;T0.250S;T0.260S;T0.280S;T0.290S;T0.300S;T0.320S;T0.340S;T0.350S;T0.360S;T0.380S;T0.400S;T0.420S;T0.440S;T0.450S;T0.460S;T0.480S;T0.500S;T0.550S;T0.600S;T0.650S;T0.667S;T0.700S;T0.750S;T0.800S;T0.850S;T0.900S;T0.950S;T1.000S;T1.100S;T1.200S;T1.300S;T1.400S;T1.500S;T1.600S;T1.700S;T1.800S;T1.900S;T2.000S;T2.200S;T2.400S;T2.500S;T2.600S;T2.800S;T3.000S;T3.200S;T3.400S;T3.500S;T3.600S;T3.800S;T4.000S;T4.200S;T4.400S;T4.600S;T4.800S;T5.000S;T5.500S;T6.000S;T6.500S;T7.000S;T7.500S;T8.000S;T8.500S;T9.000S;T9.500S;T10.000S;T11.000S;T12.000S;T13.000S;T14.000S;T15.000S;T20.000S;Ave Strike (deg);TYPE(CRjb = 0);CRjb;"TYPE
33;0025;Parkfield;1966;0628;0426;Temblor pre-1969;162;1438;6.19;Mw;0.3000;0.265;12;0.2;2.1627E+25;140;90;180;0;0.0;188.0;0.0;98.0;35.9550;-120.4983;10;1;1;-999;1;0;25.0;12.0;300.0;20.2;0.57;35.7;10.2;2.6;0.7;-999;-999;-999;0;San Andreas fault, Parkfield section;34.00;40.25;41.48;15.96;-999;24.75;15.96;-6.84;na;-25.39;1.00;10.4;0.98;0.83;34.4;0.69;24.94;-999.00;3.33;-999;26.87;-0.91;-0.08;-999;-999;-999;-5.36;I;J;A;E;C;S;C;527.92;-999;1;0.3;C;serpentine;-999;CDMG;35.71;-120.17;0;GROUND LEVEL;2.80;-999;-999;Pleistocene;-999;-999;40;-999;4120;-999;-999;-999;-999;-999;-999;-999;-999;-999;-999;-999;PARKF\TMB205.AT2;PARKF\TMB295.AT2;PARKF\TMBDWN.AT2;205;295;A;-999;PEA;A;1;2.5;0.100;0.150;14.700;15.100;1.25;0.125;0.188;0.188;2.87E-01;1.65E+01;4.78E+00;2.88E-01;2.88E-01;2.88E-01;2.88E-01;2.89E-01;2.89E-01;2.88E-01;2.92E-01;2.92E-01;2.91E-01;2.89E-01;2.98E-01;3.03E-01;3.01E-01;3.12E-01;2.98E-01;3.12E-01;3.59E-01;3.29E-01;3.47E-01;3.21E-01;4.37E-01;4.99E-01;4.78E-01;3.95E-01;6.19E-01;4.72E-01;7.16E-01;6.03E-01;6.97E-01;7.83E-01;8.76E-01;6.20E-01;8.28E-01;7.20E-01;7.54E-01;8.95E-01;1.06E+00;1.42E+00;1.06E+00;1.29E+00;1.17E+00;7.71E-01;8.76E-01;1.01E+00;9.08E-01;1.13E+00;1.29E+00;1.43E+00;1.55E+00;1.32E+00;1.09E+00;9.44E-01;8.72E-01;8.07E-01;6.54E-01;5.18E-01;3.54E-01;2.44E-01;2.27E-01;2.24E-01;2.42E-01;1.68E-01;1.53E-01;1.58E-01;2.34E-01;2.42E-01;2.60E-01;2.30E-01;2.94E-01;2.30E-01;1.47E-01;9.63E-02;7.98E-02;8.91E-02;8.38E-02;7.36E-02;7.17E-02;6.23E-02;5.72E-02;4.79E-02;4.70E-02;3.60E-02;2.93E-02;2.54E-02;2.23E-02;2.14E-02;2.05E-02;1.91E-02;1.79E-02;1.67E-02;1.52E-02;1.42E-02;1.34E-02;1.30E-02;1.19E-02;1.18E-02;1.01E-02;8.25E-03;6.40E-03;5.38E-03;4.51E-03;3.83E-03;3.24E-03;2.88E-03;2.24E-03;1.80E-03;1.47E-03;1.22E-03;1.02E-03;4.97E-04;141.05;C1;0;C1;0;C1;0;C1;0;C1;0;C1;0;39.674258;2.95E+00;0.4764;0.4764;0.5;50;-999;-999;-999;-999;0;-999;-999;0;-999;27.174258
34;0026;Northern Calif-05;1967;1210;1206;Ferndale City Hall;133;1023;5.60;Mw;0.2844;-999;-999;0.3;2.8184E+24;312;90;180;0;0.0;357.0;0.0;267.0;40.5000;-124.6000;10;-999;0;M<6;0;8.763;8.3;8.6;72.1;-999;-999;-999;-999;-999;-999;-999;-999;-999;0;-999;-999;29.73;31.36;27.36;-999;32.03;28.73;25.38;na;111.93;0.63;58.64;0.33;0.14;68.5;0.05;-999;-999;-999;-999;-999;-999.00;-999.00;-999;-999;-999;-999;B;Q;D;A;D;S;D;219.31;-999;0;0.1;D;Qal, thin;-999;USGS;40.576;-124.263;2;GROUND LEVEL;-999;-999;-999;Pleistocene;-999;Alluvial Valley;-999;-999;-999;-999;-999;-999;-999;-999;-999;-999;-999;-999;-999;-999;NCALIF.AG\C-FRN224.AT2;NCALIF.AG\C-FRN314.AT2;NCALIF.AG\C-FRN-UP.AT2;224;314;A;-999;PEA;A;1;2.5;0.140;0.070;20.000;13.000;1.25;0.175;0.088;0.175;1.84E-01;1.15E+01;1.77E+00;1.85E-01;1.92E-01;1.90E-01;1.89E-01;1.97E-01;2.00E-01;1.97E-01;2.14E-01;2.26E-01;2.36E-01;2.34E-01;2.31E-01;2.47E-01;2.57E-01;2.76E-01;3.00E-01;3.26E-01;3.29E-01;3.37E-01;3.21E-01;3.12E-01;3.29E-01;3.68E-01;3.62E-01;4.55E-01;4.38E-01;3.74E-01;4.67E-01;4.08E-01;4.86E-01;5.23E-01;5.14E-01;5.59E-01;5.87E-01;6.46E-01;6.12E-01;5.78E-01;5.41E-01;4.81E-01;4.63E-01;3.53E-01;3.83E-01;2.64E-01;3.18E-01;3.05E-01;3.21E-01;2.71E-01;3.05E-01;3.18E-01;2.95E-01;3.14E-01;3.53E-01;3.14E-01;2.90E-01;2.84E-01;2.73E-01;2.85E-01;3.02E-01;2.86E-01;3.79E-01;3.73E-01;2.81E-01;2.50E-01;2.08E-01;2.04E-01;1.82E-01;1.75E-01;1.66E-01;1.75E-01;1.34E-01;1.03E-01;7.67E-02;5.35E-02;4.20E-02;3.08E-02;3.31E-02;2.72E-02;3.97E-02;2.59E-02;2.47E-02;2.18E-02;1.91E-02;1.93E-02;1.02E-02;1.56E-02;1.02E-02;9.65E-03;1.01E-02;7.37E-03;8.18E-03;6.40E-03;5.03E-03;6.69E-03;6.29E-03;3.94E-03;3.47E-03;2.57E-03;3.07E-03;3.57E-03;2.42E-03;2.43E-03;2.37E-03;1.76E-03;1.40E-03;1.10E-03;8.95E-04;1.04E-03;7.28E-04;4.94E-04;4.29E-04;2.59E-04;312;C1;0;C1;0;C1;0;C1;0;C1;0;C1;0;-999;-999;-999;-999;0.5;50;-999;-999;-999;-999;0;-999;-999;0;-999;-14.27857487
35;0027;Northern Calif-06;1967;1218;1725;Hollister City Hall;135;1028;5.20;U;0.2844;-999;-999;0.3;7.0795E+23;70.7;90;0;0;0;25.7;0;295.7;37.0100;-121.7880;7.4;-999;0;M<6;0;6.624;3;2.9;8.7;-999;-999;-999;-999;-999;-999;-999;-999;-999;0;-999;-999;38.83;39.53;37.11;-999;38.94;37.69;28.18;na;49.41;0.87;46.52;0.6;0.26;75.29;0.07;-999;-999;-999;-999;-999;-999;-999;-999;-999;-999;-999;C;H;D;A;D;D;D;198.77;-999;0;0.1;D;Qoa;-999;USGS;36.85;-121.4;1;BASEMENT;1.70;-999;-999;Holocene;Aggregate;-999;389;742;2843;389;742;2843;-999;-999;-999;-999;-999;-999;-999;-999;NCALIF.AG\E-HCH181.AT2;NCALIF.AG\E-HCH271.AT2;NCALIF.AG\E-HCH-UP.AT2;181;271;A;-999;PEA;A;1;2.5;0.300;0.300;13.000;15.000;1.25;0.375;0.375;0.375;1.53E-02;1.38E+00;2.62E-01;1.53E-02;1.53E-02;1.54E-02;1.55E-02;1.55E-02;1.56E-02;1.56E-02;1.60E-02;1.53E-02;1.60E-02;1.65E-02;1.60E-02;1.67E-02;1.61E-02;1.73E-02;1.68E-02;1.68E-02;1.70E-02;1.78E-02;2.02E-02;1.92E-02;2.02E-02;2.28E-02;2.19E-02;2.59E-02;2.13E-02;2.59E-02;3.21E-02;3.28E-02;3.61E-02;3.75E-02;5.38E-02;3.85E-02;6.69E-02;5.57E-02;5.01E-02;5.81E-02;5.02E-02;6.09E-02;7.22E-02;7.04E-02;6.25E-02;6.35E-02;5.93E-02;6.98E-02;6.08E-02;7.42E-02;7.97E-02;7.15E-02;8.82E-02;1.03E-01;1.01E-01;1.14E-01;1.31E-01;9.84E-02;7.08E-02;1.09E-01;8.24E-02;1.14E-01;1.07E-01;1.14E-01;6.29E-02;8.71E-02;7.37E-02;6.20E-02;4.49E-02;5.05E-02;3.77E-02;3.81E-02;3.43E-02;2.53E-02;2.26E-02;2.34E-02;1.98E-02;1.99E-02;1.53E-02;1.13E-02;1.42E-02;8.16E-03;8.73E-03;8.85E-03;7.76E-03;6.34E-03;5.72E-03;3.78E-03;2.87E-03;3.48E-03;3.90E-03;3.34E-03;2.46E-03;2.07E-03;1.49E-03;1.15E-03;9.37E-04;8.58E-04;5.47E-04;4.37E-04;3.33E-04;2.75E-04;2.65E-04;2.10E-04;1.76E-04;1.46E-04;1.22E-04;1.12E-04;9.11E-05;7.26E-05;6.83E-05;6.19E-05;5.51E-05;2.84E-05;71;C1;0;C1;0;C1;0;C1;0;C1;0;C1;0;-999;-999;-999;-999;0.5;50;-999;-999;-999;-999;0;-999;-999;0;-999;25.52014228
36;0028;Borrego Mtn;1968;0409;0230;El Centro Array #9;75;117;6.63;Mw;0.2688;0.125;4;0.3;9.8855E+25;317;78;-178;0;9.9;181.2;7.1;272.4;33.1890;-116.1430;8;1;1;-999;1;0;30.0;12.0;360.1;76.7;-999;-999;35.2;-999;-999;-999;-999;-999;0;San Jacinto fault, Borrego section;4.00;70.75;71.20;45.12;-999;58.68;45.66;12.44;na;164;0.86;8.8;0.85;0.47;65.4;0.19;25.92;-999.00;3.49;-999;26.51;0.89;0.30;-999;-999;-999;12.44;E;Q;D;A;D;D;D;213.44;-999;0;0.1;D;Qal, deep, Imperial V.;-999;USGS;32.794;-115.549;2;BASEMENT;5.00;-999;-999;Holocene;Aggregate;Lacustrine;1440;-999;3140;1420;-999;5320;-999;-999;-999;-999;-999;-999;-999;-999;BORREGO\A-ELC180.AT2;BORREGO\A-ELC270.AT2;BORREGO\A-ELC-UP.AT2;180;270;A;-999;PEA;A;1;2.5;0.040;0.080;12.500;12.800;1.25;0.050;0.100;0.100;9.40E-02;1.90E+01;1.26E+01;9.43E-02;9.42E-02;9.43E-02;9.46E-02;9.48E-02;9.50E-02;9.51E-02;9.56E-02;9.59E-02;9.63E-02;9.73E-02;9.87E-02;9.85E-02;9.83E-02;9.81E-02;9.88E-02;1.02E-01;1.09E-01;1.09E-01;1.16E-01;1.23E-01;1.13E-01;1.40E-01;1.35E-01;1.17E-01;1.56E-01;1.52E-01;1.92E-01;1.72E-01;1.73E-01;1.79E-01;2.01E-01;3.09E-01;3.72E-01;3.22E-01;3.22E-01;3.60E-01;3.46E-01;3.31E-01;4.16E-01;3.90E-01;4.25E-01;3.90E-01;2.67E-01;2.49E-01;3.05E-01;3.27E-01;3.06E-01;2.69E-01;2.24E-01;2.88E-01;2.28E-01;2.38E-01;2.16E-01;2.36E-01;2.85E-01;3.16E-01;2.73E-01;2.45E-01;3.39E-01;3.53E-01;2.68E-01;1.77E-01;1.86E-01;1.51E-01;2.23E-01;2.07E-01;3.10E-01;1.93E-01;2.68E-01;2.76E-01;2.41E-01;3.57E-01;3.71E-01;2.49E-01;2.83E-01;2.54E-01;1.97E-01;2.20E-01;1.97E-01;1.35E-01;1.50E-01;1.45E-01;1.06E-01;1.02E-01;8.65E-02;8.41E-02;8.30E-02;7.22E-02;5.50E-02;6.33E-02;7.97E-02;8.40E-02;6.68E-02;5.57E-02;8.86E-02;4.52E-02;3.58E-02;2.40E-02;3.33E-02;3.68E-02;3.42E-02;3.31E-02;2.97E-02;2.42E-02;1.66E-02;1.30E-02;9.38E-03;7.60E-03;5.50E-03;2.37E-03;317.00;C1;0;C1;0;C1;0;C1;0;C1;0;C1;0;-44.010768;3.04E+00;0.4905;0.3674;0.5;50;-999;-999;-999;-999;0;-999;Y;0;-999;-59.010768
37;0028;Borrego Mtn;1968;0409;0230;LA - Hollywood Stor FF;326;24303;6.63;Mw;0.2688;0.125;4;0.3;9.8855E+25;317;78;-178;0;9.9;181.2;7.1;272.4;33.1890;-116.1430;8;1;1;-999;1;0;30.0;12.0;360.1;76.7;-999;-999;35.2;-999;-999;-999;-999;-999;0;San Jacinto fault, Borrego section;4.00;226.84;226.98;222.42;-999;236.66;222.42;-76.49;na;-20.11;0.14;20.2;0.13;0.68;72.2;0.21;4.08;-999.00;1.33;-999;9.14;-0.78;-0.07;-999;-999;-999;-76.49;I;H;D;A;D;S;D;316.46;-999;0;0.1;D;Qal, thin, west LA;Holocene fine alluvium;CDMG;34.09;-118.339;0;GROUND LEVEL;2.50;-999;2;Holocene;Coarse;Alluvial Valley;260;-999;2540;320;-999;5140;-999;-999;-999;-999;-999;-999;-999;-999;BORREGO\A-PEL090.AT2;BORREGO\A-PEL180.AT2;BORREGO\A-PEL-UP.AT2;90;180;A;-999;PEA;A;1;2.5;0.080;0.130;13.000;13.000;1.25;0.100;0.163;0.163;1.26E-02;2.88E+00;1.28E+00;1.26E-02;1.26E-02;1.26E-02;1.27E-02;1.27E-02;1.27E-02;1.27E-02;1.28E-02;1.27E-02;1.28E-02;1.28E-02;1.29E-02;1.30E-02;1.28E-02;1.29E-02;1.31E-02;1.29E-02;1.28E-02;1.31E-02;1.37E-02;1.42E-02;1.51E-02;1.46E-02;1.79E-02;1.61E-02;1.66E-02;1.62E-02;2.17E-02;2.06E-02;2.13E-02;2.21E-02;2.13E-02;2.22E-02;2.47E-02;2.93E-02;2.91E-02;2.38E-02;3.46E-02;2.83E-02;4.13E-02;2.67E-02;4.97E-02;3.58E-02;3.43E-02;3.98E-02;2.87E-02;4.41E-02;3.73E-02;3.20E-02;4.45E-02;3.93E-02;3.63E-02;3.82E-02;3.84E-02;5.08E-02;6.83E-02;5.39E-02;5.41E-02;6.75E-02;6.21E-02;6.35E-02;4.60E-02;6.83E-02;6.15E-02;4.07E-02;6.00E-02;5.02E-02;5.46E-02;3.92E-02;4.04E-02;3.49E-02;5.80E-02;4.36E-02;3.94E-02;2.90E-02;5.12E-02;5.94E-02;5.44E-02;3.05E-02;2.16E-02;1.89E-02;2.46E-02;2.17E-02;1.43E-02;1.13E-02;1.13E-02;1.23E-02;1.58E-02;2.13E-02;2.37E-02;1.92E-02;1.23E-02;9.34E-03;8.63E-03;8.15E-03;6.02E-03;3.73E-03;2.91E-03;2.60E-03;2.55E-03;1.75E-03;1.59E-03;1.42E-03;1.19E-03;9.63E-04;8.39E-04;6.44E-04;5.69E-04;5.22E-04;4.63E-04;2.26E-04;317.00;C1;0;C1;0;C1;0;C1;0;C1;0;C1;0;238.85985;5.27E-01;0.2768;-0.2373;0.5;50;-999;-999;-999;-999;0;-999;-999;0;-999;223.85985
38;0028;Borrego Mtn;1968;0409;0230;LB - Terminal Island;81;130;6.63;Mw;0.2688;0.125;4;0.3;9.8855E+25;317;78;-178;0;9.9;181.2;7.1;272.4;33.1890;-116.1430;8;1;1;-999;1;0;30.0;12.0;360.1;76.7;-999;-999;35.2;-999;-999;-999;-999;-999;0;San Jacinto fault, Borrego section;4.00;204.23;204.39;199.84;-999;213.47;199.84;-94.1;na;-28.09;0.14;28.0;0.12;0.68;73.2;0.2;4.08;-999.00;1.33;-999;9.14;-0.59;-0.08;-999;-999;-999;-94.10;C;Q;D;A;D;D;D;217.92;-999;1;0.25;D;Qal, fine;-999;USGS;33.77;-118.23;1;BASEMENT;-999;-999;-999;-999;-999;-999;140;-999;2260;420;-999;3520;-999;-999;-999;-999;-999;-999;-999;-999;BORREGO\A-TLI249.AT2;BORREGO\A-TLI339.AT2;BORREGO\A-TLI-UP.AT2;249;339;A;-999;PEA;A;1;2.5;0.100;0.200;15.000;15.000;1.25;0.125;0.250;0.250;9.01E-03;2.50E+00;1.45E+00;9.02E-03;9.03E-03;9.03E-03;9.03E-03;9.03E-03;9.05E-03;9.11E-03;9.20E-03;9.10E-03;9.23E-03;9.54E-03;9.34E-03;9.31E-03;9.43E-03;9.54E-03;9.63E-03;1.01E-02;1.12E-02;1.07E-02;1.08E-02;1.20E-02;1.46E-02;1.23E-02;1.36E-02;1.37E-02;1.37E-02;1.49E-02;1.45E-02;1.71E-02;2.07E-02;2.04E-02;2.19E-02;1.81E-02;1.47E-02;1.90E-02;2.09E-02;2.64E-02;2.15E-02;3.54E-02;3.51E-02;4.79E-02;4.79E-02;3.43E-02;5.29E-02;7.08E-02;6.19E-02;5.42E-02;4.60E-02;3.78E-02;6.41E-02;7.98E-02;5.40E-02;5.41E-02;7.77E-02;5.68E-02;4.29E-02;5.66E-02;5.67E-02;5.45E-02;4.65E-02;6.17E-02;4.01E-02;5.97E-02;6.95E-02;4.54E-02;4.06E-02;4.08E-02;6.04E-02;2.65E-02;2.49E-02;3.13E-02;4.88E-02;2.89E-02;3.51E-02;3.19E-02;3.39E-02;3.23E-02;3.28E-02;2.49E-02;3.22E-02;3.36E-02;3.74E-02;2.01E-02;1.47E-02;1.17E-02;1.54E-02;1.05E-02;9.30E-03;1.69E-02;1.66E-02;1.31E-02;1.11E-02;8.02E-03;9.36E-03;1.04E-02;8.60E-03;1.10E-02;4.57E-03;4.23E-03;3.05E-03;3.07E-03;2.70E-03;2.91E-03;2.33E-03;1.73E-03;8.48E-04;7.18E-04;8.17E-04;6.28E-04;4.26E-04;1.66E-04;317.00;C1;0;C1;0;C1;0;C1;0;C1;0;C1;0;206.29863;4.00E-01;0.2603;-0.2231;0.5;50;-999;-999;-999;-999;0;-999;-999;0;-999;191.29863
39;0028;Borrego Mtn;1968;0409;0230;Pasadena - CIT Athenaeum;499;80053;6.63;Mw;0.2688;0.125;4;0.3;9.8855E+25;317;78;-178;0;9.9;181.2;7.1;272.4;33.1890;-116.1430;8;1;1;-999;1;0;30.0;12.0;360.1;76.7;-999;-999;35.2;-999;-999;-999;-999;-999;0;San Jacinto fault, Borrego section;4.00;211.53;211.68;207.14;-999;221.55;207.14;-58.27;na;-16.34;0.14;16.5;0.13;0.68;70.4;0.23;4.08;-999.00;1.33;-999;9.14;-0.85;-0.03;-999;-999;-999;-58.27;C;Q;D;B;D;D;C;415.13;-999;1;0.3;C;Qoa;-999;CIT;34.139;-118.121;2;BASEMENT;0.23;-999;-999;Holocene;Coarse;-999;80;-999;1100;320;-999;1680;-999;-999;-999;-999;-999;-999;-999;-999;BORREGO\A-PAS180.AT2;BORREGO\A-PAS270.AT2;BORREGO\A-PAS-UP.AT2;180;270;A;-999;PEA;A;1;2.5;0.120;0.130;13.000;13.000;1.25;0.150;0.163;0.163;8.25E-03;1.96E+00;8.81E-01;8.25E-03;8.26E-03;8.27E-03;8.25E-03;8.27E-03;8.33E-03;8.32E-03;8.35E-03;8.48E-03;8.49E-03;8.58E-03;8.61E-03;8.61E-03;8.80E-03;8.70E-03;8.80E-03;8.95E-03;9.54E-03;1.03E-02;9.47E-03;9.87E-03;1.01E-02;1.15E-02;1.25E-02;1.16E-02;1.45E-02;1.23E-02;1.12E-02;1.38E-02;1.34E-02;1.32E-02;1.43E-02;2.04E-02;1.76E-02;1.68E-02;2.35E-02;1.76E-02;2.30E-02;2.40E-02;3.75E-02;3.40E-02;3.79E-02;2.56E-02;2.75E-02;2.76E-02;2.68E-02;2.44E-02;2.20E-02;2.77E-02;2.92E-02;3.28E-02;3.87E-02;2.99E-02;2.80E-02;2.57E-02;3.46E-02;3.87E-02;3.67E-02;4.18E-02;6.00E-02;6.41E-02;5.41E-02;3.88E-02;6.06E-02;5.73E-02;4.06E-02;4.74E-02;3.22E-02;4.57E-02;4.51E-02;2.95E-02;4.34E-02;4.27E-02;4.43E-02;4.63E-02;2.70E-02;2.37E-02;2.81E-02;2.93E-02;2.02E-02;2.09E-02;2.43E-02;2.56E-02;1.52E-02;1.57E-02;1.42E-02;1.44E-02;1.47E-02;1.16E-02;1.10E-02;8.67E-03;6.55E-03;3.92E-03;2.92E-03;2.80E-03;3.61E-03;2.48E-03;1.44E-03;1.83E-03;1.61E-03;1.09E-03;1.03E-03;1.14E-03;1.23E-03;9.03E-04;5.90E-04;4.05E-04;3.01E-04;2.05E-04;1.80E-04;1.25E-04;317.00;C1;0;C1;0;C1;0;C1;0;C1;0;C1;0;228.7719;5.74E-01;0.2828;-0.243;0.5;50;-999;-999;-999;-999;0;-999;-999;0;-999;213.7719
40;0028;Borrego Mtn;1968;0409;0230;San Onofre - So Cal Edison;90;280;6.63;Mw;0.2688;0.125;4;0.3;9.8855E+25;317;78;-178;0;9.9;181.2;7.1;272.4;33.1890;-116.1430;8;1;1;-999;1;0;30.0;12.0;360.1;76.7;-999;-999;35.2;-999;-999;-999;-999;-999;0;San Jacinto fault, Borrego section;4.00;133.36;133.60;129.11;-999;141.6;129.11;-80.29;na;-38.45;0.14;37.9;0.11;0.68;72.4;0.21;4.08;-999.00;1.32;-999;9.14;-0.32;0.00;-999;-999;-999;-80.29;A;Q;B;C;C;S;C;442.88;-999;0;0.2;C;Qoa;-999;SCE;33.37;-117.56;1;GROUND LEVEL;-999;-999;-999;Tertiary;-999;-999;120;-999;960;-999;-999;2440;-999;-999;-999;-999;-999;-999;-999;-999;BORREGO\A-SON033.AT2;BORREGO\A-SON303.AT2;BORREGO\A-SON-UP.AT2;33;303;A;-999;PEA;A;1;2.5;0.100;0.130;20.000;20.000;1.25;0.125;0.163;0.163;4.20E-02;3.50E+00;1.75E+00;4.20E-02;4.23E-02;4.24E-02;4.24E-02;4.25E-02;4.30E-02;4.34E-02;4.35E-02;4.35E-02;4.47E-02;4.67E-02;4.69E-02;4.74E-02;4.64E-02;4.69E-02;5.22E-02;4.81E-02;5.30E-02;5.47E-02;5.42E-02;5.67E-02;6.11E-02;5.93E-02;5.87E-02;8.05E-02;6.96E-02;9.15E-02;1.18E-01;1.14E-01;1.11E-01;1.27E-01;1.31E-01;1.58E-01;1.49E-01;2.07E-01;2.10E-01;2.59E-01;2.74E-01;1.95E-01;1.89E-01;1.73E-01;1.58E-01;2.14E-01;1.99E-01;2.90E-01;3.11E-01;3.32E-01;3.08E-01;2.33E-01;2.04E-01;1.33E-01;1.90E-01;1.93E-01;1.56E-01;1.66E-01;1.12E-01;1.52E-01;1.95E-01;9.61E-02;7.75E-02;1.08E-01;8.07E-02;1.22E-01;1.38E-01;1.18E-01;9.25E-02;7.10E-02;7.76E-02;7.87E-02;6.04E-02;8.43E-02;7.42E-02;3.58E-02;4.18E-02;3.99E-02;3.72E-02;3.36E-02;3.71E-02;2.53E-02;2.56E-02;3.51E-02;3.54E-02;2.02E-02;2.02E-02;2.03E-02;1.90E-02;1.90E-02;1.77E-02;1.54E-02;1.82E-02;2.24E-02;2.08E-02;1.59E-02;1.19E-02;1.15E-02;1.06E-02;8.73E-03;7.36E-03;6.90E-03;4.97E-03;3.30E-03;2.83E-03;2.29E-03;1.79E-03;1.63E-03;1.12E-03;8.42E-04;6.74E-04;5.35E-04;4.48E-04;2.34E-04;317.00;C1;0;C1;0;C1;0;C1;0;C1;0;C1;0;131.11137;2.14E-01;0.2319;-0.203;0.5;50;-999;-999;-999;-999;0;-999;Y;0;-999;116.11137
