Record Sequence Number;EQID;Earthquake Name;YEAR;MODY;HRMN;Station Name;Station Sequence Number;Station ID  No.;Earthquake Magnitude;Magnitude Type;Magnitude Uncertainty: Kagan Model;Magnitude Uncertainty: Statistical;Magnitude Sample Size;Magnitude Uncertainty: Study Class;Mo (dyne.cm);Strike (deg);Dip (deg);Rake Angle (deg);Mechanism Based on Rake Angle;P-plunge (deg);P-trend (deg);T-plunge (deg);T-trend (deg);Hypocenter Latitude (deg);Hypocenter Longitude (deg);Hypocenter Depth (km);"Coseismic Surface Rupture: 1=Yes; 0=No;    -999=Unknown";Coseismic Surface Rupture (Including Inferred);Basis for Inference of Surface Rupture;"Finite Rupture Model: 1=Yes;  0=No";Depth to Top Of Fault Rupture Model;Fault Rupture Length for Calculation of Ry (km);Fault Rupture Width (km);Fault Rupture Area (km^2);Avg Fault Disp (cm);Rise Time (s);Avg Slip Velocity (cm/s);Static Stress Drop (bars);Preferred Rupture Velocity (km/s);Average Vr/Vs;Percent of Moment Release in the Top 5 Km of Crust;"Existence of Shallow Asperity: 0=No; 1=Yes";Depth to Top of Shallowest Asperity (km);"Earthquake in Extensional Regime: 1=Yes; 0=No";Fault Name;Slip Rate (mm/Yr);EpiD (km);HypD (km);Joyner-Boore Dist. (km);Campbell R Dist. (km);RmsD (km);ClstD (km);Rx;FW/HW Indicator;Source to Site Azimuth (deg);X;Theta.D (deg);SSGA (Strike Slip);Y;Phi.D (deg);SSGA (Dip Slip);s;d;ctildepr;Unused Column;D;Rfn.Hyp;Rfp.Hyp;Unused Column;Unused Column;Unused Column;T;GMX's C1;GMX's C2;GMX's C3;Campbell's GEOCODE;Bray and Rodriguez-Marek SGS;Depth;Preferred NEHRP Based on Vs30;Vs30 (m/s) selected for analysis;Column Not Used;Measured/Inferred Class;Sigma of Vs30 (in natural log Units);NEHRP Classification from CGS's Site Condition Map;Geological Unit;Geology;Owner;Station Latitude;Station Longitude;STORIES;INSTLOC;Depth to Basement Rock;Site Visited;NGA Type;Age;Grain Size;Depositional History;Northern CA/Southern CA - H11 Z1 (m);Northern CA/Southern CA - H11 Z1.5 (m);Northern CA/Southern CA - H11 Z2.5 (m);Northern CA/Southern CA - S4 Z1 (m);Northern CA/Southern CA - S4 Z1.5 (m);Northern CA/Southern CA - S4 Z2.5 (m);Depth to Franciscan Rock (km);Basin;h (m);hnorm (m);Rsbe (m);Rcebe (m);Rebe (m);Rsbe1 (m);File Name (Horizontal 1);File Name (Horizontal 2);File Name (Vertical);H1 azimth (degrees);H2 azimith (degrees);Type of Recording;Instrument Model;PEA Processing Flag;Type of Filter;npass;nroll;HP-H1 (Hz);HP-H2 (Hz);LP-H1 (Hz);LP-H2 (Hz);Factor;Lowest Usable Freq - H1 (Hz);Lowest Usable Freq - H2 (H2);Lowest Usable Freq - Ave. Component (Hz);PGA (g);PGV (cm/sec);PGD (cm);T0.010S;T0.020S;T0.022S;T0.025S;T0.029S;T0.030S;T0.032S;T0.035S;T0.036S;T0.040S;T0.042S;T0.044S;T0.045S;T0.046S;T0.048S;T0.050S;T0.055S;T0.060S;T0.065S;T0.067S;T0.070S;T0.075S;T0.080S;T0.085S;T0.090S;T0.095S;T0.100S;T0.110S;T0.120S;T0.130S;T0.133S;T0.140S;T0.150S;T0.160S;T0.170S;T0.180S;T0.190S;T0.200S;T0.220S;T0.240S;T0.250S;T0.260S;T0.280S;T0.290S;T0.300S;T0.320S;T0.340S;T0.350S;T0.360S;T0.380S;T0.400S;T0.420S;T0.440S;T0.450S;T0.460S;T0.480S;T0.500S;T0.550S;T0.600S;T0.650S;T0.667S;T0.700S;T0.750S;T0.800S;T0.850S;T0.900S;T0.950S;T1.000S;T1.100S;T1.200S;T1.300S;T1.400S;T1.500S;T1.600S;T1.700S;T1.800S;T1.900S;T2.000S;T2.200S;T2.400S;T2.500S;T2.600S;T2.800S;T3.000S;T3.200S;T3.400S;T3.500S;T3.600S;T3.800S;T4.000S;T4.200S;T4.400S;T4.600S;T4.800S;T5.000S;T5.500S;T6.000S;T6.500S;T7.000S;T7.500S;T8.000S;T8.500S;T9.000S;T9.500S;T10.000S;T11.000S;T12.000S;T13.000S;T14.000S;T15.000S;T20.000S;Ave Strike (deg);TYPE(CRjb = 0);CRjb;"TYPE
9;0009;Borrego;1942;1021;1622;El Centro Array #9;75;117;6.50;U;0.3000;-999;-999;0.3;6.3096E+25;40;90;0;0;0.0;355.0;0.0;265.0;33.0490;-116.0880;8;-999;0;locdis;0;0;26.9;15.2;409.7;-999;-999;-999;-999;-999;-999;-999;-999;-999;0;-999;-999;57.79;58.34;56.88;-999;60.21;56.88;56.78;na;86.56;0.27;79.25;0.05;0.52;81.98;0.07;-999;-999;-999;-999;-999;-999.00;-999.00;-999;-999;-999;-999;E;Q;D;A;D;D;D;213.44;-999;0;0.1;D;Qal, deep, Imperial V.;-999;USGS;32.794;-115.549;2;BASEMENT;5.00;-999;-999;Holocene;Aggregate;Lacustrine;1440;-999;3140;1420;-999;5320;-999;-999;-999;-999;-999;-999;-999;-999;BORREGO\B-ELC000.AT2;BORREGO\B-ELC090.AT2;BORREGO\B-ELC-UP.AT2;0;90;A;-999;PEA;A;1;2.5;0.100;0.100;15.000;15.000;1.25;0.125;0.125;0.125;5.22E-02;6.13E+00;4.23E+00;5.23E-02;5.28E-02;5.32E-02;5.33E-02;5.34E-02;5.43E-02;5.39E-02;5.87E-02;5.45E-02;5.87E-02;6.69E-02;6.92E-02;7.04E-02;7.39E-02;9.08E-02;7.69E-02;9.10E-02;8.91E-02;1.32E-01;1.15E-01;1.30E-01;1.59E-01;1.42E-01;2.52E-01;2.78E-01;2.17E-01;2.29E-01;2.18E-01;2.02E-01;3.13E-01;3.25E-01;2.92E-01;2.65E-01;2.20E-01;2.02E-01;3.81E-01;3.24E-01;3.53E-01;3.38E-01;3.02E-01;4.21E-01;3.22E-01;2.32E-01;2.24E-01;2.46E-01;3.19E-01;3.24E-01;3.17E-01;2.05E-01;2.77E-01;2.41E-01;3.19E-01;2.20E-01;1.77E-01;2.09E-01;3.31E-01;4.65E-01;1.64E-01;1.96E-01;1.33E-01;1.54E-01;1.24E-01;1.67E-01;2.11E-01;1.36E-01;1.44E-01;1.23E-01;1.21E-01;7.72E-02;9.96E-02;1.43E-01;1.12E-01;1.42E-01;1.14E-01;7.24E-02;1.08E-01;1.01E-01;9.59E-02;5.69E-02;3.65E-02;3.18E-02;2.32E-02;2.71E-02;2.10E-02;1.86E-02;1.95E-02;1.91E-02;1.73E-02;1.45E-02;1.56E-02;1.84E-02;2.26E-02;2.65E-02;3.09E-02;3.33E-02;2.69E-02;3.34E-02;3.39E-02;2.65E-02;2.07E-02;1.55E-02;1.15E-02;8.06E-03;5.79E-03;4.63E-03;2.88E-03;1.83E-03;1.31E-03;1.04E-03;9.75E-04;4.80E-04;40;C1;0;C1;0;C1;0;C1;0;C1;0;C1;0;-999;-999;-999;-999;0.5;50;-999;-999;-999;-999;0;-999;-999;0;-999;16.64594076
10;0010;Imperial Valley-03;1951;0124;0717;El Centro Array #9;75;117;5.60;U;0.3000;-999;-999;0.3;2.8184E+24;325.1;90;0;0;0.0;280.1;0.0;190.1;33.0320;-115.6540;9.5;1;1;-999;0;5.733;7;7.2;50.6;-999;-999;-999;-999;-999;-999;-999;-999;-999;1;-999;-999;28.24;29.80;24.58;-999;29.36;25.24;-7.11;na;-163.18;0.54;14.59;0.52;0.52;36.83;0.42;-999;-999;-999;-999;-999;-999.00;-999.00;-999;-999;-999;-999;E;Q;D;A;D;D;D;213.44;-999;0;0.1;D;Qal, deep, Imperial V.;-999;USGS;32.794;-115.549;2;BASEMENT;5.00;-999;-999;Holocene;Aggregate;Lacustrine;1440;-999;3140;1420;-999;5320;-999;-999;-999;-999;-999;-999;-999;-999;IMPVALL.BG\C-ELC000.AT2;IMPVALL.BG\C-ELC090.AT2;IMPVALL.BG\C-ELC-UP.AT2;0;90;A;-999;PEA;A;1;2.5;0.400;0.130;13.000;13.000;1.25;0.500;0.163;0.500;2.94E-02;3.08E+00;5.89E-01;2.94E-02;2.95E-02;2.96E-02;2.98E-02;2.97E-02;3.01E-02;3.02E-02;3.01E-02;3.01E-02;3.07E-02;3.07E-02;3.03E-02;3.10E-02;3.04E-02;2.99E-02;3.17E-02;3.14E-02;3.34E-02;4.00E-02;4.00E-02;4.19E-02;4.36E-02;4.62E-02;5.22E-02;6.14E-02;5.97E-02;7.89E-02;9.85E-02;1.11E-01;1.31E-01;1.33E-01;1.32E-01;1.23E-01;1.90E-01;1.65E-01;1.26E-01;1.38E-01;1.09E-01;1.43E-01;1.22E-01;1.79E-01;1.10E-01;1.07E-01;1.13E-01;1.33E-01;1.47E-01;1.26E-01;1.23E-01;1.20E-01;1.45E-01;1.28E-01;1.30E-01;1.43E-01;1.79E-01;1.48E-01;1.49E-01;1.53E-01;1.60E-01;1.61E-01;1.18E-01;2.16E-01;1.23E-01;1.07E-01;9.79E-02;9.01E-02;8.64E-02;7.65E-02;6.15E-02;6.98E-02;4.39E-02;4.95E-02;4.96E-02;3.80E-02;3.13E-02;2.71E-02;3.38E-02;3.80E-02;2.62E-02;2.92E-02;1.79E-02;1.49E-02;1.48E-02;1.23E-02;9.13E-03;1.19E-02;9.83E-03;8.87E-03;7.50E-03;8.41E-03;4.82E-03;4.90E-03;5.18E-03;3.26E-03;2.40E-03;2.12E-03;1.91E-03;1.26E-03;1.23E-03;1.04E-03;9.88E-04;7.97E-04;7.12E-04;5.40E-04;4.67E-04;4.17E-04;3.35E-04;2.81E-04;2.34E-04;1.94E-04;1.59E-04;9.81E-05;325;C1;0;C1;0;C1;0;C1;0;C1;0;C1;0;-999;-999;-999;-999;0.5;50;-999;-999;-999;-999;0;-999;-999;0;-999;-26.99644675
11;0011;Northwest Calif-03;1951;1008;0411;Ferndale City Hall;133;1023;5.80;Mw;0.3000;-999;-999;0.3;5.6234E+24;283.1;90;0;0;0;238.1;0;148.1;40.2830;-124.8000;10;-999;0;M<6;0;1.958;5.9;8.2;48.1;-999;-999;-999;-999;-999;-999;-999;-999;-999;0;-999;-999;55.96;56.85;53.73;-999;55.95;53.77;42.2;na;128.24;0.6;48.94;0.39;0.98;76.67;0.23;-999;-999;-999;-999;-999;-999;-999;-999;-999;-999;-999;B;Q;D;A;D;S;D;219.31;-999;0;0.1;D;Qal, thin;-999;USGS;40.576;-124.263;2;GROUND LEVEL;-999;-999;-999;Pleistocene;-999;Alluvial Valley;-999;-999;-999;-999;-999;-999;-999;-999;-999;-999;-999;-999;-999;-999;NWCALIF.AB\B-FRN224.AT2;NWCALIF.AB\B-FRN314.AT2;NWCALIF.AB\B-FRN-UP.AT2;224;314;A;-999;PEA;A;1;2.5;0.400;0.400;13.000;13.000;1.25;0.500;0.500;0.500;1.07E-01;6.33E+00;8.61E-01;1.07E-01;1.08E-01;1.09E-01;1.08E-01;1.12E-01;1.13E-01;1.13E-01;1.09E-01;1.17E-01;1.11E-01;1.19E-01;1.14E-01;1.13E-01;1.11E-01;1.27E-01;1.31E-01;1.30E-01;1.32E-01;1.16E-01;1.21E-01;1.27E-01;1.45E-01;2.46E-01;1.75E-01;2.49E-01;2.46E-01;2.74E-01;4.47E-01;2.68E-01;2.68E-01;3.23E-01;4.26E-01;5.16E-01;4.58E-01;5.49E-01;5.53E-01;7.86E-01;4.31E-01;4.53E-01;4.32E-01;3.90E-01;4.33E-01;4.43E-01;4.70E-01;6.41E-01;4.65E-01;2.14E-01;2.29E-01;3.34E-01;4.06E-01;4.46E-01;4.86E-01;4.71E-01;4.26E-01;3.91E-01;3.10E-01;2.50E-01;2.67E-01;1.98E-01;3.45E-01;3.03E-01;2.75E-01;2.42E-01;2.52E-01;1.83E-01;1.43E-01;1.48E-01;1.54E-01;1.09E-01;8.04E-02;6.39E-02;7.07E-02;6.94E-02;4.55E-02;5.16E-02;3.39E-02;2.55E-02;2.67E-02;2.03E-02;1.25E-02;1.19E-02;1.10E-02;9.35E-03;8.39E-03;7.07E-03;5.47E-03;4.65E-03;4.08E-03;3.38E-03;2.85E-03;2.44E-03;2.12E-03;1.87E-03;1.67E-03;1.51E-03;1.21E-03;1.00E-03;8.53E-04;7.37E-04;6.44E-04;5.67E-04;5.03E-04;4.49E-04;4.03E-04;3.64E-04;3.00E-04;2.51E-04;2.14E-04;1.84E-04;1.59E-04;8.86E-05;283;C1;0;C1;0;C1;0;C1;0;C1;0;C1;0;-999;-999;-999;-999;0.5;50;-999;-999;-999;-999;0;-999;-999;0;-999;-36.08515611
12;0012;Kern County;1952;0721;1153;LA - Hollywood Stor FF;326;24303;7.36;Mw;0.3000;0.145;9;0.2;1.2303E+27;51;75;61;2;24.5;163.1;51.3;287.8;34.9906;-119.0240;15.63;1;1;-999;1;0;64.7;17.0;1098.6;312.8;-999;-999;82.3;2.2;0.7;-999;-999;-999;0;White Wolf fault;2.00;118.26;119.29;114.62;-999;124.34;117.75;120.03;na;93;0.11;83.2;0.01;0.34;82.6;0.04;6.83;-999.00;0.88;-999;13.61;-0.78;0.52;-999;-999;-999;119.72;I;H;D;A;D;S;D;316.46;-999;0;0.1;D;Qal, thin, west LA;Holocene fine alluvium;CDMG;34.09;-118.339;0;GROUND LEVEL;2.50;-999;2;Holocene;Coarse;Alluvial Valley;260;-999;2540;320;-999;5140;-999;-999;-999;-999;-999;-999;-999;-999;KERN.PEL\PEL090.AT2;KERN.PEL\PEL180.AT2;KERN.PEL\PEL-UP.AT2;90;180;A;-999;PEA;A;1;2.5;0.100;0.100;15.000;13.000;1.25;0.125;0.125;0.125;5.27E-02;8.54E+00;3.89E+00;5.28E-02;5.29E-02;5.30E-02;5.30E-02;5.35E-02;5.38E-02;5.35E-02;5.35E-02;5.40E-02;5.55E-02;5.57E-02;5.49E-02;5.48E-02;5.54E-02;5.61E-02;5.52E-02;5.97E-02;6.35E-02;7.06E-02;7.50E-02;7.27E-02;7.46E-02;7.29E-02;9.54E-02;8.36E-02;1.14E-01;1.10E-01;1.25E-01;1.25E-01;1.43E-01;1.69E-01;1.54E-01;1.59E-01;1.95E-01;1.93E-01;1.72E-01;3.00E-01;2.23E-01;2.78E-01;3.02E-01;3.04E-01;2.50E-01;2.72E-01;2.06E-01;2.39E-01;3.44E-01;2.36E-01;2.97E-01;2.92E-01;2.57E-01;2.69E-01;2.74E-01;2.09E-01;2.62E-01;3.47E-01;3.72E-01;3.92E-01;2.60E-01;1.71E-01;1.41E-01;2.22E-01;1.91E-01;1.58E-01;2.92E-01;2.42E-01;1.77E-01;2.86E-01;2.31E-01;2.04E-01;1.35E-01;1.56E-01;1.88E-01;1.74E-01;1.08E-01;7.70E-02;4.62E-02;6.31E-02;6.87E-02;6.35E-02;9.49E-02;9.75E-02;7.95E-02;6.25E-02;5.26E-02;8.82E-02;8.82E-02;7.66E-02;7.27E-02;5.55E-02;5.44E-02;5.18E-02;4.02E-02;3.61E-02;2.48E-02;2.19E-02;2.21E-02;1.58E-02;1.80E-02;1.18E-02;9.25E-03;7.91E-03;6.13E-03;4.79E-03;4.31E-03;4.20E-03;3.42E-03;2.84E-03;2.12E-03;1.55E-03;1.21E-03;5.55E-04;51.00;C1;0;C1;0;C1;0;C1;0;C1;0;C1;0;-7.0467704;1.04E-01;0.0091;-0.1479;0.5;50;-999;-999;-999;-999;0;-999;Y;0;-999;-39.3967704
13;0012;Kern County;1952;0721;1153;Pasadena - CIT Athenaeum;499;80053;7.36;Mw;0.3000;0.145;9;0.2;1.2303E+27;51;75;61;2;24.5;163.1;51.3;287.8;34.9906;-119.0240;15.63;1;1;-999;1;0;64.7;17.0;1098.6;312.8;-999;-999;82.3;2.2;0.7;-999;-999;-999;0;White Wolf fault;2.00;125.81;126.77;122.65;-999;128.72;125.59;128.28;na;90;0.08;87.6;0;0.34;82.1;0.05;5.23;-999.00;0.86;-999;12.88;-0.86;0.46;-999;-999;-999;127.96;C;Q;D;B;D;D;C;415.13;-999;1;0.3;C;Qoa;-999;CIT;34.139;-118.121;2;BASEMENT;0.23;-999;-999;Holocene;Coarse;-999;80;-999;1100;320;-999;1680;-999;-999;-999;-999;-999;-999;-999;-999;KERN\PAS180.AT2;KERN\PAS270.AT2;KERN\PAS-UP.AT2;180;270;A;-999;PEA;A;1;2.5;0.200;0.130;12.500;12.100;1.25;0.250;0.163;0.250;5.10E-02;7.26E+00;2.13E+00;5.12E-02;5.11E-02;5.11E-02;5.11E-02;5.12E-02;5.12E-02;5.12E-02;5.12E-02;5.11E-02;5.11E-02;5.15E-02;5.13E-02;5.16E-02;5.21E-02;5.17E-02;5.23E-02;5.16E-02;5.30E-02;5.43E-02;5.53E-02;5.41E-02;5.83E-02;5.78E-02;6.19E-02;6.27E-02;7.45E-02;7.41E-02;7.81E-02;7.44E-02;8.01E-02;1.02E-01;1.02E-01;9.56E-02;8.09E-02;9.22E-02;1.18E-01;1.28E-01;1.33E-01;1.37E-01;1.70E-01;2.13E-01;1.86E-01;1.79E-01;1.94E-01;2.24E-01;3.03E-01;3.12E-01;2.22E-01;2.02E-01;1.62E-01;1.73E-01;2.13E-01;2.10E-01;2.45E-01;2.60E-01;2.66E-01;2.37E-01;3.24E-01;1.91E-01;3.30E-01;3.67E-01;4.47E-01;2.12E-01;2.46E-01;2.87E-01;2.88E-01;3.52E-01;2.26E-01;1.63E-01;1.50E-01;1.61E-01;1.24E-01;1.18E-01;1.74E-01;1.10E-01;1.17E-01;1.14E-01;1.23E-01;1.04E-01;9.14E-02;7.45E-02;6.75E-02;5.53E-02;4.27E-02;4.20E-02;3.85E-02;3.87E-02;4.32E-02;3.35E-02;2.54E-02;1.90E-02;2.29E-02;2.19E-02;1.33E-02;9.33E-03;7.09E-03;6.48E-03;5.58E-03;3.88E-03;2.92E-03;2.46E-03;2.61E-03;2.31E-03;2.20E-03;1.78E-03;1.09E-03;7.83E-04;6.23E-04;4.97E-04;4.19E-04;2.16E-04;51.00;C1;0;C1;0;C1;0;C1;0;C1;0;C1;0;12.058759;8.63E-02;0.0048;-0.1014;0.5;50;-999;-999;-999;-999;0;-999;?;0;-999;-20.2929
14;0012;Kern County;1952;0721;1153;Santa Barbara Courthouse;92;283;7.36;Mw;0.3000;0.145;9;0.2;1.2303E+27;51;75;61;2;24.5;163.1;51.3;287.8;34.9906;-119.0240;15.63;1;1;-999;1;0;64.7;17.0;1098.6;312.8;-999;-999;82.3;2.2;0.7;-999;-999;-999;0;White Wolf fault;2.00;88.39;89.76;81.3;-999;106.65;82.19;12.46;na;171;0.11;6.4;0.11;0.57;48.2;0.38;6.83;-999.00;1.61;-999;12.08;-0.37;0.02;-999;-999;-999;12.21;C;Q;D;B;D;S;C;514.99;-999;1;0.3;C;Qoa;-999;USGS;34.423;-119.7;2;BASEMENT;8.50;-999;-999;Holocene;Aggregate;-999;1380;-999;3980;-999;-999;-999;-999;-999;-999;-999;-999;-999;-999;-999;KERN\SBA042.AT2;KERN\SBA132.AT2;KERN\SBA-UP.AT2;42;132;A;-999;PEA;A;1;2.5;0.300;0.100;14.300;13.200;1.25;0.375;0.125;0.375;1.01E-01;1.55E+01;4.13E+00;1.01E-01;1.01E-01;1.01E-01;1.01E-01;1.01E-01;1.01E-01;1.01E-01;1.01E-01;1.01E-01;1.01E-01;1.01E-01;1.02E-01;1.01E-01;1.02E-01;1.02E-01;1.03E-01;1.03E-01;1.03E-01;1.05E-01;1.05E-01;1.07E-01;1.09E-01;1.08E-01;1.22E-01;1.37E-01;1.35E-01;1.36E-01;1.43E-01;1.49E-01;1.48E-01;1.53E-01;1.57E-01;1.43E-01;1.47E-01;2.14E-01;1.90E-01;1.91E-01;2.03E-01;2.62E-01;2.49E-01;2.64E-01;2.92E-01;3.87E-01;4.44E-01;4.28E-01;4.22E-01;4.73E-01;3.71E-01;3.38E-01;4.29E-01;4.97E-01;3.59E-01;3.80E-01;4.23E-01;3.84E-01;6.64E-01;5.47E-01;6.57E-01;3.57E-01;3.26E-01;4.58E-01;3.08E-01;4.05E-01;3.81E-01;3.93E-01;5.70E-01;4.98E-01;4.84E-01;4.00E-01;2.60E-01;2.90E-01;3.60E-01;2.98E-01;2.68E-01;2.46E-01;2.26E-01;2.86E-01;2.56E-01;1.55E-01;1.22E-01;1.03E-01;1.06E-01;8.45E-02;5.21E-02;5.65E-02;4.11E-02;3.23E-02;3.40E-02;3.46E-02;4.11E-02;4.14E-02;3.11E-02;2.49E-02;2.20E-02;1.87E-02;1.18E-02;8.86E-03;6.81E-03;7.66E-03;3.88E-03;3.19E-03;2.78E-03;2.41E-03;2.09E-03;1.80E-03;1.44E-03;1.23E-03;1.07E-03;9.22E-04;7.94E-04;4.81E-04;51.00;C1;0;C1;0;C1;0;C1;0;C1;0;C1;0;-81.01185;4.14E-01;0.1299;-0.6161;0.5;50;-999;-999;-999;-999;0;-999;Y;0;-999;-113.36185
15;0012;Kern County;1952;0721;1153;Taft Lincoln School;148;1095;7.36;Mw;0.3000;0.145;9;0.2;1.2303E+27;51;75;61;2;24.5;163.1;51.3;287.8;34.9906;-119.0240;15.63;1;1;-999;1;0;64.7;17.0;1098.6;312.8;-999;-999;82.3;2.2;0.7;-999;-999;-999;0;White Wolf fault;2.00;43.49;46.21;38.42;-999;56.44;38.89;-36.23;na;-109.44;0.11;63.2;0.05;0.66;55.7;0.37;6.83;-999.00;1.55;-999;12.08;-0.16;-0.65;-999;-999;-999;-36.44;F;Q;D;A;D;S;C;385.43;-999;0;0.2;D;Qal, thin;-999;USGS;35.15;-119.46;1;BASEMENT;6.40;-999;-999;-999;-999;-999;80;-999;3840;-999;-999;2300;-999;-999;-999;-999;-999;-999;-999;-999;KERN\TAF021.AT2;KERN\TAF111.AT2;KERN\TAF-UP.AT2;21;111;A;-999;PEA;A;1;2.5;0.100;0.050;13.900;13.200;1.25;0.125;0.063;0.125;1.65E-01;1.70E+01;8.04E+00;1.65E-01;1.65E-01;1.66E-01;1.67E-01;1.67E-01;1.68E-01;1.69E-01;1.70E-01;1.70E-01;1.69E-01;1.73E-01;1.72E-01;1.72E-01;1.77E-01;1.80E-01;1.84E-01;1.94E-01;1.98E-01;2.26E-01;2.26E-01;2.31E-01;3.01E-01;3.13E-01;5.07E-01;3.70E-01;4.12E-01;4.45E-01;4.92E-01;4.75E-01;5.32E-01;9.51E-01;7.52E-01;6.06E-01;8.00E-01;8.64E-01;7.29E-01;7.41E-01;9.68E-01;9.82E-01;8.92E-01;6.89E-01;7.88E-01;7.07E-01;6.41E-01;1.02E+00;9.99E-01;9.84E-01;1.12E+00;1.33E+00;8.36E-01;7.25E-01;9.08E-01;9.74E-01;9.33E-01;8.05E-01;6.79E-01;7.00E-01;5.93E-01;7.40E-01;7.19E-01;5.60E-01;6.60E-01;5.18E-01;5.62E-01;6.07E-01;4.88E-01;3.41E-01;3.13E-01;2.81E-01;2.38E-01;2.08E-01;2.31E-01;1.96E-01;2.25E-01;2.38E-01;1.81E-01;1.25E-01;1.02E-01;1.22E-01;6.66E-02;7.41E-02;8.25E-02;1.11E-01;6.17E-02;7.29E-02;5.60E-02;5.68E-02;6.15E-02;6.05E-02;5.97E-02;3.60E-02;4.61E-02;5.04E-02;4.79E-02;4.71E-02;4.13E-02;3.57E-02;2.99E-02;3.02E-02;2.36E-02;1.56E-02;1.64E-02;2.14E-02;1.84E-02;1.29E-02;7.34E-03;6.76E-03;6.22E-03;4.23E-03;2.87E-03;1.20E-03;51.00;C1;0;C1;0;C1;0;C1;0;C1;0;C1;0;-12.783809;6.99E-01;0.1082;-0.3883;0.5;50;-999;-999;-999;-999;0;-999;Y;0;-999;-45.133809
16;0013;Northern Calif-02;1952;0922;1141;Ferndale City Hall;133;1023;5.20;Mw;0.3000;-999;-999;0.3;7.0795E+23;0.4;90;0;0;0;315.4;0;225.4;40.2000;-124.4170;10;-999;0;M<6;0;7.104;4.1;5.6;23;-999;-999;-999;-999;-999;-999;-999;-999;-999;0;-999;-999;43.83;44.95;42.69;-999;45.71;43.28;12.75;na;17.38;0.29;16.92;0.28;0.51;51.9;0.32;-999;-999;-999;-999;-999;-999;-999;-999;-999;-999;-999;B;Q;D;A;D;S;D;219.31;-999;0;0.1;D;Qal, thin;-999;USGS;40.576;-124.263;2;GROUND LEVEL;-999;-999;-999;Pleistocene;-999;Alluvial Valley;-999;-999;-999;-999;-999;-999;-999;-999;-999;-999;-999;-999;-999;-999;NCALIF.AG\A-FRN044.AT2;NCALIF.AG\A-FRN134.AT2;NCALIF.AG\A-FRN-UP.AT2;44;134;A;-999;PEA;A;1;2.5;0.230;0.230;12.000;13.000;1.25;0.288;0.288;0.288;6.84E-02;5.45E+00;1.07E+00;6.85E-02;6.91E-02;6.90E-02;7.00E-02;7.01E-02;6.96E-02;7.05E-02;7.18E-02;6.94E-02;7.44E-02;7.65E-02;7.23E-02;7.32E-02;7.67E-02;8.67E-02;8.70E-02;7.50E-02;8.08E-02;8.69E-02;8.92E-02;9.17E-02;1.08E-01;9.28E-02;9.70E-02;1.31E-01;1.61E-01;1.39E-01;1.44E-01;2.50E-01;2.21E-01;2.23E-01;3.35E-01;3.57E-01;2.79E-01;2.73E-01;3.57E-01;2.72E-01;3.44E-01;3.20E-01;3.56E-01;2.83E-01;2.23E-01;2.28E-01;2.29E-01;2.69E-01;3.55E-01;4.21E-01;4.41E-01;4.44E-01;4.23E-01;3.19E-01;2.29E-01;1.46E-01;1.49E-01;1.58E-01;1.47E-01;1.77E-01;1.26E-01;1.45E-01;1.63E-01;1.82E-01;2.21E-01;2.79E-01;1.84E-01;1.38E-01;1.38E-01;1.01E-01;1.19E-01;1.78E-01;1.06E-01;7.45E-02;5.89E-02;6.55E-02;7.75E-02;3.91E-02;3.19E-02;3.25E-02;3.82E-02;2.97E-02;2.45E-02;2.55E-02;2.65E-02;2.51E-02;1.97E-02;1.45E-02;1.20E-02;1.05E-02;9.21E-03;6.29E-03;5.54E-03;4.16E-03;4.23E-03;3.27E-03;3.11E-03;2.62E-03;2.38E-03;1.59E-03;1.28E-03;1.05E-03;8.84E-04;7.52E-04;6.50E-04;5.68E-04;5.02E-04;4.47E-04;3.63E-04;3.01E-04;2.55E-04;2.19E-04;1.90E-04;1.07E-04;0;C1;0;C1;0;C1;0;C1;0;C1;0;C2 - 0011;32.26;-999;-999;-999;-999;0.5;50;-999;-999;-999;-999;0;-999;-999;0;-999;42.69671605
