Record Sequence Number;EQID;Earthquake Name;YEAR;MODY;HRMN;Station Name;Station Sequence Number;Station ID  No.;Earthquake Magnitude;Magnitude Type;Magnitude Uncertainty: Kagan Model;Magnitude Uncertainty: Statistical;Magnitude Sample Size;Magnitude Uncertainty: Study Class;Mo (dyne.cm);Strike (deg);Dip (deg);Rake Angle (deg);Mechanism Based on Rake Angle;P-plunge (deg);P-trend (deg);T-plunge (deg);T-trend (deg);Hypocenter Latitude (deg);Hypocenter Longitude (deg);Hypocenter Depth (km);"Coseismic Surface Rupture: 1=Yes; 0=No;    -999=Unknown";Coseismic Surface Rupture (Including Inferred);Basis for Inference of Surface Rupture;"Finite Rupture Model: 1=Yes;  0=No";Depth to Top Of Fault Rupture Model;Fault Rupture Length for Calculation of Ry (km);Fault Rupture Width (km);Fault Rupture Area (km^2);Avg Fault Disp (cm);Rise Time (s);Avg Slip Velocity (cm/s);Static Stress Drop (bars);Preferred Rupture Velocity (km/s);Average Vr/Vs;Percent of Moment Release in the Top 5 Km of Crust;"Existence of Shallow Asperity: 0=No; 1=Yes";Depth to Top of Shallowest Asperity (km);"Earthquake in Extensional Regime: 1=Yes; 0=No";Fault Name;Slip Rate (mm/Yr);EpiD (km);HypD (km);Joyner-Boore Dist. (km);Campbell R Dist. (km);RmsD (km);ClstD (km);Rx;FW/HW Indicator;Source to Site Azimuth (deg);X;Theta.D (deg);SSGA (Strike Slip);Y;Phi.D (deg);SSGA (Dip Slip);s;d;ctildepr;Unused Column;D;Rfn.Hyp;Rfp.Hyp;Unused Column;Unused Column;Unused Column;T;GMX's C1;GMX's C2;GMX's C3;Campbell's GEOCODE;Bray and Rodriguez-Marek SGS;Depth;Preferred NEHRP Based on Vs30;Vs30 (m/s) selected for analysis;Column Not Used;Measured/Inferred Class;Sigma of Vs30 (in natural log Units);NEHRP Classification from CGS's Site Condition Map;Geological Unit;Geology;Owner;Station Latitude;Station Longitude;STORIES;INSTLOC;Depth to Basement Rock;Site Visited;NGA Type;Age;Grain Size;Depositional History;Northern CA/Southern CA - H11 Z1 (m);Northern CA/Southern CA - H11 Z1.5 (m);Northern CA/Southern CA - H11 Z2.5 (m);Northern CA/Southern CA - S4 Z1 (m);Northern CA/Southern CA - S4 Z1.5 (m);Northern CA/Southern CA - S4 Z2.5 (m);Depth to Franciscan Rock (km);Basin;h (m);hnorm (m);Rsbe (m);Rcebe (m);Rebe (m);Rsbe1 (m);File Name (Horizontal 1);File Name (Horizontal 2);File Name (Vertical);H1 azimth (degrees);H2 azimith (degrees);Type of Recording;Instrument Model;PEA Processing Flag;Type of Filter;npass;nroll;HP-H1 (Hz);HP-H2 (Hz);LP-H1 (Hz);LP-H2 (Hz);Factor;Lowest Usable Freq - H1 (Hz);Lowest Usable Freq - H2 (H2);Lowest Usable Freq - Ave. Component (Hz);PGA (g);PGV (cm/sec);PGD (cm);T0.010S;T0.020S;T0.022S;T0.025S;T0.029S;T0.030S;T0.032S;T0.035S;T0.036S;T0.040S;T0.042S;T0.044S;T0.045S;T0.046S;T0.048S;T0.050S;T0.055S;T0.060S;T0.065S;T0.067S;T0.070S;T0.075S;T0.080S;T0.085S;T0.090S;T0.095S;T0.100S;T0.110S;T0.120S;T0.130S;T0.133S;T0.140S;T0.150S;T0.160S;T0.170S;T0.180S;T0.190S;T0.200S;T0.220S;T0.240S;T0.250S;T0.260S;T0.280S;T0.290S;T0.300S;T0.320S;T0.340S;T0.350S;T0.360S;T0.380S;T0.400S;T0.420S;T0.440S;T0.450S;T0.460S;T0.480S;T0.500S;T0.550S;T0.600S;T0.650S;T0.667S;T0.700S;T0.750S;T0.800S;T0.850S;T0.900S;T0.950S;T1.000S;T1.100S;T1.200S;T1.300S;T1.400S;T1.500S;T1.600S;T1.700S;T1.800S;T1.900S;T2.000S;T2.200S;T2.400S;T2.500S;T2.600S;T2.800S;T3.000S;T3.200S;T3.400S;T3.500S;T3.600S;T3.800S;T4.000S;T4.200S;T4.400S;T4.600S;T4.800S;T5.000S;T5.500S;T6.000S;T6.500S;T7.000S;T7.500S;T8.000S;T8.500S;T9.000S;T9.500S;T10.000S;T11.000S;T12.000S;T13.000S;T14.000S;T15.000S;T20.000S;Ave Strike (deg);TYPE(CRjb = 0);CRjb;"TYPE
41;0029;Lytle Creek;1970;0912;1430;Castaic - Old Ridge Route;323;24278;5.33;Mw;0.2376;0.096;4;0.3;1.1092E+24;325;48;59;3;1.3;256.4;67.5;163.2;34.2698;-117.5400;8;-999;0;M<6;0;5.627;4.5;3.8;17.2;-999;-999;-999;-999;-999;-999;-999;-999;-999;0;-999;-999;106.33;106.63;103.23;-999;106.03;103.39;-61.5;nu;-36.57;0.5;36.76;-999;0.84;40.83;-999;-999;-999;-999;-999;-999;-999.00;-999.00;-999;-999;-999;-999;I;M;B;C;C;S;C;450.28;-999;1;0.3;C;Tsh;Lt-Miocene mudst/sandst(Castaic);CDMG;34.564;-118.642;0;GROUND LEVEL;10.00;-999;2;Mesozoic;-999;-999;820;-999;1620;320;-999;1520;-999;-999;-999;-999;-999;-999;-999;-999;LYTLECR\ORR021.AT2;LYTLECR\ORR291.AT2;LYTLECR\ORRDWN.AT2;21;291;A;-999;PEA;A;1;2.5;0.400;0.400;28.000;13.000;1.25;0.500;0.500;0.500;2.01E-02;1.26E+00;1.87E-01;2.02E-02;2.13E-02;2.13E-02;2.33E-02;2.46E-02;2.40E-02;2.58E-02;2.45E-02;2.91E-02;2.45E-02;2.55E-02;2.57E-02;2.54E-02;2.68E-02;2.71E-02;2.67E-02;2.81E-02;3.01E-02;3.06E-02;3.02E-02;3.09E-02;4.20E-02;4.25E-02;5.48E-02;4.68E-02;5.21E-02;5.34E-02;7.72E-02;7.85E-02;7.98E-02;9.91E-02;1.06E-01;1.69E-01;1.47E-01;1.12E-01;1.31E-01;1.11E-01;1.62E-01;9.78E-02;8.58E-02;1.05E-01;1.16E-01;6.70E-02;5.61E-02;7.65E-02;1.11E-01;1.25E-01;1.05E-01;9.28E-02;8.66E-02;1.36E-01;9.96E-02;7.95E-02;8.45E-02;1.12E-01;1.21E-01;1.09E-01;4.87E-02;4.37E-02;5.26E-02;5.20E-02;5.19E-02;2.69E-02;1.87E-02;2.19E-02;2.00E-02;2.35E-02;2.49E-02;1.91E-02;1.35E-02;9.08E-03;6.26E-03;5.79E-03;4.49E-03;6.63E-03;4.50E-03;3.02E-03;2.48E-03;2.07E-03;1.83E-03;1.74E-03;1.74E-03;1.75E-03;1.34E-03;1.17E-03;8.23E-04;6.92E-04;5.92E-04;5.12E-04;4.38E-04;3.90E-04;3.64E-04;3.45E-04;3.35E-04;3.41E-04;3.08E-04;2.26E-04;1.81E-04;1.55E-04;1.34E-04;1.16E-04;1.01E-04;9.04E-05;8.14E-05;7.36E-05;6.11E-05;5.15E-05;4.39E-05;3.80E-05;3.31E-05;1.87E-05;325;C1;0;C1;0;C1;0;C1;0;C1;0;C1;0;-999;-999;-999;-999;0.5;50;-999;-999;-999;-999;0;Y;Y;0;-999;85.01128886
42;0029;Lytle Creek;1970;0912;1430;Cedar Springs Pumphouse;73;112;5.33;Mw;0.2376;0.096;4;0.3;1.1092E+24;325;48;59;3;1.3;256.4;67.5;163.2;34.2698;-117.5400;8;-999;0;M<6;0;5.627;4.5;3.8;17.2;-999;-999;-999;-999;-999;-999;-999;-999;-999;0;-999;-999;22.51;23.89;21.33;-999;24.38;22.94;22.79;hw;106.38;0.5;66.54;0.2;0.16;69.18;0.06;-999;-999;-999;-999;-999;-999.00;-999.00;-999;-999;-999;-999;A;H;C;A;C;S;C;477.22;-999;0;0.2;D;Kgr;-999;CDWR;34.31;-117.3;1;GROUND LEVEL;0.09;-999;-999;-999;-999;-999;40;-999;220;-999;-999;-999;-999;-999;-999;-999;-999;-999;-999;-999;LYTLECR\CSP126.AT2;LYTLECR\CSP216.AT2;LYTLECR\CSPDWN.AT2;126;216;A;-999;PEA;A;1;2.5;0.400;0.280;20.000;20.000;1.25;0.500;0.350;0.500;6.79E-02;3.74E+00;3.77E-01;6.79E-02;6.95E-02;7.09E-02;6.98E-02;7.52E-02;7.77E-02;8.10E-02;8.56E-02;8.18E-02;8.64E-02;8.95E-02;1.01E-01;8.57E-02;8.74E-02;1.08E-01;9.73E-02;1.28E-01;1.15E-01;1.71E-01;1.73E-01;2.07E-01;2.57E-01;2.50E-01;2.59E-01;2.53E-01;2.45E-01;2.02E-01;2.90E-01;3.45E-01;3.68E-01;3.38E-01;3.02E-01;3.51E-01;3.89E-01;3.54E-01;3.49E-01;2.69E-01;2.57E-01;3.32E-01;2.23E-01;2.01E-01;1.79E-01;2.33E-01;2.18E-01;2.32E-01;2.51E-01;2.52E-01;2.49E-01;2.43E-01;2.19E-01;1.74E-01;1.50E-01;1.27E-01;1.19E-01;1.12E-01;9.69E-02;8.75E-02;8.75E-02;7.86E-02;7.04E-02;7.60E-02;7.01E-02;6.41E-02;5.19E-02;4.15E-02;3.39E-02;2.85E-02;2.48E-02;1.94E-02;1.78E-02;1.62E-02;1.50E-02;1.33E-02;1.23E-02;1.07E-02;9.93E-03;8.95E-03;8.55E-03;7.31E-03;5.93E-03;5.33E-03;4.62E-03;3.38E-03;2.34E-03;1.92E-03;1.66E-03;1.55E-03;1.45E-03;1.28E-03;1.13E-03;1.01E-03;8.98E-04;8.06E-04;7.26E-04;6.57E-04;5.29E-04;4.41E-04;3.74E-04;3.21E-04;2.78E-04;2.44E-04;2.15E-04;1.91E-04;1.71E-04;1.54E-04;1.27E-04;1.07E-04;9.07E-05;7.81E-05;6.80E-05;3.81E-05;325;C1;0;C1;0;C1;0;C1;0;C1;0;C1;0;-999;-999;-999;-999;0.5;50;-999;-999;-999;-999;0;?;Y;0;-999;-8.82419855
43;0029;Lytle Creek;1970;0912;1430;Cedar Springs, Allen Ranch;72;111;5.33;Mw;0.2376;0.096;4;0.3;1.1092E+24;325;48;59;3;1.3;256.4;67.5;163.2;34.2698;-117.5400;8;-999;0;M<6;0;5.627;4.5;3.8;17.2;-999;-999;-999;-999;-999;-999;-999;-999;-999;0;-999;-999;18.87;20.50;17.4;-999;20.86;19.35;18.1;hw;113.31;0.5;57.77;0.27;0.16;74.62;0.04;-999;-999;-999;-999;-999;-999.00;-999.00;-999;-999;-999;-999;B;G;A;D;B;S;B;813.48;-999;1;0.4;B;Kgr;-999;CDWR;34.2778;-117.335;2;GROUND LEVEL;0.00;-999;-999;Pleistocene/Mesozoic ?;-999;-999;14;14;220;14;14;-999;-999;-999;-999;-999;-999;-999;-999;-999;LYTLECR\CSM095.AT2;LYTLECR\CSM185.AT2;LYTLECR\CSMXXX.AT2;95;185;A;-999;PEA;A;1;2.5;0.300;0.800;18.000;23.000;1.25;0.375;1.000;1.000;4.29E-02;1.01E+00;1.64E-01;4.33E-02;4.54E-02;4.57E-02;4.56E-02;5.57E-02;5.31E-02;5.85E-02;5.76E-02;6.86E-02;6.54E-02;7.22E-02;1.10E-01;9.76E-02;1.00E-01;1.11E-01;1.53E-01;1.12E-01;1.26E-01;1.56E-01;2.08E-01;2.30E-01;2.58E-01;2.91E-01;2.29E-01;2.34E-01;2.01E-01;1.47E-01;1.88E-01;2.30E-01;2.23E-01;2.70E-01;2.21E-01;1.92E-01;8.90E-02;8.42E-02;9.95E-02;1.16E-01;1.01E-01;1.15E-01;7.91E-02;6.02E-02;5.82E-02;6.29E-02;4.69E-02;3.85E-02;6.38E-02;4.23E-02;4.25E-02;3.42E-02;4.21E-02;5.47E-02;3.96E-02;2.57E-02;2.16E-02;2.49E-02;2.69E-02;2.82E-02;1.67E-02;2.50E-02;2.19E-02;2.14E-02;1.53E-02;1.93E-02;2.62E-02;1.73E-02;1.74E-02;1.19E-02;9.93E-03;1.16E-02;8.07E-03;1.08E-02;7.18E-03;5.19E-03;6.19E-03;5.37E-03;5.28E-03;4.12E-03;6.14E-03;4.15E-03;3.52E-03;4.03E-03;2.68E-03;1.60E-03;1.54E-03;1.27E-03;1.42E-03;1.49E-03;1.70E-03;1.21E-03;5.91E-04;6.57E-04;7.97E-04;6.84E-04;5.24E-04;4.24E-04;3.34E-04;2.71E-04;1.98E-04;1.52E-04;1.24E-04;1.03E-04;8.90E-05;7.77E-05;6.89E-05;6.25E-05;5.21E-05;4.41E-05;3.78E-05;3.27E-05;2.86E-05;1.62E-05;325;C1;0;C1;0;C1;0;C1;0;C1;0;C1;0;-999;-999;-999;-999;0.5;50;-999;-999;-999;-999;0;Y;Y;0;-999;-9.978917579
44;0029;Lytle Creek;1970;0912;1430;Colton - So Cal Edison;74;113;5.33;Mw;0.2376;0.096;4;0.3;1.1092E+24;325;48;59;3;1.3;256.4;67.5;163.2;34.2698;-117.5400;8;-999;0;M<6;0;5.627;4.5;3.8;17.2;-999;-999;-999;-999;-999;-999;-999;-999;-999;0;-999;-999;31.48;32.48;29.18;-999;32.32;30.11;5.92;nu;168.46;0.5;6.9;-999;0.84;67.29;-999;-999;-999;-999;-999;-999;-999.00;-999.00;-999;-999;-999;-999;A;H;D;A;D;D;D;301.95;-999;0;0.1;D;Qal, deep (incl LA);-999;USGS;34.059;-117.312;1;GROUND LEVEL;0.18;-999;-999;Holocene ;-999;Alluvium;80;-999;340;320;-999;580;-999;-999;-999;-999;-999;-999;-999;-999;LYTLECR\CLN090.AT2;LYTLECR\CLN180.AT2;LYTLECR\CLN-UP.AT2;90;180;A;-999;PEA;A;1;2.5;0.300;0.400;2.000;18.000;1.25;0.375;0.500;0.500;2.78E-02;1.32E+00;1.44E-01;2.78E-02;2.85E-02;2.93E-02;3.15E-02;3.06E-02;2.82E-02;3.24E-02;3.12E-02;3.28E-02;3.46E-02;2.97E-02;3.50E-02;3.14E-02;3.06E-02;3.25E-02;3.66E-02;4.26E-02;3.98E-02;4.86E-02;5.04E-02;5.42E-02;6.27E-02;3.83E-02;4.74E-02;6.53E-02;9.44E-02;5.22E-02;1.00E-01;8.44E-02;1.63E-01;1.55E-01;9.75E-02;1.63E-01;1.48E-01;1.34E-01;1.55E-01;1.20E-01;1.18E-01;1.92E-01;2.60E-01;2.21E-01;1.72E-01;1.16E-01;1.92E-01;1.66E-01;1.71E-01;1.17E-01;1.17E-01;1.39E-01;1.55E-01;8.16E-02;6.44E-02;7.31E-02;8.61E-02;7.92E-02;5.97E-02;5.27E-02;5.46E-02;4.97E-02;4.08E-02;3.33E-02;3.81E-02;2.91E-02;2.53E-02;4.22E-02;5.12E-02;2.89E-02;2.41E-02;1.99E-02;1.91E-02;1.26E-02;1.36E-02;1.00E-02;7.40E-03;9.60E-03;8.72E-03;6.73E-03;5.37E-03;3.91E-03;3.26E-03;2.88E-03;2.73E-03;1.72E-03;1.26E-03;1.56E-03;9.62E-04;9.04E-04;8.50E-04;6.97E-04;6.56E-04;6.02E-04;6.39E-04;5.82E-04;4.36E-04;3.27E-04;2.32E-04;1.81E-04;1.45E-04;1.25E-04;1.08E-04;9.75E-05;8.89E-05;8.10E-05;7.37E-05;6.70E-05;5.55E-05;4.64E-05;3.91E-05;3.33E-05;2.86E-05;1.51E-05;325;C1;0;C1;0;C1;0;C1;0;C1;0;C1;0;-999;-999;-999;-999;0.5;50;-999;-999;-999;-999;0;Y;Y;0;-999;-31.19156892
45;0029;Lytle Creek;1970;0912;1430;Devil's Canyon;106;620;5.33;Mw;0.2376;0.096;4;0.3;1.1092E+24;325;48;59;3;1.3;256.4;67.5;163.2;34.2698;-117.5400;8;-999;0;M<6;0;5.627;4.5;3.8;17.2;-999;-999;-999;-999;-999;-999;-999;-999;-999;0;-999;-999;20.43;21.94;18.39;-999;22.08;20.24;14.16;nu;135.18;0.5;36.06;-999;0.16;81.63;-999;-999;-999;-999;-999;-999;-999.00;-999.00;-999;-999;-999;-999;A;G;A;D;B;S;C;667.13;-999;2a_3a_4b_4c;0.4;B;Kgr;-999;CDWR;34.21;-117.33;-999;-999;-999;-999;-999;-999;-999;-999;40;-999;260;-999;-999;-999;-999;-999;-999;-999;-999;-999;-999;-999;LYTLECR\DCF090.AT2;LYTLECR\DCF180.AT2;LYTLECR\DCFDWN.AT2;90;180;A;-999;PEA;A;1;2.5;0.300;0.130;23.000;20.000;1.25;0.375;0.163;0.375;1.67E-01;5.08E+00;7.58E-01;1.69E-01;1.83E-01;1.76E-01;1.74E-01;1.84E-01;1.86E-01;1.95E-01;2.11E-01;2.25E-01;2.25E-01;2.14E-01;2.97E-01;3.09E-01;3.14E-01;3.22E-01;3.83E-01;5.77E-01;4.06E-01;3.98E-01;3.64E-01;3.82E-01;3.61E-01;4.72E-01;4.95E-01;7.19E-01;6.66E-01;5.36E-01;8.18E-01;7.00E-01;5.58E-01;7.35E-01;8.23E-01;8.74E-01;9.88E-01;9.75E-01;9.89E-01;8.96E-01;5.97E-01;5.20E-01;5.77E-01;6.19E-01;6.12E-01;3.91E-01;3.19E-01;2.69E-01;2.33E-01;1.73E-01;1.53E-01;1.38E-01;1.35E-01;1.22E-01;1.07E-01;9.48E-02;9.32E-02;8.95E-02;8.29E-02;8.71E-02;7.57E-02;7.40E-02;6.61E-02;6.73E-02;5.21E-02;4.49E-02;4.62E-02;3.86E-02;2.77E-02;2.45E-02;2.35E-02;1.94E-02;1.77E-02;1.95E-02;1.69E-02;1.67E-02;1.64E-02;1.36E-02;1.23E-02;1.10E-02;1.05E-02;8.47E-03;7.56E-03;7.36E-03;6.76E-03;4.63E-03;3.71E-03;3.17E-03;3.02E-03;2.96E-03;2.88E-03;2.45E-03;1.88E-03;1.70E-03;1.53E-03;1.38E-03;1.25E-03;1.31E-03;1.17E-03;1.00E-03;8.20E-04;6.79E-04;5.69E-04;4.69E-04;4.10E-04;3.67E-04;3.30E-04;2.99E-04;2.48E-04;2.09E-04;1.78E-04;1.54E-04;1.34E-04;7.59E-05;325;C1;0;C1;0;C1;0;C1;0;C1;0;C1;0;-999;-999;-999;-999;0.5;50;-999;-999;-999;-999;0;-999;?;0;-999;-16.46462649
46;0029;Lytle Creek;1970;0912;1430;LA - Hollywood Stor FF;326;24303;5.33;Mw;0.2376;0.096;4;0.3;1.1092E+24;325;48;59;3;1.3;256.4;67.5;163.2;34.2698;-117.5400;8;-999;0;M<6;0;5.627;4.5;3.8;17.2;-999;-999;-999;-999;-999;-999;-999;-999;-999;0;-999;-999;76.23;76.65;73.46;-999;75.74;73.67;-69.49;nu;-71.09;0.5;70;-999;0.84;41.63;-999;-999;-999;-999;-999;-999;-999.00;-999.00;-999;-999;-999;-999;I;H;D;A;D;S;D;316.46;-999;0;0.1;D;Qal, thin, west LA;Holocene fine alluvium;CDMG;34.09;-118.339;0;GROUND LEVEL;2.50;-999;2;Holocene;Coarse;Alluvial Valley;260;-999;2540;320;-999;5140;-999;-999;-999;-999;-999;-999;-999;-999;LYTLECR\PEL090.AT2;LYTLECR\PEL180.AT2;LYTLECR\PEL-UP.AT2;90;180;A;-999;PEA;A;1;2.5;0.300;0.300;20.000;20.000;1.25;0.375;0.375;0.375;1.84E-02;7.79E-01;1.18E-01;1.85E-02;1.94E-02;1.93E-02;1.95E-02;2.01E-02;2.12E-02;2.01E-02;2.17E-02;2.23E-02;2.41E-02;2.34E-02;2.48E-02;2.42E-02;2.74E-02;2.58E-02;2.64E-02;3.44E-02;3.65E-02;4.17E-02;5.60E-02;4.52E-02;8.64E-02;1.06E-01;7.77E-02;9.67E-02;8.75E-02;9.43E-02;9.69E-02;9.03E-02;7.71E-02;8.96E-02;8.34E-02;1.22E-01;9.38E-02;1.27E-01;7.65E-02;9.27E-02;1.15E-01;8.44E-02;1.05E-01;1.15E-01;1.40E-01;9.16E-02;8.62E-02;8.06E-02;1.15E-01;8.54E-02;5.02E-02;5.59E-02;6.42E-02;7.30E-02;7.44E-02;4.88E-02;4.31E-02;4.01E-02;3.69E-02;2.80E-02;1.92E-02;1.68E-02;1.89E-02;1.80E-02;2.26E-02;2.34E-02;1.70E-02;1.71E-02;1.43E-02;1.62E-02;1.48E-02;1.24E-02;1.04E-02;8.51E-03;1.20E-02;9.25E-03;5.26E-03;5.31E-03;5.83E-03;4.67E-03;3.65E-03;2.67E-03;2.67E-03;2.55E-03;2.38E-03;2.27E-03;1.55E-03;1.07E-03;8.33E-04;7.32E-04;7.64E-04;6.90E-04;5.29E-04;4.18E-04;3.82E-04;3.24E-04;2.83E-04;2.61E-04;2.47E-04;1.92E-04;1.54E-04;1.20E-04;1.01E-04;8.67E-05;7.55E-05;6.73E-05;6.01E-05;5.42E-05;4.41E-05;3.63E-05;3.02E-05;2.58E-05;2.23E-05;1.22E-05;325;C1;0;C1;0;C1;0;C1;0;C1;0;C1;0;-999;-999;-999;-999;0.5;50;-999;-999;-999;-999;0;Y;Y;0;-999;25.81082216
47;0029;Lytle Creek;1970;0912;1430;Lake Hughes #1;320;24271;5.33;Mw;0.2376;0.096;4;0.3;1.1092E+24;325;48;59;3;1.3;256.4;67.5;163.2;34.2698;-117.5400;8;-999;0;M<6;0;5.627;4.5;3.8;17.2;-999;-999;-999;-999;-999;-999;-999;-999;-999;0;-999;-999;93.22;93.56;90.25;-999;93.09;90.42;-38.59;nu;-25.31;0.5;25.9;-999;0.84;36.89;-999;-999;-999;-999;-999;-999;-999.00;-999.00;-999;-999;-999;-999;A;H;B;A;D;S;C;425.34;-999;1;0.3;D;Qal, coarse;Hol med alluv/wthrd granite;CDMG;34.674;-118.43;1;GROUND LEVEL;3.00;-999;1a;Holocene;Coarse;-999;40;-999;240;-999;-999;-999;-999;-999;-999;-999;-999;-999;-999;-999;LYTLECR\L01021.AT2;LYTLECR\L01291.AT2;LYTLECR\L01DWN.AT2;21;291;A;-999;PEA;A;1;2.5;0.800;0.300;10.000;20.000;1.25;1.000;0.375;1.000;9.26E-03;6.47E-01;8.73E-02;9.27E-03;9.39E-03;9.37E-03;9.47E-03;9.75E-03;1.00E-02;1.03E-02;9.92E-03;9.97E-03;1.10E-02;1.14E-02;1.12E-02;1.12E-02;1.18E-02;1.17E-02;1.02E-02;1.09E-02;1.18E-02;1.39E-02;1.39E-02;1.60E-02;1.48E-02;1.71E-02;1.61E-02;1.92E-02;1.48E-02;1.62E-02;2.19E-02;1.93E-02;2.65E-02;2.75E-02;2.40E-02;2.66E-02;2.88E-02;2.23E-02;2.54E-02;2.31E-02;2.93E-02;5.83E-02;6.50E-02;5.24E-02;4.29E-02;4.26E-02;4.27E-02;4.00E-02;5.25E-02;4.73E-02;3.84E-02;3.19E-02;3.89E-02;4.90E-02;5.19E-02;4.90E-02;4.59E-02;3.97E-02;4.42E-02;5.28E-02;4.86E-02;2.94E-02;2.86E-02;2.93E-02;2.56E-02;1.81E-02;1.58E-02;1.53E-02;1.13E-02;7.41E-03;7.20E-03;5.83E-03;5.85E-03;6.29E-03;4.47E-03;4.09E-03;3.47E-03;3.00E-03;3.15E-03;2.99E-03;3.03E-03;2.44E-03;1.86E-03;1.55E-03;1.23E-03;8.74E-04;6.99E-04;6.11E-04;5.48E-04;5.19E-04;4.88E-04;4.44E-04;4.17E-04;3.69E-04;3.20E-04;2.90E-04;2.61E-04;2.34E-04;1.77E-04;1.40E-04;1.06E-04;8.43E-05;7.25E-05;6.38E-05;5.63E-05;5.00E-05;4.45E-05;3.98E-05;3.23E-05;2.66E-05;2.26E-05;1.95E-05;1.69E-05;9.29E-06;325;C1;0;C1;0;C1;0;C1;0;C1;0;C1;0;-999;-999;-999;-999;0.5;50;-999;-999;-999;-999;0;Y;Y;0;-999;83.71786566
48;0029;Lytle Creek;1970;0912;1430;Puddingstone Dam (Abutment);87;278;5.33;Mw;0.2376;0.096;4;0.3;1.1092E+24;325;48;59;3;1.3;256.4;67.5;163.2;34.2698;-117.5400;8;-999;0;M<6;0;5.627;4.5;3.8;17.2;-999;-999;-999;-999;-999;-999;-999;-999;-999;0;-999;-999;31.69;32.69;29.49;-999;31.62;30.02;-29.49;fw;-90;0.46;86.18;0.03;0.84;33.8;0.7;-999;-999;-999;-999;-999;-999.00;-999.00;-999;-999;-999;-999;H;Q;B;C;B;S;C;421.44;-999;2a_3a_4b_4c;0.33;C;Tv;-999;CDMG;34.091;-117.808;0;LEFT (WEST) ABUTMENT;0.50;-999;-999;-999;-999;-999;60;-999;320;320;-999;320;-999;-999;-999;-999;-999;-999;-999;-999;LYTLECR\PUD055.AT2;LYTLECR\PUD325.AT2;LYTLECR\PUDDWN.AT2;55;325;A;-999;PEA;A;1;2.5;0.400;0.230;20.000;20.000;1.25;0.500;0.288;0.500;1.83E-02;8.63E-01;1.58E-01;1.84E-02;1.85E-02;1.85E-02;1.96E-02;2.15E-02;1.95E-02;1.99E-02;2.31E-02;2.33E-02;2.08E-02;2.25E-02;2.50E-02;2.78E-02;2.62E-02;2.60E-02;2.56E-02;2.72E-02;4.09E-02;3.81E-02;4.34E-02;5.61E-02;5.37E-02;5.32E-02;4.90E-02;5.62E-02;7.65E-02;9.15E-02;8.49E-02;1.09E-01;1.95E-01;1.50E-01;1.11E-01;7.98E-02;7.02E-02;7.69E-02;6.64E-02;7.02E-02;7.10E-02;6.28E-02;5.78E-02;6.87E-02;7.15E-02;5.38E-02;5.64E-02;5.86E-02;5.90E-02;9.50E-02;7.69E-02;5.51E-02;4.53E-02;3.68E-02;4.69E-02;4.88E-02;5.03E-02;4.12E-02;2.96E-02;4.15E-02;4.16E-02;3.81E-02;4.83E-02;4.98E-02;3.25E-02;4.20E-02;3.27E-02;2.24E-02;2.77E-02;1.85E-02;1.95E-02;2.11E-02;1.28E-02;1.41E-02;9.52E-03;9.34E-03;9.40E-03;6.35E-03;5.90E-03;5.73E-03;4.88E-03;3.63E-03;3.72E-03;3.59E-03;3.51E-03;2.82E-03;2.11E-03;1.74E-03;1.26E-03;1.08E-03;9.88E-04;7.89E-04;6.56E-04;5.83E-04;5.31E-04;5.21E-04;4.69E-04;4.41E-04;3.85E-04;2.90E-04;2.04E-04;1.72E-04;1.46E-04;1.25E-04;1.09E-04;9.55E-05;8.43E-05;7.50E-05;6.04E-05;4.97E-05;4.16E-05;3.54E-05;3.04E-05;1.65E-05;325;C1;0;C1;0;C1;0;C1;0;C1;0;C1;0;-999;-999;-999;-999;0.5;50;-999;-999;-999;-999;0;Y;Y;0;-999;-0.637333635
