Record Sequence Number;EQID;Earthquake Name;YEAR;MODY;HRMN;Station Name;Station Sequence Number;Station ID  No.;Earthquake Magnitude;Magnitude Type;Magnitude Uncertainty: Kagan Model;Magnitude Uncertainty: Statistical;Magnitude Sample Size;Magnitude Uncertainty: Study Class;Mo (dyne.cm);Strike (deg);Dip (deg);Rake Angle (deg);Mechanism Based on Rake Angle;P-plunge (deg);P-trend (deg);T-plunge (deg);T-trend (deg);Hypocenter Latitude (deg);Hypocenter Longitude (deg);Hypocenter Depth (km);"Coseismic Surface Rupture: 1=Yes; 0=No;    -999=Unknown";Coseismic Surface Rupture (Including Inferred);Basis for Inference of Surface Rupture;"Finite Rupture Model: 1=Yes;  0=No";Depth to Top Of Fault Rupture Model;Fault Rupture Length for Calculation of Ry (km);Fault Rupture Width (km);Fault Rupture Area (km^2);Avg Fault Disp (cm);Rise Time (s);Avg Slip Velocity (cm/s);Static Stress Drop (bars);Preferred Rupture Velocity (km/s);Average Vr/Vs;Percent of Moment Release in the Top 5 Km of Crust;"Existence of Shallow Asperity: 0=No; 1=Yes";Depth to Top of Shallowest Asperity (km);"Earthquake in Extensional Regime: 1=Yes; 0=No";Fault Name;Slip Rate (mm/Yr);EpiD (km);HypD (km);Joyner-Boore Dist. (km);Campbell R Dist. (km);RmsD (km);ClstD (km);Rx;FW/HW Indicator;Source to Site Azimuth (deg);X;Theta.D (deg);SSGA (Strike Slip);Y;Phi.D (deg);SSGA (Dip Slip);s;d;ctildepr;Unused Column;D;Rfn.Hyp;Rfp.Hyp;Unused Column;Unused Column;Unused Column;T;GMX's C1;GMX's C2;GMX's C3;Campbell's GEOCODE;Bray and Rodriguez-Marek SGS;Depth;Preferred NEHRP Based on Vs30;Vs30 (m/s) selected for analysis;Column Not Used;Measured/Inferred Class;Sigma of Vs30 (in natural log Units);NEHRP Classification from CGS's Site Condition Map;Geological Unit;Geology;Owner;Station Latitude;Station Longitude;STORIES;INSTLOC;Depth to Basement Rock;Site Visited;NGA Type;Age;Grain Size;Depositional History;Northern CA/Southern CA - H11 Z1 (m);Northern CA/Southern CA - H11 Z1.5 (m);Northern CA/Southern CA - H11 Z2.5 (m);Northern CA/Southern CA - S4 Z1 (m);Northern CA/Southern CA - S4 Z1.5 (m);Northern CA/Southern CA - S4 Z2.5 (m);Depth to Franciscan Rock (km);Basin;h (m);hnorm (m);Rsbe (m);Rcebe (m);Rebe (m);Rsbe1 (m);File Name (Horizontal 1);File Name (Horizontal 2);File Name (Vertical);H1 azimth (degrees);H2 azimith (degrees);Type of Recording;Instrument Model;PEA Processing Flag;Type of Filter;npass;nroll;HP-H1 (Hz);HP-H2 (Hz);LP-H1 (Hz);LP-H2 (Hz);Factor;Lowest Usable Freq - H1 (Hz);Lowest Usable Freq - H2 (H2);Lowest Usable Freq - Ave. Component (Hz);PGA (g);PGV (cm/sec);PGD (cm);T0.010S;T0.020S;T0.022S;T0.025S;T0.029S;T0.030S;T0.032S;T0.035S;T0.036S;T0.040S;T0.042S;T0.044S;T0.045S;T0.046S;T0.048S;T0.050S;T0.055S;T0.060S;T0.065S;T0.067S;T0.070S;T0.075S;T0.080S;T0.085S;T0.090S;T0.095S;T0.100S;T0.110S;T0.120S;T0.130S;T0.133S;T0.140S;T0.150S;T0.160S;T0.170S;T0.180S;T0.190S;T0.200S;T0.220S;T0.240S;T0.250S;T0.260S;T0.280S;T0.290S;T0.300S;T0.320S;T0.340S;T0.350S;T0.360S;T0.380S;T0.400S;T0.420S;T0.440S;T0.450S;T0.460S;T0.480S;T0.500S;T0.550S;T0.600S;T0.650S;T0.667S;T0.700S;T0.750S;T0.800S;T0.850S;T0.900S;T0.950S;T1.000S;T1.100S;T1.200S;T1.300S;T1.400S;T1.500S;T1.600S;T1.700S;T1.800S;T1.900S;T2.000S;T2.200S;T2.400S;T2.500S;T2.600S;T2.800S;T3.000S;T3.200S;T3.400S;T3.500S;T3.600S;T3.800S;T4.000S;T4.200S;T4.400S;T4.600S;T4.800S;T5.000S;T5.500S;T6.000S;T6.500S;T7.000S;T7.500S;T8.000S;T8.500S;T9.000S;T9.500S;T10.000S;T11.000S;T12.000S;T13.000S;T14.000S;T15.000S;T20.000S;Ave Strike (deg);TYPE(CRjb = 0);CRjb;"TYPE
17;0014;Southern Calif;1952;1122;0746;San Luis Obispo;147;1083;6.00;U;0.3000;-999;-999;0.3;1.1220E+25;94.5;90;0;0;0;49.5;0;319.5;35.8330;-121.1670;10;-999;0;-999;0;2.95;8.3;12.1;100.3;-999;-999;-999;-999;-999;-999;-999;-999;-999;0;-999;-999;76.27;76.92;73.35;-999;76.61;73.41;57.03;na;51.03;0.54;48.4;0.36;0.58;80.05;0.1;-999;-999;-999;-999;-999;-999;-999;-999;-999;-999;-999;C;Q;B;D;C;S;C;493.5;-999;2a_3a_4b_4c;0.3;B;KJf;-999;USGS;35.285;-120.661;-999;-999;-999;-999;-999;-999;-999;-999;40;-999;280;-999;-999;-999;-999;-999;-999;-999;-999;-999;-999;-999;SCALIF\SLO234.AT2;SCALIF\SLO324.AT2;SCALIF\SLO-UP.AT2;234;324;A;-999;PEA;A;1;2.5;0.110;0.100;13.000;13.000;1.25;0.138;0.125;0.138;4.31E-02;3.30E+00;1.09E+00;4.31E-02;4.32E-02;4.32E-02;4.33E-02;4.39E-02;4.40E-02;4.49E-02;4.51E-02;4.58E-02;4.47E-02;4.60E-02;5.22E-02;4.76E-02;4.75E-02;4.68E-02;4.77E-02;4.92E-02;5.88E-02;6.55E-02;5.82E-02;7.26E-02;6.76E-02;7.21E-02;6.99E-02;8.59E-02;8.83E-02;9.61E-02;1.33E-01;1.40E-01;2.01E-01;1.67E-01;1.33E-01;1.66E-01;1.68E-01;2.35E-01;2.62E-01;2.75E-01;2.60E-01;2.15E-01;1.30E-01;2.01E-01;2.17E-01;1.94E-01;1.79E-01;1.94E-01;1.37E-01;1.06E-01;1.19E-01;1.41E-01;2.07E-01;2.17E-01;1.70E-01;1.19E-01;1.21E-01;1.36E-01;1.33E-01;1.45E-01;1.88E-01;2.14E-01;1.67E-01;1.61E-01;1.17E-01;1.00E-01;8.64E-02;1.02E-01;1.07E-01;9.92E-02;1.02E-01;5.09E-02;7.83E-02;4.26E-02;4.10E-02;4.45E-02;4.29E-02;3.99E-02;3.25E-02;2.17E-02;1.76E-02;1.76E-02;1.62E-02;1.40E-02;1.14E-02;9.38E-03;8.89E-03;1.09E-02;1.06E-02;1.05E-02;1.03E-02;9.91E-03;8.73E-03;7.57E-03;6.25E-03;5.61E-03;5.19E-03;5.21E-03;5.27E-03;4.89E-03;3.95E-03;3.45E-03;2.74E-03;1.97E-03;1.54E-03;1.20E-03;9.77E-04;7.68E-04;5.30E-04;4.31E-04;3.50E-04;2.82E-04;2.36E-04;1.24E-04;95;C1;0;C1;0;C1;0;C1;0;C1;0;C1;0;-999;-999;-999;-999;0.5;50;-999;-999;-999;-999;0;-999;-999;0;-999;50.11939195
18;0015;Imperial Valley-04;1953;0614;0417;El Centro Array #9;75;117;5.50;U;0.3000;-999;-999;0.3;1.9953E+24;13;90;0;0;0;328;0;238;32.7830;-115.7170;9.5;-999;0;M<6;0;4.062;4.8;8.9;42.5;-999;-999;-999;-999;-999;-999;-999;-999;-999;1;-999;-999;15.76;18.40;15.11;-999;17.75;15.64;15.04;na;84.61;0.69;72.54;0.21;0.61;57.72;0.33;-999;-999;-999;-999;-999;-999;-999;-999;-999;-999;-999;E;Q;D;A;D;D;D;213.44;-999;0;0.1;D;Qal, deep, Imperial V.;-999;USGS;32.794;-115.549;2;BASEMENT;5.00;-999;-999;Holocene;Aggregate;Lacustrine;1440;-999;3140;1420;-999;5320;-999;-999;-999;-999;-999;-999;-999;-999;IMPVALL.BG\G-ELC000.AT2;IMPVALL.BG\G-ELC090.AT2;IMPVALL.BG\G-ELC-UP.AT2;0;90;A;-999;PEA;A;1;2.5;0.600;0.100;20.000;15.000;1.25;0.750;0.125;0.750;2.79E-02;4.41E+00;8.25E-01;2.80E-02;2.81E-02;2.82E-02;2.85E-02;2.91E-02;2.93E-02;2.85E-02;2.96E-02;3.19E-02;3.09E-02;3.05E-02;3.22E-02;3.21E-02;3.38E-02;3.55E-02;3.36E-02;3.48E-02;3.39E-02;3.30E-02;3.57E-02;4.11E-02;3.49E-02;6.09E-02;6.26E-02;4.59E-02;4.98E-02;6.46E-02;7.00E-02;8.08E-02;9.47E-02;1.05E-01;9.83E-02;1.28E-01;1.18E-01;9.46E-02;8.98E-02;9.14E-02;1.47E-01;1.34E-01;2.51E-01;2.02E-01;1.30E-01;8.36E-02;7.61E-02;6.86E-02;7.02E-02;7.46E-02;1.07E-01;5.72E-02;7.39E-02;5.85E-02;8.70E-02;6.72E-02;8.31E-02;6.35E-02;7.88E-02;1.25E-01;1.27E-01;7.51E-02;1.21E-01;1.52E-01;1.24E-01;8.17E-02;1.20E-01;5.48E-02;8.67E-02;6.91E-02;4.55E-02;8.75E-02;5.05E-02;8.70E-02;4.35E-02;2.88E-02;4.36E-02;4.17E-02;3.08E-02;2.52E-02;1.99E-02;2.18E-02;1.45E-02;1.27E-02;1.11E-02;6.94E-03;5.41E-03;5.97E-03;5.82E-03;5.99E-03;5.56E-03;4.85E-03;4.76E-03;4.40E-03;3.89E-03;3.33E-03;2.78E-03;2.28E-03;2.15E-03;1.87E-03;1.57E-03;1.21E-03;1.02E-03;9.25E-04;8.40E-04;7.19E-04;5.79E-04;4.84E-04;4.54E-04;3.72E-04;2.84E-04;2.11E-04;1.81E-04;9.98E-05;13;C1;0;C1;0;C1;0;C1;0;C1;0;C1;0;-999;-999;-999;-999;0.5;50;-999;-999;-999;-999;0;-999;-999;0;-999;3.75744387
19;0016;Central Calif-01;1954;0425;2033;Hollister City Hall;135;1028;5.30;U;0.3000;-999;-999;0.3;1.0000E+24;265.2;90;0;0;0;220.2;0;130.2;36.9330;-121.6830;7.4;-999;0;M<6;0;5.944;3.3;3;9.9;-999;-999;-999;-999;-999;-999;-999;-999;-999;0;-999;-999;26.83;27.83;25.11;-999;27.61;25.81;-11.26;na;-153.35;0.57;24.84;0.52;0.49;56.7;0.27;-999;-999;-999;-999;-999;-999;-999;-999;-999;-999;-999;C;H;D;A;D;D;D;198.77;-999;0;0.1;D;Qoa;-999;USGS;36.85;-121.4;1;BASEMENT;1.70;-999;-999;Holocene;Aggregate;-999;389;742;2843;389;742;2843;-999;-999;-999;-999;-999;-999;-999;-999;CTRCALIF\A-HCH181.AT2;CTRCALIF\A-HCH271.AT2;CTRCALIF\A-HCH-UP.AT2;181;271;A;-999;PEA;A;1;2.5;0.300;0.230;10.000;10.000;1.25;0.375;0.288;0.375;4.77E-02;3.77E+00;6.00E-01;4.77E-02;4.79E-02;4.81E-02;4.80E-02;4.84E-02;4.83E-02;4.84E-02;4.88E-02;4.91E-02;4.88E-02;4.90E-02;4.99E-02;4.97E-02;4.94E-02;4.94E-02;4.86E-02;5.16E-02;5.24E-02;5.18E-02;5.13E-02;5.35E-02;5.53E-02;6.15E-02;5.91E-02;5.73E-02;6.83E-02;7.21E-02;9.73E-02;9.76E-02;1.26E-01;1.36E-01;1.84E-01;2.79E-01;1.87E-01;2.54E-01;2.50E-01;2.01E-01;2.43E-01;1.72E-01;1.53E-01;2.25E-01;1.91E-01;1.35E-01;1.82E-01;1.73E-01;2.52E-01;2.07E-01;2.20E-01;2.55E-01;2.35E-01;2.04E-01;2.05E-01;2.25E-01;1.88E-01;1.95E-01;2.83E-01;2.55E-01;2.27E-01;2.41E-01;3.42E-01;3.51E-01;3.21E-01;2.12E-01;2.31E-01;1.47E-01;8.43E-02;8.28E-02;9.29E-02;6.43E-02;6.30E-02;6.13E-02;3.90E-02;4.12E-02;3.70E-02;2.08E-02;2.18E-02;2.12E-02;1.63E-02;1.27E-02;1.21E-02;1.06E-02;1.10E-02;1.07E-02;9.45E-03;8.48E-03;8.90E-03;7.75E-03;7.33E-03;6.75E-03;7.26E-03;6.66E-03;5.25E-03;4.67E-03;4.39E-03;3.60E-03;1.98E-03;1.24E-03;9.69E-04;8.46E-04;7.81E-04;5.50E-04;4.13E-04;3.26E-04;2.61E-04;2.79E-04;2.32E-04;2.04E-04;1.44E-04;1.21E-04;1.06E-04;7.86E-05;265;C1;0;C1;0;C1;0;C1;0;C1;0;C1;0;-999;-999;-999;-999;0.5;50;-999;-999;-999;-999;0;-999;-999;0;-999;-24.09119284
20;0017;Northern Calif-03;1954;1221;1956;Ferndale City Hall;133;1023;6.50;U;0.3000;-999;-999;0.3;6.3096E+25;65.6;90;0;0;0;20.6;0;290.6;40.8167;-124.0830;10;-999;0;locdis;0;4.008;14.9;9.1;136.6;-999;-999;-999;-999;-999;-999;-999;-999;-999;0;-999;-999;30.79;32.37;26.72;-999;33.37;27.02;18.1;na;137.35;0.35;36.01;0.28;0.66;61.09;0.32;-999;-999;-999;-999;-999;-999;-999;-999;-999;-999;-999;B;Q;D;A;D;S;D;219.31;-999;0;0.1;D;Qal, thin;-999;USGS;40.576;-124.263;2;GROUND LEVEL;-999;-999;-999;Pleistocene;-999;Alluvial Valley;-999;-999;-999;-999;-999;-999;-999;-999;-999;-999;-999;-999;-999;-999;NCALIF.FH\H-FRN044.AT2;NCALIF.FH\H-FRN314.AT2;NCALIF.FH\H-FRN-UP.AT2;44;314;A;-999;PEA;A;1;2.5;0.100;0.080;13.000;13.000;1.25;0.125;0.100;0.125;1.86E-01;3.13E+01;1.26E+01;1.86E-01;1.88E-01;1.89E-01;1.88E-01;1.93E-01;1.91E-01;1.94E-01;1.95E-01;2.03E-01;2.10E-01;2.05E-01;2.02E-01;2.03E-01;1.96E-01;2.10E-01;2.02E-01;2.09E-01;2.40E-01;2.17E-01;2.23E-01;2.22E-01;2.51E-01;3.01E-01;2.88E-01;2.79E-01;3.07E-01;3.36E-01;2.93E-01;4.19E-01;4.41E-01;4.64E-01;4.14E-01;4.97E-01;5.03E-01;4.89E-01;4.73E-01;4.34E-01;4.97E-01;6.73E-01;4.73E-01;4.88E-01;5.23E-01;4.34E-01;5.63E-01;4.62E-01;4.56E-01;4.84E-01;4.90E-01;5.64E-01;7.11E-01;7.80E-01;5.72E-01;4.49E-01;4.27E-01;4.25E-01;4.16E-01;5.57E-01;6.64E-01;5.33E-01;5.11E-01;4.92E-01;4.82E-01;5.95E-01;6.15E-01;5.84E-01;4.62E-01;4.49E-01;3.61E-01;3.91E-01;6.52E-01;5.06E-01;6.19E-01;6.62E-01;6.76E-01;4.91E-01;3.42E-01;3.56E-01;3.39E-01;1.91E-01;1.83E-01;2.07E-01;1.90E-01;1.37E-01;1.17E-01;1.28E-01;1.40E-01;1.27E-01;1.10E-01;8.22E-02;7.84E-02;6.95E-02;6.47E-02;6.54E-02;6.79E-02;6.33E-02;3.96E-02;2.45E-02;1.76E-02;1.44E-02;1.31E-02;1.18E-02;1.05E-02;1.01E-02;8.75E-03;7.44E-03;6.00E-03;4.94E-03;3.98E-03;3.27E-03;2.71E-03;1.29E-03;66;C1;0;C1;0;C1;0;C1;0;C1;0;C1;0;-999;-999;-999;-999;0.5;50;-999;-999;-999;-999;0;-999;-999;0;-999;-27.05400896
21;0018;Imperial Valley-05;1955;1217;0607;El Centro Array #9;75;117;5.40;U;0.3000;-999;-999;0.3;1.4125E+24;98.5;90;0;0;0;53.5;0;323.5;32.9220;-115.5910;9.5;-999;0;M<6;0;5.596;8.8;7.5;65.8;-999;-999;-999;-999;-999;-999;-999;-999;-999;1;-999;-999;14.77;17.57;13.78;-999;17.97;14.88;13.5;na;78.43;0.37;66.1;0.15;0.52;54.88;0.3;-999;-999;-999;-999;-999;-999;-999;-999;-999;-999;-999;E;Q;D;A;D;D;D;213.44;-999;0;0.1;D;Qal, deep, Imperial V.;-999;USGS;32.794;-115.549;2;BASEMENT;5.00;-999;-999;Holocene;Aggregate;Lacustrine;1440;-999;3140;1420;-999;5320;-999;-999;-999;-999;-999;-999;-999;-999;IMPVALL.BG\E-ELC000.AT2;IMPVALL.BG\E-ELC090.AT2;IMPVALL.BG\E-ELC-UP.AT2;0;90;A;-999;PEA;A;1;2.5;0.300;0.150;13.000;20.000;1.25;0.375;0.188;0.375;4.42E-02;3.50E+00;1.19E+00;4.43E-02;4.63E-02;4.79E-02;4.83E-02;4.83E-02;4.85E-02;5.07E-02;5.53E-02;5.28E-02;6.90E-02;6.53E-02;5.70E-02;5.98E-02;5.96E-02;6.46E-02;6.42E-02;8.04E-02;6.59E-02;8.57E-02;8.52E-02;1.04E-01;8.74E-02;1.11E-01;1.29E-01;1.76E-01;1.87E-01;2.76E-01;1.91E-01;1.71E-01;2.11E-01;2.57E-01;2.70E-01;2.17E-01;2.57E-01;2.62E-01;2.30E-01;2.12E-01;2.31E-01;1.57E-01;2.64E-01;1.69E-01;1.39E-01;2.05E-01;1.59E-01;1.68E-01;1.91E-01;1.47E-01;1.61E-01;1.86E-01;2.20E-01;2.23E-01;2.54E-01;2.05E-01;2.09E-01;2.18E-01;1.83E-01;2.00E-01;1.27E-01;1.22E-01;1.07E-01;8.38E-02;8.39E-02;7.27E-02;8.22E-02;6.49E-02;4.49E-02;6.23E-02;6.31E-02;4.90E-02;5.86E-02;6.22E-02;4.70E-02;4.39E-02;3.84E-02;3.64E-02;2.57E-02;1.93E-02;1.97E-02;1.98E-02;1.80E-02;1.63E-02;1.63E-02;1.69E-02;1.51E-02;1.29E-02;1.07E-02;8.83E-03;6.83E-03;4.58E-03;4.04E-03;3.97E-03;3.66E-03;3.08E-03;2.74E-03;2.51E-03;2.11E-03;1.81E-03;1.90E-03;1.34E-03;1.09E-03;9.49E-04;8.21E-04;7.11E-04;6.29E-04;5.66E-04;4.87E-04;4.27E-04;3.85E-04;3.68E-04;3.36E-04;2.01E-04;98;C1;0;C1;0;C1;0;C1;0;C1;0;C1;0;-999;-999;-999;-999;0.5;50;-999;-999;-999;-999;0;-999;-999;0;-999;7.089568022
22;0019;El Alamo;1956;0209;1433;El Centro Array #9;75;117;6.80;U;0.3000;-999;-999;0.3;1.7783E+26;288;88;176;0;1.4;333.1;4.2;243.0;31.7500;-115.9170;16;1;1;sfdoc;0;7.023;53.5;14.2;762.9;-999;-999;-999;-999;-999;-999;-999;-999;-999;0;-999;-999;121.22;122.27;121;-999;125.16;121.7;121.49;na;90;0.06;88.5;0;0.63;84.48;0.06;-999;-999;-999;-999;-999;-999.00;-999.00;-999;-999;-999;-999;E;Q;D;A;D;D;D;213.44;-999;0;0.1;D;Qal, deep, Imperial V.;-999;USGS;32.794;-115.549;2;BASEMENT;5.00;-999;-999;Holocene;Aggregate;Lacustrine;1440;-999;3140;1420;-999;5320;-999;-999;-999;-999;-999;-999;-999;-999;ELALAMO\ELC180.AT2;ELALAMO\ELC270.AT2;ELALAMO\ELC-UP.AT2;180;270;A;-999;PEA;A;1;2.5;0.230;0.080;15.000;15.000;1.25;0.288;0.100;0.288;4.50E-02;6.28E+00;2.94E+00;4.50E-02;4.53E-02;4.53E-02;4.55E-02;4.58E-02;4.58E-02;4.62E-02;4.64E-02;4.69E-02;4.61E-02;4.65E-02;4.61E-02;4.78E-02;4.78E-02;4.85E-02;4.85E-02;5.22E-02;5.40E-02;6.37E-02;6.23E-02;6.23E-02;7.34E-02;6.42E-02;8.65E-02;7.82E-02;8.92E-02;9.25E-02;9.77E-02;1.09E-01;1.14E-01;1.16E-01;1.50E-01;1.30E-01;1.90E-01;1.71E-01;2.02E-01;2.35E-01;2.46E-01;2.12E-01;1.84E-01;1.81E-01;1.71E-01;1.56E-01;2.08E-01;1.56E-01;1.70E-01;2.20E-01;2.12E-01;2.12E-01;2.14E-01;2.94E-01;3.27E-01;3.15E-01;2.30E-01;2.27E-01;2.27E-01;1.92E-01;2.41E-01;2.85E-01;2.80E-01;2.42E-01;2.10E-01;1.46E-01;1.60E-01;1.69E-01;1.39E-01;2.75E-01;2.10E-01;2.67E-01;1.89E-01;1.79E-01;1.57E-01;1.37E-01;1.18E-01;9.77E-02;9.54E-02;8.03E-02;5.89E-02;5.00E-02;3.05E-02;2.69E-02;3.58E-02;4.75E-02;3.41E-02;2.67E-02;2.13E-02;2.74E-02;2.37E-02;2.57E-02;2.37E-02;2.12E-02;1.57E-02;1.64E-02;1.20E-02;1.33E-02;1.61E-02;1.15E-02;9.80E-03;8.95E-03;7.35E-03;7.14E-03;7.19E-03;6.73E-03;5.37E-03;4.50E-03;3.35E-03;2.45E-03;1.79E-03;1.29E-03;1.09E-03;4.86E-04;288;C1;0;C1;0;C1;0;C1;0;C1;0;C1;0;-999;-999;-999;-999;0.5;50;-999;-999;-999;-999;0;-999;-999;0;-999;-21.38181985
23;0020;San Francisco;1957;0322;1944;Golden Gate Park;150;1117;5.28;Mw;0.3000;0.045;4;0.3;9.3325E+23;119;75;80;2;29.3;217.1;58.8;15.3;37.6700;-122.4800;8;0;0;M<6;0;5.161;5.3;3.4;18.2;-999;-999;-999;-999;-999;-999;-999;-999;-999;0;-999;-999;11.13;13.70;9.74;-999;13.26;11.02;-8.97;na;-112.89;0.3;60.99;0.15;0.86;35.58;0.7;-999;-999;-999;-999;-999;-999.00;-999.00;-999;-999;-999;-999;I;H;A;D;B;S;B;874.72;-999;1;0.4;B;Qs;-999;USGS;37.77;-122.48;0;GROUND LEVEL;0.00;-999;-999;Holocene;-999;Aeolian;9;272;866;9;272;866;-999;-999;-999;-999;-999;-999;-999;-999;SANFRAN\GGP010.AT2;SANFRAN\GGP100.AT2;SANFRAN\GGP-UP.AT2;10;100;A;-999;PEA;A;1;2.5;0.700;0.210;18.000;13.000;1.25;0.875;0.263;0.875;8.63E-02;3.34E+00;3.37E-01;8.70E-02;8.82E-02;8.84E-02;9.30E-02;9.78E-02;9.20E-02;9.65E-02;1.02E-01;9.75E-02;1.11E-01;1.23E-01;1.22E-01;1.22E-01;1.22E-01;1.25E-01;1.68E-01;1.27E-01;1.43E-01;1.58E-01;1.91E-01;2.01E-01;2.25E-01;3.03E-01;2.51E-01;3.13E-01;2.76E-01;3.41E-01;3.82E-01;2.91E-01;5.26E-01;4.84E-01;5.46E-01;4.20E-01;3.54E-01;3.39E-01;3.30E-01;3.09E-01;3.38E-01;4.58E-01;4.52E-01;4.23E-01;3.64E-01;2.72E-01;2.44E-01;2.17E-01;1.72E-01;1.60E-01;1.58E-01;1.55E-01;1.55E-01;1.87E-01;1.71E-01;1.52E-01;1.45E-01;1.35E-01;1.13E-01;9.29E-02;7.41E-02;4.78E-02;4.42E-02;4.61E-02;5.15E-02;5.15E-02;4.28E-02;3.92E-02;3.53E-02;3.79E-02;3.31E-02;2.19E-02;1.66E-02;1.66E-02;1.29E-02;1.11E-02;9.67E-03;1.12E-02;9.81E-03;6.21E-03;5.80E-03;4.25E-03;3.71E-03;3.76E-03;3.80E-03;3.76E-03;2.82E-03;2.07E-03;1.70E-03;1.59E-03;1.49E-03;1.30E-03;1.13E-03;9.59E-04;8.49E-04;7.58E-04;6.93E-04;6.38E-04;5.23E-04;4.34E-04;3.65E-04;3.10E-04;2.67E-04;2.33E-04;2.04E-04;1.81E-04;1.61E-04;1.44E-04;1.18E-04;9.83E-05;8.31E-05;7.12E-05;6.18E-05;3.49E-05;119;C1;0;C1;0;C1;0;C1;0;C1;0;C1;0;-999;-999;-999;-999;0.5;50;-999;-999;-999;-999;0;-999;?;0;-999;-6.409804372
24;0021;Central Calif-02;1960;0120;0326;Hollister City Hall;135;1028;5.00;U;0.3000;-999;-999;0.3;3.5481E+23;324.7;90;0;0;0;279.7;0;189.7;36.7830;-121.4330;7.4;-999;0;M<6;0;5.323;3.8;3.1;12.1;-999;-999;-999;-999;-999;-999;-999;-999;-999;0;-999;-999;8.01;10.91;7.28;-999;10.72;9.02;6.71;na;67.08;0.4;56.78;0.22;0.66;42.18;0.49;-999;-999;-999;-999;-999;-999;-999;-999;-999;-999;-999;C;H;D;A;D;D;D;198.77;-999;0;0.1;D;Qoa;-999;USGS;36.85;-121.4;1;BASEMENT;1.70;-999;-999;Holocene;Aggregate;-999;389;742;2843;389;742;2843;-999;-999;-999;-999;-999;-999;-999;-999;CTRCALIF\B-HCH181.AT2;CTRCALIF\B-HCH271.AT2;CTRCALIF\B-HCH-UP.AT2;181;271;A;-999;PEA;A;1;2.5;0.200;0.330;13.000;13.000;1.25;0.250;0.413;0.413;3.93E-02;3.56E+00;4.86E-01;3.93E-02;3.95E-02;3.97E-02;3.97E-02;3.99E-02;3.98E-02;4.05E-02;4.05E-02;4.04E-02;4.06E-02;4.14E-02;4.25E-02;4.15E-02;4.27E-02;4.12E-02;4.33E-02;4.65E-02;4.94E-02;3.95E-02;4.60E-02;4.37E-02;4.98E-02;4.62E-02;5.94E-02;7.38E-02;6.69E-02;6.41E-02;6.41E-02;7.35E-02;1.01E-01;1.03E-01;1.17E-01;1.68E-01;1.53E-01;1.29E-01;1.42E-01;1.20E-01;1.31E-01;1.41E-01;1.74E-01;2.34E-01;1.75E-01;2.23E-01;2.33E-01;2.52E-01;2.54E-01;2.44E-01;2.06E-01;1.58E-01;1.22E-01;1.38E-01;1.76E-01;1.31E-01;1.74E-01;1.49E-01;1.24E-01;1.46E-01;1.23E-01;1.17E-01;1.24E-01;1.33E-01;1.44E-01;2.24E-01;1.92E-01;1.10E-01;1.06E-01;9.44E-02;8.56E-02;5.69E-02;5.81E-02;4.08E-02;4.08E-02;3.38E-02;2.96E-02;2.90E-02;2.99E-02;2.54E-02;1.73E-02;1.02E-02;7.53E-03;7.38E-03;6.67E-03;5.33E-03;4.95E-03;3.83E-03;3.66E-03;3.51E-03;2.61E-03;2.72E-03;2.18E-03;1.65E-03;1.29E-03;1.13E-03;1.21E-03;1.51E-03;8.07E-04;8.47E-04;5.88E-04;3.88E-04;3.54E-04;3.22E-04;2.72E-04;2.27E-04;2.03E-04;1.81E-04;1.51E-04;1.29E-04;1.11E-04;9.62E-05;8.41E-05;4.81E-05;325;C1;0;C1;0;C1;0;C1;0;C1;0;C1;0;-999;-999;-999;-999;0.5;50;-999;-999;-999;-999;0;-999;-999;0;-999;4.756456879
