Record Sequence Number;EQID;Earthquake Name;YEAR;MODY;HRMN;Station Name;Station Sequence Number;Station ID  No.;Earthquake Magnitude;Magnitude Type;Magnitude Uncertainty: Kagan Model;Magnitude Uncertainty: Statistical;Magnitude Sample Size;Magnitude Uncertainty: Study Class;Mo (dyne.cm);Strike (deg);Dip (deg);Rake Angle (deg);Mechanism Based on Rake Angle;P-plunge (deg);P-trend (deg);T-plunge (deg);T-trend (deg);Hypocenter Latitude (deg);Hypocenter Longitude (deg);Hypocenter Depth (km);"Coseismic Surface Rupture: 1=Yes; 0=No;    -999=Unknown";Coseismic Surface Rupture (Including Inferred);Basis for Inference of Surface Rupture;"Finite Rupture Model: 1=Yes;  0=No";Depth to Top Of Fault Rupture Model;Fault Rupture Length for Calculation of Ry (km);Fault Rupture Width (km);Fault Rupture Area (km^2);Avg Fault Disp (cm);Rise Time (s);Avg Slip Velocity (cm/s);Static Stress Drop (bars);Preferred Rupture Velocity (km/s);Average Vr/Vs;Percent of Moment Release in the Top 5 Km of Crust;"Existence of Shallow Asperity: 0=No; 1=Yes";Depth to Top of Shallowest Asperity (km);"Earthquake in Extensional Regime: 1=Yes; 0=No";Fault Name;Slip Rate (mm/Yr);EpiD (km);HypD (km);Joyner-Boore Dist. (km);Campbell R Dist. (km);RmsD (km);ClstD (km);Rx;FW/HW Indicator;Source to Site Azimuth (deg);X;Theta.D (deg);SSGA (Strike Slip);Y;Phi.D (deg);SSGA (Dip Slip);s;d;ctildepr;Unused Column;D;Rfn.Hyp;Rfp.Hyp;Unused Column;Unused Column;Unused Column;T;GMX's C1;GMX's C2;GMX's C3;Campbell's GEOCODE;Bray and Rodriguez-Marek SGS;Depth;Preferred NEHRP Based on Vs30;Vs30 (m/s) selected for analysis;Column Not Used;Measured/Inferred Class;Sigma of Vs30 (in natural log Units);NEHRP Classification from CGS's Site Condition Map;Geological Unit;Geology;Owner;Station Latitude;Station Longitude;STORIES;INSTLOC;Depth to Basement Rock;Site Visited;NGA Type;Age;Grain Size;Depositional History;Northern CA/Southern CA - H11 Z1 (m);Northern CA/Southern CA - H11 Z1.5 (m);Northern CA/Southern CA - H11 Z2.5 (m);Northern CA/Southern CA - S4 Z1 (m);Northern CA/Southern CA - S4 Z1.5 (m);Northern CA/Southern CA - S4 Z2.5 (m);Depth to Franciscan Rock (km);Basin;h (m);hnorm (m);Rsbe (m);Rcebe (m);Rebe (m);Rsbe1 (m);File Name (Horizontal 1);File Name (Horizontal 2);File Name (Vertical);H1 azimth (degrees);H2 azimith (degrees);Type of Recording;Instrument Model;PEA Processing Flag;Type of Filter;npass;nroll;HP-H1 (Hz);HP-H2 (Hz);LP-H1 (Hz);LP-H2 (Hz);Factor;Lowest Usable Freq - H1 (Hz);Lowest Usable Freq - H2 (H2);Lowest Usable Freq - Ave. Component (Hz);PGA (g);PGV (cm/sec);PGD (cm);T0.010S;T0.020S;T0.022S;T0.025S;T0.029S;T0.030S;T0.032S;T0.035S;T0.036S;T0.040S;T0.042S;T0.044S;T0.045S;T0.046S;T0.048S;T0.050S;T0.055S;T0.060S;T0.065S;T0.067S;T0.070S;T0.075S;T0.080S;T0.085S;T0.090S;T0.095S;T0.100S;T0.110S;T0.120S;T0.130S;T0.133S;T0.140S;T0.150S;T0.160S;T0.170S;T0.180S;T0.190S;T0.200S;T0.220S;T0.240S;T0.250S;T0.260S;T0.280S;T0.290S;T0.300S;T0.320S;T0.340S;T0.350S;T0.360S;T0.380S;T0.400S;T0.420S;T0.440S;T0.450S;T0.460S;T0.480S;T0.500S;T0.550S;T0.600S;T0.650S;T0.667S;T0.700S;T0.750S;T0.800S;T0.850S;T0.900S;T0.950S;T1.000S;T1.100S;T1.200S;T1.300S;T1.400S;T1.500S;T1.600S;T1.700S;T1.800S;T1.900S;T2.000S;T2.200S;T2.400S;T2.500S;T2.600S;T2.800S;T3.000S;T3.200S;T3.400S;T3.500S;T3.600S;T3.800S;T4.000S;T4.200S;T4.400S;T4.600S;T4.800S;T5.000S;T5.500S;T6.000S;T6.500S;T7.000S;T7.500S;T8.000S;T8.500S;T9.000S;T9.500S;T10.000S;T11.000S;T12.000S;T13.000S;T14.000S;T15.000S;T20.000S;Ave Strike (deg);TYPE(CRjb = 0);CRjb;"TYPE
49;0029;Lytle Creek;1970;0912;1430;Santa Anita Dam;68;104;5.33;Mw;0.2376;0.096;4;0.3;1.1092E+24;325;48;59;3;1.3;256.4;67.5;163.2;34.2698;-117.5400;8;-999;0;M<6;0;5.627;4.5;3.8;17.2;-999;-999;-999;-999;-999;-999;-999;-999;-999;0;-999;-999;44.98;45.69;42.14;-999;44.73;42.52;-39.26;nu;-68.69;0.5;66.98;-999;0.84;37.06;-999;-999;-999;-999;-999;-999;-999.00;-999.00;-999;-999;-999;-999;H;G;A;D;B;S;C;667.13;-999;2a_3a_4b_4c;0.4;B;Kgr;-999;LAFC;34.185;-118.018;0;ABUTMENT;0.00;-999;-999;Mesozoic;-999;-999;40;-999;1040;20;-999;320;-999;-999;-999;-999;-999;-999;-999;-999;LYTLECR\SAD003.AT2;LYTLECR\SAD273.AT2;LYTLECR\SADDWN.AT2;3;273;A;-999;PEA;A;1;2.5;0.300;0.400;23.000;30.000;1.25;0.375;0.500;0.500;3.75E-02;1.21E+00;1.33E-01;3.77E-02;4.11E-02;4.28E-02;4.48E-02;5.35E-02;5.44E-02;4.91E-02;4.98E-02;5.28E-02;4.85E-02;6.51E-02;7.12E-02;7.41E-02;8.73E-02;9.38E-02;7.39E-02;7.89E-02;8.65E-02;1.39E-01;1.17E-01;1.26E-01;1.02E-01;1.65E-01;1.62E-01;1.14E-01;1.17E-01;1.76E-01;1.36E-01;2.53E-01;1.75E-01;1.98E-01;1.98E-01;1.61E-01;2.09E-01;1.45E-01;1.31E-01;1.09E-01;1.24E-01;9.01E-02;5.68E-02;5.56E-02;6.38E-02;7.87E-02;6.16E-02;6.80E-02;3.79E-02;3.57E-02;3.48E-02;3.55E-02;3.98E-02;4.18E-02;4.17E-02;3.70E-02;3.43E-02;3.44E-02;3.72E-02;4.42E-02;2.90E-02;1.42E-02;1.06E-02;1.01E-02;1.14E-02;1.21E-02;1.25E-02;1.39E-02;1.55E-02;1.36E-02;9.05E-03;5.82E-03;5.11E-03;4.90E-03;4.53E-03;3.86E-03;3.63E-03;3.31E-03;2.96E-03;2.65E-03;2.57E-03;2.54E-03;2.23E-03;2.14E-03;1.99E-03;1.56E-03;1.21E-03;9.47E-04;7.53E-04;6.70E-04;6.18E-04;5.42E-04;4.78E-04;4.19E-04;3.71E-04;3.33E-04;3.00E-04;2.71E-04;2.12E-04;1.70E-04;1.38E-04;1.14E-04;9.54E-05;8.33E-05;7.39E-05;6.59E-05;5.92E-05;5.34E-05;4.42E-05;3.71E-05;3.16E-05;2.73E-05;2.38E-05;1.34E-05;325;C1;0;C1;0;C1;0;C1;0;C1;0;C1;0;-999;-999;-999;-999;0.5;50;-999;-999;-999;-999;0;Y;Y;0;-999;17.46902306
50;0029;Lytle Creek;1970;0912;1430;Wrightwood - 6074 Park Dr;99;290;5.33;Mw;0.2376;0.096;4;0.3;1.1092E+24;325;48;59;3;1.3;256.4;67.5;163.2;34.2698;-117.5400;8;-999;0;M<6;0;5.627;4.5;3.8;17.2;-999;-999;-999;-999;-999;-999;-999;-999;-999;0;-999;-999;13.01;15.27;10.7;-999;14.65;12.14;1.12;nu;5.99;0.5;4.47;-999;0.84;34.77;-999;-999;-999;-999;-999;-999;-999.00;-999.00;-999;-999;-999;-999;B;H;A;B;C;S;C;486;-999;0;0.2;C;Qal, coarse;Holocene coarse alluvium ;USGS;34.36;-117.63;2;GROUND LEVEL;0.07;-999;1a;Holocene/Mesozoic ?;-999;-999;60;-999;260;-999;-999;-999;-999;-999;-999;-999;-999;-999;-999;-999;LYTLECR\WTW115.AT2;LYTLECR\WTW205.AT2;LYTLECR\WTWDWN.AT2;115;205;A;-999;PEA;A;1;2.5;0.200;0.180;20.000;23.000;1.25;0.250;0.225;0.250;1.69E-01;9.03E+00;9.43E-01;1.69E-01;1.74E-01;1.78E-01;1.75E-01;1.83E-01;1.90E-01;1.91E-01;2.03E-01;1.91E-01;2.19E-01;2.14E-01;2.20E-01;2.11E-01;2.39E-01;2.15E-01;2.63E-01;2.54E-01;2.38E-01;2.42E-01;2.76E-01;3.80E-01;5.23E-01;4.44E-01;5.75E-01;8.13E-01;5.78E-01;7.97E-01;4.76E-01;8.23E-01;3.43E-01;4.16E-01;5.56E-01;6.51E-01;5.18E-01;5.33E-01;4.24E-01;3.33E-01;3.44E-01;4.58E-01;4.86E-01;6.38E-01;7.62E-01;5.41E-01;4.72E-01;4.51E-01;5.92E-01;4.87E-01;4.06E-01;3.65E-01;3.69E-01;4.37E-01;4.80E-01;4.98E-01;4.82E-01;4.75E-01;4.84E-01;4.96E-01;4.12E-01;3.18E-01;2.36E-01;2.23E-01;2.12E-01;2.10E-01;2.30E-01;2.11E-01;1.67E-01;1.24E-01;9.35E-02;6.03E-02;4.56E-02;3.67E-02;2.91E-02;2.40E-02;2.10E-02;1.88E-02;1.70E-02;1.55E-02;1.49E-02;1.19E-02;1.08E-02;1.00E-02;8.91E-03;7.41E-03;5.85E-03;5.17E-03;4.31E-03;4.01E-03;3.74E-03;3.50E-03;3.71E-03;3.76E-03;3.76E-03;3.35E-03;2.89E-03;2.36E-03;1.57E-03;1.14E-03;9.30E-04;7.92E-04;6.89E-04;6.04E-04;5.33E-04;4.74E-04;4.25E-04;3.82E-04;3.15E-04;2.64E-04;2.25E-04;1.94E-04;1.69E-04;9.48E-05;325;C1;0;C1;0;C1;0;C1;0;C1;0;C1;0;-999;-999;-999;-999;0.5;50;-999;-999;-999;-999;0;Y;Y;0;-999;12.96204694
51;0030;San Fernando;1971;0209;1400;2516 Via Tejon PV;3;411;6.61;Mw;0.2220;0.112;15;0.2;9.2257E+25;288;50;83;2;4.8;22.0;82.8;153.4;34.4400;-118.4100;13;1;1;-999;1;0;20.0;27.4;438.4;58.8;1.02;57.8;24.5;2.5;0.8;49;1;2.5;0;Sierra Madre-San Fernando;2.00;71.14;72.32;55.2;-999;65.1;55.2;-54.51;nu;-99.03;0.64;70.7;0.21;0.86;40.5;0.66;10.30;-999.00;1.82;-999;16.10;0.15;-0.37;-999;-999;-999;-56.42;B;Q;C;C;D;S;D;280.56;-999;1;0.25;C;Tsh;-999;USGS;33.801;-118.387;-999;-999;-999;-999;-999;-999;-999;-999;100;-999;640;320;-999;780;-999;-999;-999;-999;-999;-999;-999;-999;SFERN\PVE065.AT2;SFERN\PVE155.AT2;SFERN\PVEDWN.AT2;65;155;A;-999;PEA;A;1;2.5;0.200;0.200;20.000;20.000;1.25;0.250;0.250;0.250;3.13E-02;5.50E+00;8.73E+00;3.13E-02;3.17E-02;3.13E-02;3.18E-02;3.16E-02;3.16E-02;3.40E-02;3.36E-02;3.28E-02;3.54E-02;3.69E-02;3.85E-02;3.59E-02;3.98E-02;4.35E-02;4.01E-02;4.29E-02;4.90E-02;4.22E-02;4.94E-02;5.55E-02;5.02E-02;5.99E-02;5.30E-02;6.77E-02;7.99E-02;8.01E-02;7.69E-02;8.78E-02;1.17E-01;1.24E-01;1.80E-01;1.61E-01;1.30E-01;2.13E-01;2.24E-01;1.85E-01;1.87E-01;1.68E-01;1.99E-01;1.34E-01;1.90E-01;1.61E-01;1.34E-01;1.70E-01;2.02E-01;1.82E-01;1.96E-01;2.09E-01;1.35E-01;1.69E-01;1.44E-01;1.21E-01;1.52E-01;1.20E-01;1.17E-01;1.43E-01;1.27E-01;1.11E-01;1.08E-01;9.43E-02;1.16E-01;8.51E-02;1.11E-01;1.24E-01;1.24E-01;9.93E-02;1.08E-01;1.13E-01;9.25E-02;7.18E-02;6.74E-02;9.23E-02;1.03E-01;4.30E-02;3.81E-02;4.03E-02;2.38E-02;3.17E-02;3.56E-02;2.82E-02;2.43E-02;4.10E-02;3.87E-02;3.49E-02;3.87E-02;3.64E-02;4.53E-02;4.67E-02;3.78E-02;4.50E-02;4.77E-02;3.70E-02;3.42E-02;3.27E-02;3.47E-02;1.62E-02;1.17E-02;1.03E-02;9.86E-03;8.90E-03;7.25E-03;5.90E-03;4.66E-03;3.71E-03;2.39E-03;2.06E-03;1.91E-03;1.93E-03;1.82E-03;1.36E-03;285;C1;0;C1;0;C1;0;C1;0;C1;0;C1;0;-10.178016;6.22E-01;0.2315;0.2207;0.5;50;-999;-999;-999;-999;0;?;Y;0;-999;-20.178016
52;0030;San Fernando;1971;0209;1400;Anza Post Office;67;103;6.61;Mw;0.2220;0.112;15;0.2;9.2257E+25;288;50;83;2;4.8;22.0;82.8;153.4;34.4400;-118.4100;13;1;1;-999;1;0;20.0;27.4;438.4;58.8;1.02;57.8;24.5;2.5;0.8;49;1;2.5;0;Sierra Madre-San Fernando;2.00;187.99;188.44;173.16;-999;183.86;173.16;-38.46;nu;-167.17;0.64;12.9;0.63;0.86;34.7;0.71;10.30;-999.00;2.17;-999;15.30;0.15;-0.08;-999;-999;-999;-33.75;A;H;C;A;D;S;C;360.45;-999;2a_3a_4b_4c;0.25;D;Qal, thin;-999;CIT;33.5556;-116.674;1;GROUND LEVEL;-999;-999;-999;Holocene/Mesozoic ?;-999;-999;60;-999;300;-999;-999;-999;-999;-999;-999;-999;-999;-999;-999;-999;SFERN\AZP045.AT2;SFERN\AZP315.AT2;SFERN\AZPDWN.AT2;45;315;A;-999;PEA;A;1;2.5;0.500;0.500;35.000;35.000;1.25;0.625;0.625;0.625;3.44E-02;1.75E+00;1.72E-01;3.45E-02;3.58E-02;3.60E-02;3.80E-02;3.85E-02;4.03E-02;4.22E-02;4.23E-02;3.84E-02;4.39E-02;4.07E-02;4.02E-02;4.01E-02;4.02E-02;4.27E-02;3.64E-02;4.18E-02;4.40E-02;4.35E-02;4.88E-02;4.84E-02;4.27E-02;4.57E-02;5.66E-02;6.45E-02;6.27E-02;6.68E-02;8.73E-02;1.07E-01;1.22E-01;1.46E-01;1.37E-01;1.55E-01;1.65E-01;1.97E-01;1.98E-01;1.93E-01;2.51E-01;1.30E-01;1.31E-01;1.22E-01;1.80E-01;2.59E-01;1.73E-01;1.20E-01;1.40E-01;1.59E-01;1.55E-01;1.38E-01;1.06E-01;1.42E-01;1.73E-01;2.18E-01;2.41E-01;2.34E-01;2.08E-01;1.42E-01;8.96E-02;1.16E-01;7.30E-02;8.62E-02;7.47E-02;8.36E-02;8.69E-02;5.47E-02;3.52E-02;3.75E-02;3.54E-02;2.46E-02;2.23E-02;1.58E-02;1.79E-02;1.94E-02;1.23E-02;7.88E-03;6.97E-03;5.20E-03;4.77E-03;4.52E-03;3.81E-03;2.75E-03;2.28E-03;1.54E-03;1.25E-03;9.74E-04;7.69E-04;7.36E-04;6.90E-04;6.92E-04;5.62E-04;4.70E-04;4.25E-04;3.66E-04;3.07E-04;2.82E-04;2.41E-04;2.13E-04;1.86E-04;1.56E-04;1.30E-04;1.22E-04;1.09E-04;9.65E-05;8.48E-05;7.53E-05;6.10E-05;5.22E-05;4.66E-05;4.11E-05;3.55E-05;2.16E-05;285.00;C1;0;C1;0;C1;0;C1;0;C1;0;C1;0;-169.51318;4.03E-01;0.1951;0.0897;0.5;50;-999;-999;-999;-999;0;-999;?;0;-999;-179.51318
53;0030;San Fernando;1971;0209;1400;Bakersfield - Harvey Aud;124;1004;6.61;Mw;0.2220;0.112;15;0.2;9.2257E+25;288;50;83;2;4.8;22.0;82.8;153.4;34.4400;-118.4100;13;1;1;-999;1;0;20.0;27.4;438.4;58.8;1.02;57.8;24.5;2.5;0.8;49;1;2.5;0;Sierra Madre-San Fernando;2.00;117.55;118.27;111.88;-999;123.64;113.02;85.74;nu;46;0.36;45.1;0.25;0.14;63.4;0.06;5.70;-999.00;2.08;-999;6.81;-0.58;0.00;-999;-999;-999;92.24;C;H;D;A;D;D;D;241.41;-999;2a_3a_4b_4c;0.25;D;Qal, deep (incl LA);-999;USGS;35.37;-119.021;1;BASEMENT;-999;-999;-999;-999;-999;-999;80;-999;1680;-999;-999;-999;-999;-999;-999;-999;-999;-999;-999;-999;SFERN\BFA180.AT2;SFERN\BFA270.AT2;SFERN\BFA-UP.AT2;180;270;A;-999;PEA;A;1;2.5;0.100;0.100;13.000;20.000;1.25;0.125;0.125;0.125;6.95E-03;1.44E+00;1.32E+00;6.95E-03;6.97E-03;6.99E-03;6.99E-03;7.04E-03;7.06E-03;7.00E-03;7.03E-03;7.10E-03;7.16E-03;7.09E-03;7.62E-03;7.50E-03;7.88E-03;7.52E-03;7.51E-03;8.18E-03;8.09E-03;8.80E-03;8.61E-03;8.97E-03;8.85E-03;9.94E-03;8.28E-03;9.50E-03;1.03E-02;9.34E-03;9.62E-03;1.17E-02;1.31E-02;1.31E-02;1.41E-02;1.37E-02;1.39E-02;2.06E-02;2.44E-02;2.33E-02;1.73E-02;3.75E-02;2.71E-02;2.44E-02;2.41E-02;3.74E-02;4.26E-02;5.10E-02;3.24E-02;4.20E-02;3.68E-02;4.28E-02;3.58E-02;3.08E-02;4.33E-02;5.39E-02;3.82E-02;2.84E-02;2.78E-02;2.76E-02;2.60E-02;3.27E-02;2.67E-02;3.23E-02;3.56E-02;2.54E-02;2.75E-02;2.01E-02;2.90E-02;2.58E-02;2.20E-02;2.78E-02;2.42E-02;1.95E-02;1.74E-02;1.49E-02;1.29E-02;1.55E-02;1.56E-02;2.16E-02;2.42E-02;1.87E-02;1.73E-02;1.28E-02;1.60E-02;1.23E-02;1.36E-02;1.05E-02;6.29E-03;5.60E-03;6.95E-03;8.97E-03;5.99E-03;5.94E-03;6.92E-03;6.17E-03;5.57E-03;5.04E-03;2.86E-03;3.66E-03;2.17E-03;3.43E-03;3.40E-03;2.52E-03;1.94E-03;1.54E-03;1.34E-03;1.57E-03;1.40E-03;1.23E-03;1.06E-03;8.63E-04;6.95E-04;2.41E-04;290.00;C1;0;C1;0;C1;0;C1;0;C1;0;C1;0;97.225047;1.15E+00;0.0819;-0.1588;0.5;50;-999;-999;-999;-999;0;Y;Y;0;-999;87.225047
54;0030;San Fernando;1971;0209;1400;Borrego Springs Fire Sta;69;105;6.61;Mw;0.2220;0.112;15;0.2;9.2257E+25;288;50;83;2;4.8;22.0;82.8;153.4;34.4400;-118.4100;13;1;1;-999;1;0;20.0;27.4;438.4;58.8;1.02;57.8;24.5;2.5;0.8;49;1;2.5;0;Sierra Madre-San Fernando;2.00;229.77;230.14;214.32;-999;225.37;214.32;-62.28;nu;-163.11;0.64;16.3;0.62;0.86;39.9;0.66;10.30;-999.00;2.26;-999;15.30;0.20;-0.11;-999;-999;-999;-55.97;A;H;C;A;D;D;D;338.54;-999;2a_3a_4b_4c;0.25;D;Qal, deep (incl LA);-999;USGS;33.26;-116.37;1;GROUND LEVEL;-999;-999;-999;Holocene;-999;Alluvium;80;-999;300;140;-999;140;-999;-999;-999;-999;-999;-999;-999;-999;SFERN\BSF135.AT2;SFERN\BSF225.AT2;SFERN\BSFDWN.AT2;135;225;A;-999;PEA;A;1;2.5;0.100;0.100;23.000;30.000;1.25;0.125;0.125;0.125;9.02E-03;1.50E+00;1.48E+00;9.03E-03;9.50E-03;9.63E-03;9.86E-03;1.04E-02;1.09E-02;1.14E-02;1.37E-02;1.12E-02;1.17E-02;1.38E-02;1.22E-02;1.48E-02;1.38E-02;1.30E-02;1.63E-02;1.28E-02;1.57E-02;1.29E-02;1.68E-02;1.46E-02;1.42E-02;1.59E-02;1.62E-02;1.67E-02;1.53E-02;1.54E-02;1.84E-02;1.99E-02;2.70E-02;2.43E-02;1.99E-02;1.81E-02;2.02E-02;1.91E-02;2.37E-02;2.88E-02;2.72E-02;2.81E-02;3.34E-02;3.68E-02;4.90E-02;4.00E-02;3.57E-02;3.21E-02;3.88E-02;6.67E-02;6.18E-02;4.49E-02;3.60E-02;3.20E-02;3.19E-02;3.45E-02;4.17E-02;3.41E-02;3.96E-02;4.86E-02;3.29E-02;4.20E-02;4.24E-02;3.45E-02;3.39E-02;3.30E-02;4.32E-02;4.70E-02;4.73E-02;2.75E-02;2.33E-02;1.43E-02;1.92E-02;1.67E-02;9.37E-03;1.34E-02;1.13E-02;1.28E-02;9.94E-03;1.24E-02;9.33E-03;6.08E-03;6.36E-03;6.55E-03;8.40E-03;8.44E-03;6.66E-03;6.17E-03;4.98E-03;5.23E-03;5.71E-03;7.04E-03;7.78E-03;7.95E-03;7.62E-03;6.90E-03;5.62E-03;4.73E-03;3.29E-03;2.24E-03;2.55E-03;3.12E-03;3.19E-03;2.95E-03;2.64E-03;2.33E-03;2.01E-03;1.77E-03;1.51E-03;1.17E-03;9.52E-04;7.26E-04;6.20E-04;2.28E-04;285.00;C1;0;C1;0;C1;0;C1;0;C1;0;C1;0;-206.70847;4.88E-01;0.1979;0.1015;0.5;50;-999;-999;-999;-999;0;Y;Y;0;-999;-216.70847
55;0030;San Fernando;1971;0209;1400;Buena Vista - Taft;2;1;6.61;Mw;0.2220;0.112;15;0.2;9.2257E+25;288;50;83;2;4.8;22.0;82.8;153.4;34.4400;-118.4100;13;1;1;-999;1;0;20.0;27.4;438.4;58.8;1.02;57.8;24.5;2.5;0.8;49;1;2.5;0;Sierra Madre-San Fernando;2.00;117.46;118.18;111.37;-999;122.68;112.52;53.72;nu;28;0.36;27.0;0.32;0.14;69.6;0.05;5.70;-999.00;2.54;-999;5.70;-0.41;0.07;-999;-999;-999;61.17;A;Q;D;C;D;S;C;385.69;-999;2a_3a_4b_4c;0.4;C;QT;-999;USGS;35.16;-119.35;-999;-999;-999;-999;-999;-999;-999;-999;60;-999;4300;-999;-999;2000;-999;-999;-999;-999;-999;-999;-999;-999;SFERN\BVP090.AT2;SFERN\BVP180.AT2;SFERN\BVPDWN.AT2;90;180;A;-999;PEA;A;1;2.5;0.100;0.100;13.000;15.000;1.25;0.125;0.125;0.125;1.20E-02;1.36E+00;1.30E+00;1.20E-02;1.22E-02;1.22E-02;1.22E-02;1.22E-02;1.24E-02;1.24E-02;1.24E-02;1.23E-02;1.27E-02;1.28E-02;1.27E-02;1.24E-02;1.26E-02;1.28E-02;1.34E-02;1.37E-02;1.35E-02;1.38E-02;1.41E-02;1.53E-02;1.61E-02;1.84E-02;1.95E-02;1.96E-02;2.31E-02;2.51E-02;2.65E-02;3.07E-02;3.42E-02;3.78E-02;5.16E-02;6.59E-02;5.43E-02;8.36E-02;5.55E-02;7.07E-02;9.73E-02;6.24E-02;5.67E-02;5.54E-02;7.05E-02;8.26E-02;1.01E-01;1.11E-01;9.58E-02;9.59E-02;9.26E-02;6.18E-02;8.19E-02;6.57E-02;4.63E-02;4.04E-02;4.29E-02;5.89E-02;4.24E-02;3.92E-02;3.88E-02;2.95E-02;1.95E-02;2.31E-02;2.73E-02;2.99E-02;3.01E-02;3.65E-02;1.63E-02;2.36E-02;2.73E-02;1.83E-02;2.16E-02;1.54E-02;1.99E-02;1.33E-02;1.40E-02;1.87E-02;1.58E-02;1.75E-02;1.81E-02;1.46E-02;1.43E-02;1.08E-02;6.79E-03;7.52E-03;1.27E-02;7.63E-03;7.32E-03;7.66E-03;8.93E-03;8.28E-03;6.75E-03;5.07E-03;3.51E-03;2.81E-03;2.46E-03;2.21E-03;2.29E-03;2.19E-03;2.68E-03;3.11E-03;3.35E-03;3.44E-03;3.38E-03;2.99E-03;2.57E-03;2.08E-03;1.48E-03;9.75E-04;7.10E-04;5.60E-04;4.44E-04;1.73E-04;290.00;C1;0;C1;0;C1;0;C1;0;C1;0;C1;0;118.84149;1.02E+00;0.1041;-0.1122;0.5;50;-999;-999;-999;-999;0;Y;Y;0;-999;108.84149
56;0030;San Fernando;1971;0209;1400;Carbon Canyon Dam;71;108;6.61;Mw;0.2220;0.112;15;0.2;9.2257E+25;288;50;83;2;4.8;22.0;82.8;153.4;34.4400;-118.4100;13;1;1;-999;1;0;20.0;27.4;438.4;58.8;1.02;57.8;24.5;2.5;0.8;49;1;2.5;0;Sierra Madre-San Fernando;2.00;78.89;79.95;61.79;-999;73.62;61.79;-29.31;nu;-151.69;0.64;29.0;0.56;0.86;33.8;0.72;10.30;-999.00;2.64;-999;15.30;0.35;-0.15;-999;-999;-999;-29.49;H;P;A;C;C;S;D;235;-999;0;0.1;C;Tss;-999;ACOE;33.9121;-117.838;0;LEFT ABUTMENT;5.00;-999;-999;Holocene;Coarse;Alluvial Fan;700;-999;4400;360;-999;3020;-999;-999;-999;-999;-999;-999;-999;-999;SFERN\CND130.AT2;SFERN\CND220.AT2;SFERN\CNDDWN.AT2;130;220;A;-999;PEA;A;1;2.5;0.500;0.330;20.000;20.000;1.25;0.625;0.413;0.625;7.12E-02;4.78E+00;4.09E+00;7.14E-02;7.23E-02;7.24E-02;7.32E-02;7.43E-02;7.38E-02;7.22E-02;7.30E-02;7.47E-02;7.81E-02;7.72E-02;8.69E-02;8.25E-02;8.07E-02;8.51E-02;8.67E-02;9.69E-02;1.24E-01;1.18E-01;1.26E-01;1.56E-01;1.56E-01;1.66E-01;2.61E-01;2.64E-01;2.92E-01;2.25E-01;3.31E-01;5.20E-01;3.89E-01;3.89E-01;4.92E-01;3.04E-01;3.67E-01;5.70E-01;3.70E-01;4.19E-01;3.00E-01;5.50E-01;4.39E-01;8.65E-01;6.81E-01;5.12E-01;4.10E-01;5.76E-01;3.40E-01;4.22E-01;3.54E-01;3.83E-01;6.11E-01;3.02E-01;3.29E-01;3.18E-01;3.22E-01;2.33E-01;2.15E-01;1.89E-01;1.51E-01;1.38E-01;1.22E-01;1.48E-01;9.82E-02;1.21E-01;8.26E-02;6.84E-02;6.46E-02;5.85E-02;4.83E-02;3.50E-02;4.77E-02;3.29E-02;2.80E-02;3.14E-02;3.98E-02;2.85E-02;1.90E-02;1.88E-02;2.33E-02;1.42E-02;1.21E-02;1.69E-02;1.60E-02;1.90E-02;2.15E-02;2.57E-02;1.98E-02;1.92E-02;1.77E-02;1.73E-02;2.05E-02;2.08E-02;1.73E-02;1.53E-02;1.61E-02;1.66E-02;1.37E-02;1.56E-02;1.30E-02;1.10E-02;9.63E-03;8.31E-03;7.42E-03;6.69E-03;6.20E-03;5.44E-03;4.62E-03;4.12E-03;3.65E-03;2.92E-03;2.45E-03;7.65E-04;285.00;C1;0;C1;0;C1;0;C1;0;C1;0;C1;0;-54.870978;9.29E-01;0.217;0.152;0.5;50;-999;-999;-999;-999;0;-999;?;0;-999;-64.870978
