Record Sequence Number;EQID;Earthquake Name;YEAR;MODY;HRMN;Station Name;Station Sequence Number;Station ID  No.;Earthquake Magnitude;Magnitude Type;Magnitude Uncertainty: Kagan Model;Magnitude Uncertainty: Statistical;Magnitude Sample Size;Magnitude Uncertainty: Study Class;Mo (dyne.cm);Strike (deg);Dip (deg);Rake Angle (deg);Mechanism Based on Rake Angle;P-plunge (deg);P-trend (deg);T-plunge (deg);T-trend (deg);Hypocenter Latitude (deg);Hypocenter Longitude (deg);Hypocenter Depth (km);"Coseismic Surface Rupture: 1=Yes; 0=No;    -999=Unknown";Coseismic Surface Rupture (Including Inferred);Basis for Inference of Surface Rupture;"Finite Rupture Model: 1=Yes;  0=No";Depth to Top Of Fault Rupture Model;Fault Rupture Length for Calculation of Ry (km);Fault Rupture Width (km);Fault Rupture Area (km^2);Avg Fault Disp (cm);Rise Time (s);Avg Slip Velocity (cm/s);Static Stress Drop (bars);Preferred Rupture Velocity (km/s);Average Vr/Vs;Percent of Moment Release in the Top 5 Km of Crust;"Existence of Shallow Asperity: 0=No; 1=Yes";Depth to Top of Shallowest Asperity (km);"Earthquake in Extensional Regime: 1=Yes; 0=No";Fault Name;Slip Rate (mm/Yr);EpiD (km);HypD (km);Joyner-Boore Dist. (km);Campbell R Dist. (km);RmsD (km);ClstD (km);Rx;FW/HW Indicator;Source to Site Azimuth (deg);X;Theta.D (deg);SSGA (Strike Slip);Y;Phi.D (deg);SSGA (Dip Slip);s;d;ctildepr;Unused Column;D;Rfn.Hyp;Rfp.Hyp;Unused Column;Unused Column;Unused Column;T;GMX's C1;GMX's C2;GMX's C3;Campbell's GEOCODE;Bray and Rodriguez-Marek SGS;Depth;Preferred NEHRP Based on Vs30;Vs30 (m/s) selected for analysis;Column Not Used;Measured/Inferred Class;Sigma of Vs30 (in natural log Units);NEHRP Classification from CGS's Site Condition Map;Geological Unit;Geology;Owner;Station Latitude;Station Longitude;STORIES;INSTLOC;Depth to Basement Rock;Site Visited;NGA Type;Age;Grain Size;Depositional History;Northern CA/Southern CA - H11 Z1 (m);Northern CA/Southern CA - H11 Z1.5 (m);Northern CA/Southern CA - H11 Z2.5 (m);Northern CA/Southern CA - S4 Z1 (m);Northern CA/Southern CA - S4 Z1.5 (m);Northern CA/Southern CA - S4 Z2.5 (m);Depth to Franciscan Rock (km);Basin;h (m);hnorm (m);Rsbe (m);Rcebe (m);Rebe (m);Rsbe1 (m);File Name (Horizontal 1);File Name (Horizontal 2);File Name (Vertical);H1 azimth (degrees);H2 azimith (degrees);Type of Recording;Instrument Model;PEA Processing Flag;Type of Filter;npass;nroll;HP-H1 (Hz);HP-H2 (Hz);LP-H1 (Hz);LP-H2 (Hz);Factor;Lowest Usable Freq - H1 (Hz);Lowest Usable Freq - H2 (H2);Lowest Usable Freq - Ave. Component (Hz);PGA (g);PGV (cm/sec);PGD (cm);T0.010S;T0.020S;T0.022S;T0.025S;T0.029S;T0.030S;T0.032S;T0.035S;T0.036S;T0.040S;T0.042S;T0.044S;T0.045S;T0.046S;T0.048S;T0.050S;T0.055S;T0.060S;T0.065S;T0.067S;T0.070S;T0.075S;T0.080S;T0.085S;T0.090S;T0.095S;T0.100S;T0.110S;T0.120S;T0.130S;T0.133S;T0.140S;T0.150S;T0.160S;T0.170S;T0.180S;T0.190S;T0.200S;T0.220S;T0.240S;T0.250S;T0.260S;T0.280S;T0.290S;T0.300S;T0.320S;T0.340S;T0.350S;T0.360S;T0.380S;T0.400S;T0.420S;T0.440S;T0.450S;T0.460S;T0.480S;T0.500S;T0.550S;T0.600S;T0.650S;T0.667S;T0.700S;T0.750S;T0.800S;T0.850S;T0.900S;T0.950S;T1.000S;T1.100S;T1.200S;T1.300S;T1.400S;T1.500S;T1.600S;T1.700S;T1.800S;T1.900S;T2.000S;T2.200S;T2.400S;T2.500S;T2.600S;T2.800S;T3.000S;T3.200S;T3.400S;T3.500S;T3.600S;T3.800S;T4.000S;T4.200S;T4.400S;T4.600S;T4.800S;T5.000S;T5.500S;T6.000S;T6.500S;T7.000S;T7.500S;T8.000S;T8.500S;T9.000S;T9.500S;T10.000S;T11.000S;T12.000S;T13.000S;T14.000S;T15.000S;T20.000S;Ave Strike (deg);TYPE(CRjb = 0);CRjb;"TYPE
57;0030;San Fernando;1971;0209;1400;Castaic - Old Ridge Route;323;24278;6.61;Mw;0.2220;0.112;15;0.2;9.2257E+25;288;50;83;2;4.8;22.0;82.8;153.4;34.4400;-118.4100;13;1;1;-999;1;0;20.0;27.4;438.4;58.8;1.02;57.8;24.5;2.5;0.8;49;1;2.5;0;Sierra Madre-San Fernando;2.00;25.36;28.50;19.33;-999;30.62;22.63;13.01;nu;34;0.36;21.6;0.33;0.26;59.7;0.13;5.70;-999.00;2.34;-999;5.70;-0.48;-0.15;-999;-999;-999;16.51;I;M;B;C;C;S;C;450.28;-999;1;0.3;C;Tsh;Lt-Miocene mudst/sandst(Castaic);CDMG;34.564;-118.642;0;GROUND LEVEL;10.00;-999;2;Mesozoic;-999;-999;820;-999;1620;320;-999;1520;-999;-999;-999;-999;-999;-999;-999;-999;SFERN\ORR021.AT2;SFERN\ORR291.AT2;SFERN\ORRDWN.AT2;21;291;A;-999;PEA;A;1;2.5;0.300;0.300;35.000;35.000;1.25;0.375;0.375;0.375;2.87E-01;2.22E+01;3.29E+00;2.87E-01;2.94E-01;3.04E-01;3.11E-01;3.83E-01;3.89E-01;3.74E-01;3.79E-01;3.83E-01;3.67E-01;3.92E-01;3.48E-01;3.93E-01;3.51E-01;4.03E-01;4.04E-01;4.15E-01;4.77E-01;5.50E-01;4.42E-01;6.30E-01;5.18E-01;6.23E-01;8.86E-01;8.02E-01;8.23E-01;9.65E-01;1.21E+00;1.22E+00;8.87E-01;7.99E-01;1.47E+00;1.40E+00;1.21E+00;1.32E+00;8.36E-01;1.07E+00;1.09E+00;1.14E+00;1.01E+00;9.56E-01;8.72E-01;9.88E-01;7.46E-01;7.67E-01;1.24E+00;1.53E+00;1.61E+00;1.47E+00;1.14E+00;9.82E-01;1.22E+00;1.12E+00;1.15E+00;1.39E+00;1.04E+00;1.00E+00;1.03E+00;8.38E-01;4.83E-01;4.92E-01;6.15E-01;6.54E-01;6.90E-01;5.82E-01;5.41E-01;4.38E-01;5.02E-01;4.50E-01;3.02E-01;1.85E-01;1.65E-01;2.15E-01;1.31E-01;1.16E-01;8.43E-02;9.57E-02;9.57E-02;5.47E-02;4.84E-02;4.60E-02;5.02E-02;2.62E-02;2.30E-02;1.86E-02;1.55E-02;1.56E-02;1.91E-02;2.03E-02;1.22E-02;9.53E-03;9.12E-03;7.75E-03;6.94E-03;6.73E-03;4.66E-03;3.68E-03;2.88E-03;2.51E-03;2.21E-03;1.96E-03;1.74E-03;1.56E-03;1.41E-03;1.28E-03;1.06E-03;8.97E-04;7.67E-04;6.64E-04;5.80E-04;3.28E-04;290.00;C1;0;C1;0;C1;0;C1;0;C1;0;C1;0;37.701988;1.14E+00;0.1383;-0.067;0.5;50;-999;-999;-999;-999;0;-999;?;0;-999;27.701988
58;0030;San Fernando;1971;0209;1400;Cedar Springs Pumphouse;73;112;6.61;Mw;0.2220;0.112;15;0.2;9.2257E+25;288;50;83;2;4.8;22.0;82.8;153.4;34.4400;-118.4100;13;1;1;-999;1;0;20.0;27.4;438.4;58.8;1.02;57.8;24.5;2.5;0.8;49;1;2.5;0;Sierra Madre-San Fernando;2.00;102.97;103.79;92.25;-999;101.23;92.59;26.59;nu;164;0.64;11.4;0.63;0.08;84.8;0.01;10.30;-999.00;3.28;-999;10.56;-0.26;0.07;-999;-999;-999;27.85;A;H;C;A;C;S;C;477.22;-999;0;0.2;D;Kgr;-999;CDWR;34.31;-117.3;1;GROUND LEVEL;0.09;-999;-999;-999;-999;-999;40;-999;220;-999;-999;-999;-999;-999;-999;-999;-999;-999;-999;-999;SFERN\CSP126.AT2;SFERN\CSP216.AT2;SFERN\CSPDWN.AT2;126;216;A;-999;PEA;A;1;2.5;0.100;0.100;20.000;20.000;1.25;0.125;0.125;0.125;2.72E-02;2.27E+00;3.98E-01;2.73E-02;2.75E-02;2.76E-02;2.77E-02;2.85E-02;2.78E-02;2.82E-02;2.92E-02;2.90E-02;3.10E-02;3.13E-02;3.19E-02;3.27E-02;3.01E-02;3.39E-02;3.59E-02;3.37E-02;3.64E-02;4.77E-02;4.12E-02;4.00E-02;3.88E-02;4.58E-02;5.29E-02;6.21E-02;5.67E-02;7.51E-02;7.92E-02;8.53E-02;7.39E-02;8.22E-02;1.19E-01;2.03E-01;2.30E-01;1.07E-01;1.04E-01;1.12E-01;8.83E-02;1.95E-01;1.35E-01;1.60E-01;2.18E-01;1.97E-01;2.19E-01;2.27E-01;1.49E-01;1.74E-01;1.85E-01;2.07E-01;2.43E-01;1.85E-01;1.12E-01;8.69E-02;9.03E-02;9.73E-02;8.90E-02;7.65E-02;7.74E-02;7.44E-02;7.40E-02;8.79E-02;7.44E-02;6.02E-02;4.00E-02;4.37E-02;5.32E-02;5.37E-02;3.46E-02;1.85E-02;1.94E-02;2.01E-02;1.41E-02;1.24E-02;1.18E-02;1.16E-02;1.38E-02;1.28E-02;1.13E-02;8.52E-03;6.07E-03;5.52E-03;5.53E-03;4.83E-03;4.35E-03;3.93E-03;3.45E-03;3.14E-03;2.92E-03;2.59E-03;2.33E-03;2.06E-03;1.86E-03;1.81E-03;1.76E-03;1.61E-03;1.44E-03;1.23E-03;9.86E-04;7.75E-04;6.15E-04;5.12E-04;4.13E-04;3.55E-04;3.08E-04;2.67E-04;1.97E-04;1.51E-04;1.18E-04;9.82E-05;8.42E-05;4.39E-05;285.00;C1;0;C1;0;C1;0;C1;0;C1;0;C1;0;-88.375379;6.86E-01;0.1278;-0.0044;0.5;50;-999;-999;-999;-999;0;Y;Y;0;-999;-98.375379
59;0030;San Fernando;1971;0209;1400;Cedar Springs, Allen Ranch;72;111;6.61;Mw;0.2220;0.112;15;0.2;9.2257E+25;288;50;83;2;4.8;22.0;82.8;153.4;34.4400;-118.4100;13;1;1;-999;1;0;20.0;27.4;438.4;58.8;1.02;57.8;24.5;2.5;0.8;49;1;2.5;0;Sierra Madre-San Fernando;2.00;100.39;101.23;89.37;-999;98.41;89.72;22.28;nu;166;0.64;9.1;0.64;0.01;89.1;0;10.30;-999.00;3.61;-999;10.31;-0.23;0.07;-999;-999;-999;23.44;B;G;A;D;B;S;B;813.48;-999;1;0.4;B;Kgr;-999;CDWR;34.2778;-117.335;2;GROUND LEVEL;0.00;-999;-999;Pleistocene/Mesozoic ?;-999;-999;14;14;220;14;14;-999;-999;-999;-999;-999;-999;-999;-999;-999;SFERN\CSM095.AT2;SFERN\CSM185.AT2;SFERN\CSMDWN.AT2;95;185;A;-999;PEA;A;1;2.5;0.200;0.300;35.000;35.000;1.25;0.250;0.375;0.375;1.80E-02;1.47E+00;5.18E-01;1.80E-02;1.97E-02;1.88E-02;2.11E-02;3.01E-02;3.11E-02;4.19E-02;3.58E-02;3.49E-02;3.25E-02;2.89E-02;3.00E-02;2.99E-02;2.55E-02;3.24E-02;3.07E-02;3.04E-02;3.06E-02;3.65E-02;4.48E-02;4.49E-02;4.28E-02;6.27E-02;7.20E-02;6.22E-02;1.03E-01;7.47E-02;7.12E-02;8.60E-02;8.19E-02;6.02E-02;1.12E-01;1.14E-01;1.16E-01;9.31E-02;8.44E-02;7.56E-02;9.17E-02;6.71E-02;6.38E-02;7.51E-02;5.97E-02;7.89E-02;6.33E-02;5.54E-02;6.78E-02;5.55E-02;6.68E-02;6.88E-02;5.02E-02;4.34E-02;5.35E-02;4.89E-02;4.43E-02;3.90E-02;3.69E-02;5.35E-02;7.05E-02;3.93E-02;4.76E-02;3.83E-02;2.76E-02;2.19E-02;2.67E-02;3.80E-02;4.47E-02;5.32E-02;3.16E-02;2.53E-02;2.84E-02;2.87E-02;2.28E-02;1.21E-02;1.14E-02;1.08E-02;1.13E-02;1.09E-02;8.46E-03;6.10E-03;6.50E-03;6.24E-03;6.58E-03;6.40E-03;6.81E-03;6.48E-03;5.90E-03;5.78E-03;5.73E-03;5.39E-03;4.80E-03;3.94E-03;3.21E-03;2.50E-03;1.93E-03;1.67E-03;1.24E-03;1.08E-03;1.04E-03;8.61E-04;7.07E-04;5.89E-04;5.34E-04;4.69E-04;4.01E-04;3.26E-04;2.34E-04;1.81E-04;1.43E-04;1.16E-04;9.71E-05;5.26E-05;285.00;C1;0;C1;0;C1;0;C1;0;C1;0;C1;0;-86.436464;5.99E-01;0.1345;0.005;0.5;50;-999;-999;-999;-999;0;Y;Y;0;-999;-96.436464
60;0030;San Fernando;1971;0209;1400;Cholame - Shandon Array #2;125;1013;6.61;Mw;0.2220;0.112;15;0.2;9.2257E+25;288;50;83;2;4.8;22.0;82.8;153.4;34.4400;-118.4100;13;1;1;-999;1;0;20.0;27.4;438.4;58.8;1.02;57.8;24.5;2.5;0.8;49;1;2.5;0;Sierra Madre-San Fernando;2.00;223.64;224.01;217.54;-999;228.62;218.13;85.95;nu;23;0.36;23.8;0.33;0.14;63.4;0.06;5.70;-999.00;2.78;-999;5.70;-0.36;0.05;-999;-999;-999;97.83;I;H;D;A;D;S;D;184.75;-999;0;0.1;D;-999;-999;CDMG;35.733;-120.29;0;GROUND LEVEL;3.00;-999;-999;Holocene;Fine;Non-marine;80;-999;4220;-999;-999;1060;-999;-999;-999;-999;-999;-999;-999;-999;SFERN\C02051.AT2;SFERN\C02321.AT2;SFERN\C02DWN.AT2;51;321;A;-999;PEA;A;1;2.5;0.100;0.100;20.000;30.000;1.25;0.125;0.125;0.125;4.34E-03;1.32E+00;1.42E+00;4.35E-03;4.40E-03;4.50E-03;4.76E-03;5.36E-03;5.51E-03;5.91E-03;7.07E-03;7.05E-03;1.04E-02;8.06E-03;7.34E-03;7.42E-03;7.71E-03;7.76E-03;7.07E-03;8.31E-03;9.44E-03;8.53E-03;1.03E-02;9.64E-03;9.26E-03;7.98E-03;7.38E-03;8.58E-03;8.52E-03;9.20E-03;9.86E-03;9.89E-03;1.04E-02;9.05E-03;1.04E-02;8.79E-03;8.78E-03;9.82E-03;9.45E-03;8.09E-03;1.16E-02;1.29E-02;1.32E-02;1.26E-02;1.40E-02;1.43E-02;1.53E-02;1.26E-02;1.60E-02;1.37E-02;1.28E-02;1.60E-02;1.37E-02;1.40E-02;1.13E-02;1.95E-02;1.80E-02;1.87E-02;1.51E-02;2.15E-02;1.80E-02;1.88E-02;1.97E-02;2.63E-02;2.20E-02;2.20E-02;1.83E-02;3.04E-02;2.35E-02;1.67E-02;1.75E-02;2.02E-02;2.31E-02;1.30E-02;1.41E-02;1.79E-02;1.47E-02;1.10E-02;1.63E-02;2.08E-02;1.47E-02;1.17E-02;9.64E-03;9.80E-03;9.42E-03;8.06E-03;9.34E-03;9.98E-03;7.74E-03;7.02E-03;5.40E-03;6.11E-03;5.68E-03;5.18E-03;4.25E-03;4.15E-03;3.33E-03;3.19E-03;3.56E-03;3.69E-03;3.51E-03;2.40E-03;2.12E-03;1.94E-03;1.99E-03;2.66E-03;2.98E-03;2.87E-03;2.48E-03;1.97E-03;1.37E-03;9.62E-04;7.06E-04;2.21E-04;290.00;C1;0;C1;0;C1;0;C1;0;C1;0;C1;0;218.65875;8.91E-01;0.1021;-0.1058;0.5;50;-999;-999;-999;-999;0;Y;Y;0;-999;208.65875
61;0030;San Fernando;1971;0209;1400;Cholame - Shandon Array #8;129;1015;6.61;Mw;0.2220;0.112;15;0.2;9.2257E+25;288;50;83;2;4.8;22.0;82.8;153.4;34.4400;-118.4100;13;1;1;-999;1;0;20.0;27.4;438.4;58.8;1.02;57.8;24.5;2.5;0.8;49;1;2.5;0;Sierra Madre-San Fernando;2.00;224.26;224.63;218.17;-999;229.09;218.75;77.4;nu;20;0.36;21.5;0.33;0.14;64.5;0.06;5.70;-999.00;2.93;-999;5.70;-0.34;0.02;-999;-999;-999;89.46;A;H;D;A;C;S;D;256.82;-999;1;0.25;D;-999;-999;CDMG;35.671;-120.359;1;GROUND LEVEL;1.90;-999;-999;Holocene;Fine;Alluvium;80;-999;4120;-999;-999;-999;-999;-999;-999;-999;-999;-999;-999;-999;SFERN\C08051.AT2;SFERN\C08321.AT2;SFERN\C08XXX.AT2;51;321;A;-999;PEA;A;1;2.5;0.100;0.100;23.000;23.000;1.25;0.125;0.125;0.125;5.66E-03;1.38E+00;1.89E+00;5.67E-03;5.71E-03;5.69E-03;5.72E-03;5.89E-03;5.87E-03;5.88E-03;6.03E-03;6.13E-03;6.54E-03;6.54E-03;7.57E-03;6.72E-03;7.38E-03;7.68E-03;7.94E-03;7.39E-03;8.01E-03;7.75E-03;8.91E-03;9.36E-03;9.42E-03;8.57E-03;9.83E-03;8.83E-03;8.24E-03;1.01E-02;8.45E-03;1.12E-02;1.10E-02;1.22E-02;1.11E-02;8.95E-03;1.03E-02;1.05E-02;1.32E-02;1.23E-02;1.17E-02;1.45E-02;1.79E-02;1.68E-02;2.27E-02;2.04E-02;1.88E-02;2.96E-02;3.52E-02;2.68E-02;3.89E-02;3.63E-02;4.37E-02;3.48E-02;3.38E-02;4.97E-02;3.56E-02;2.42E-02;2.83E-02;2.66E-02;2.71E-02;2.42E-02;1.73E-02;1.83E-02;2.95E-02;4.43E-02;3.49E-02;2.95E-02;3.08E-02;3.51E-02;3.57E-02;2.67E-02;3.13E-02;1.62E-02;3.10E-02;1.81E-02;1.39E-02;2.05E-02;1.14E-02;1.80E-02;8.66E-03;1.22E-02;7.72E-03;7.94E-03;7.50E-03;5.45E-03;7.86E-03;5.42E-03;5.42E-03;6.11E-03;6.92E-03;6.47E-03;4.63E-03;4.27E-03;4.39E-03;4.25E-03;3.28E-03;2.45E-03;2.90E-03;3.57E-03;3.04E-03;2.14E-03;1.71E-03;1.61E-03;1.47E-03;1.58E-03;1.81E-03;1.95E-03;1.96E-03;1.97E-03;1.83E-03;1.59E-03;1.30E-03;4.69E-04;290.00;C1;0;C1;0;C1;0;C1;0;C1;0;C1;0;222.68105;8.20E-01;0.1039;-0.0983;0.5;50;-999;-999;-999;-999;0;Y;Y;0;-999;212.68105
62;0030;San Fernando;1971;0209;1400;Colton - So Cal Edison;74;113;6.61;Mw;0.2220;0.112;15;0.2;9.2257E+25;288;50;83;2;4.8;22.0;82.8;153.4;34.4400;-118.4100;13;1;1;-999;1;0;20.0;27.4;438.4;58.8;1.02;57.8;24.5;2.5;0.8;49;1;2.5;0;Sierra Madre-San Fernando;2.00;109.54;110.30;96.81;-999;106.27;96.81;-0.61;nu;-179.64;0.64;3.7;0.64;0.86;11.7;0.85;10.30;-999.00;1.87;-999;15.30;-0.01;-0.01;-999;-999;-999;0.95;A;H;D;A;D;D;D;301.95;-999;0;0.1;D;Qal, deep (incl LA);-999;USGS;34.059;-117.312;1;GROUND LEVEL;0.18;-999;-999;Holocene ;-999;Alluvium;80;-999;340;320;-999;580;-999;-999;-999;-999;-999;-999;-999;-999;SFERN\CLN090.AT2;SFERN\CLN180.AT2;SFERN\CLN-UP.AT2;90;180;A;-999;PEA;A;1;2.5;0.100;0.100;13.000;13.000;1.25;0.125;0.125;0.125;3.85E-02;2.12E+00;3.27E-01;3.85E-02;3.86E-02;3.87E-02;3.87E-02;3.90E-02;3.88E-02;3.90E-02;3.91E-02;3.94E-02;3.97E-02;3.96E-02;4.07E-02;4.04E-02;4.01E-02;4.08E-02;4.11E-02;4.10E-02;4.19E-02;4.40E-02;4.61E-02;5.16E-02;5.42E-02;4.98E-02;5.88E-02;6.66E-02;7.83E-02;8.00E-02;9.80E-02;1.27E-01;1.77E-01;2.58E-01;2.31E-01;1.68E-01;2.24E-01;2.10E-01;2.45E-01;1.56E-01;1.42E-01;1.73E-01;1.61E-01;1.71E-01;1.73E-01;4.08E-01;4.56E-01;3.83E-01;1.64E-01;1.55E-01;1.59E-01;1.37E-01;1.15E-01;1.27E-01;1.07E-01;1.27E-01;1.54E-01;1.75E-01;1.40E-01;8.75E-02;1.13E-01;7.77E-02;4.80E-02;4.07E-02;3.77E-02;4.15E-02;4.14E-02;4.03E-02;3.54E-02;3.24E-02;3.01E-02;2.66E-02;1.97E-02;1.53E-02;2.02E-02;1.45E-02;9.34E-03;9.39E-03;8.75E-03;6.87E-03;5.95E-03;6.19E-03;7.23E-03;7.57E-03;7.04E-03;6.00E-03;4.84E-03;3.87E-03;3.11E-03;2.84E-03;2.68E-03;2.30E-03;1.96E-03;1.71E-03;1.53E-03;1.32E-03;1.17E-03;1.03E-03;7.93E-04;5.96E-04;4.55E-04;3.87E-04;3.29E-04;2.80E-04;2.38E-04;2.04E-04;1.75E-04;1.51E-04;1.16E-04;9.54E-05;7.98E-05;7.00E-05;6.23E-05;3.60E-05;285.00;C1;0;C1;0;C1;0;C1;0;C1;0;C1;0;-96.011041;3.15E-01;0.1757;0.0561;0.5;50;-999;-999;-999;-999;0;Y;Y;0;-999;-106.011041
63;0030;San Fernando;1971;0209;1400;Fairmont Dam;76;121;6.61;Mw;0.2220;0.112;15;0.2;9.2257E+25;288;50;83;2;4.8;22.0;82.8;153.4;34.4400;-118.4100;13;1;1;-999;1;0;20.0;27.4;438.4;58.8;1.02;57.8;24.5;2.5;0.8;49;1;2.5;0;Sierra Madre-San Fernando;2.00;29.41;32.16;25.58;-999;36.41;30.19;34.4;hw;81;0.36;69.9;0.12;0.14;79.6;0.02;5.70;-999.00;1.04;-999;6.81;-0.90;0.00;-999;-999;-999;37.43;H;G;A;E;B;S;C;634.33;-999;2a_3a_4b_4c;0.4;C;Kgr;-999;CDMG;34.704;-118.426;0;ABUTMENT;0.01;-999;-999;Mesozoic/Pleistocene ?;-999;-999;40;-999;240;-999;-999;-999;-999;-999;-999;-999;-999;-999;-999;-999;SFERN\FTR056.AT2;SFERN\FTR326.AT2;SFERN\FTR-UP.AT2;56;326;A;-999;PEA;A;1;2.5;0.150;0.120;35.000;35.000;1.25;0.188;0.150;0.188;9.39E-02;7.13E+00;2.58E+00;9.41E-02;1.07E-01;1.10E-01;1.25E-01;1.61E-01;1.47E-01;1.89E-01;1.59E-01;2.05E-01;1.74E-01;1.65E-01;1.75E-01;2.22E-01;2.38E-01;1.97E-01;2.00E-01;2.35E-01;1.96E-01;2.21E-01;2.39E-01;2.28E-01;2.30E-01;2.29E-01;2.13E-01;2.32E-01;1.93E-01;2.93E-01;3.14E-01;3.84E-01;2.70E-01;3.06E-01;2.28E-01;2.77E-01;2.97E-01;2.81E-01;2.13E-01;2.92E-01;3.38E-01;4.54E-01;6.13E-01;6.68E-01;6.54E-01;4.83E-01;3.59E-01;2.75E-01;1.75E-01;1.31E-01;1.18E-01;1.17E-01;1.08E-01;9.11E-02;9.90E-02;1.06E-01;1.17E-01;1.09E-01;1.17E-01;9.56E-02;1.12E-01;1.31E-01;1.45E-01;1.51E-01;1.58E-01;1.57E-01;1.49E-01;1.44E-01;1.22E-01;1.10E-01;9.85E-02;8.58E-02;7.81E-02;7.09E-02;6.41E-02;5.54E-02;5.60E-02;4.56E-02;3.68E-02;3.14E-02;2.62E-02;2.51E-02;2.08E-02;1.70E-02;1.34E-02;1.97E-02;1.99E-02;1.52E-02;1.21E-02;1.03E-02;8.27E-03;9.44E-03;1.40E-02;1.43E-02;1.34E-02;1.20E-02;1.04E-02;8.70E-03;5.25E-03;3.70E-03;3.45E-03;3.72E-03;2.80E-03;2.20E-03;1.80E-03;1.57E-03;1.33E-03;1.18E-03;9.50E-04;7.06E-04;6.77E-04;6.44E-04;5.79E-04;3.29E-04;290.00;C1;0;C1;0;C1;0;C1;0;C1;0;C1;0;23.639487;3.30E-01;0.0346;-0.1682;0.5;50;-999;-999;-999;-999;0;?;Y;0;-999;13.639487
64;0030;San Fernando;1971;0209;1400;Fort Tejon;122;998;6.61;Mw;0.2220;0.112;15;0.2;9.2257E+25;288;50;83;2;4.8;22.0;82.8;153.4;34.4400;-118.4100;13;1;1;-999;1;0;20.0;27.4;438.4;58.8;1.02;57.8;24.5;2.5;0.8;49;1;2.5;0;Sierra Madre-San Fernando;2.00;65.58;66.86;59.52;-999;71.15;61.64;37.06;nu;35;0.36;31.4;0.3;0.14;77.6;0.03;5.70;-999.00;2.21;-999;5.70;-0.48;0.08;-999;-999;-999;42.29;A;Q;B;D;C;S;C;394.18;-999;0;0.2;B;Kgr;-999;USGS;34.87;-118.9;1;GROUND LEVEL;0.00;-999;-999;Mesozoic/Holocene ?;-999;-999;40;-999;260;-999;-999;-999;-999;-999;-999;-999;-999;-999;-999;-999;SFERN\FTJ000.AT2;SFERN\FTJ090.AT2;SFERN\FTJ-UP.AT2;0;90;A;-999;PEA;A;1;2.5;0.100;0.100;20.000;20.000;1.25;0.125;0.125;0.125;2.40E-02;1.20E+00;3.07E-01;2.41E-02;2.45E-02;2.48E-02;2.50E-02;2.59E-02;2.65E-02;2.61E-02;2.77E-02;2.88E-02;3.16E-02;3.06E-02;3.19E-02;3.43E-02;3.86E-02;3.61E-02;3.39E-02;5.62E-02;4.58E-02;6.72E-02;7.27E-02;7.94E-02;8.05E-02;9.23E-02;8.37E-02;1.24E-01;1.43E-01;1.65E-01;1.61E-01;1.13E-01;1.32E-01;1.36E-01;9.82E-02;1.83E-01;1.36E-01;1.21E-01;1.26E-01;1.35E-01;1.66E-01;1.44E-01;1.09E-01;1.10E-01;1.10E-01;1.18E-01;8.91E-02;1.05E-01;1.48E-01;1.37E-01;1.42E-01;1.02E-01;9.24E-02;7.80E-02;4.93E-02;4.96E-02;4.13E-02;4.66E-02;3.59E-02;2.96E-02;2.58E-02;2.67E-02;2.21E-02;1.80E-02;1.30E-02;1.02E-02;9.08E-03;1.36E-02;1.45E-02;1.23E-02;1.15E-02;1.49E-02;1.19E-02;9.07E-03;8.76E-03;8.45E-03;7.26E-03;7.49E-03;7.76E-03;7.48E-03;7.99E-03;1.01E-02;8.46E-03;7.60E-03;6.84E-03;5.26E-03;4.20E-03;3.73E-03;3.54E-03;3.51E-03;3.54E-03;3.46E-03;3.27E-03;2.85E-03;2.37E-03;1.96E-03;1.63E-03;1.38E-03;9.44E-04;6.57E-04;5.09E-04;4.08E-04;3.35E-04;2.77E-04;2.30E-04;1.93E-04;1.64E-04;1.43E-04;1.15E-04;9.43E-05;7.89E-05;6.70E-05;5.76E-05;3.20E-05;290.00;C1;0;C1;0;C1;0;C1;0;C1;0;C1;0;70.259337;1.01E+00;0.1031;-0.1181;0.5;50;-999;-999;-999;-999;0;Y;Y;0;-999;60.259337
